<?xml version="1.0" encoding="UTF-8"?>
<kml xmlns="http://www.opengis.net/kml/2.2">
  <Document>
    <name>YardBird SA Saturday LIVE 2026-08-15</name>
    <description>Focused Discovery + Sentinel morning pass — Atlas | Confidence 0.85</description>
    <Style id="sale">
      <IconStyle>
        <scale>1.1</scale>
        <Icon><href>http://maps.google.com/mapfiles/kml/paddle/red-circle.png</href></Icon>
      </IconStyle>
    </Style>
    <Style id="hot">
      <IconStyle>
        <scale>1.3</scale>
        <Icon><href>http://maps.google.com/mapfiles/kml/paddle/ylw-stars.png</href></Icon>
      </IconStyle>
    </Style>
    <Placemark>
      <name>710 N Olive St — Tools &amp; Household</name>
      <description>Sat-Sun Aug 15-16 | clothes, tools, household | conf 0.90</description>
      <styleUrl>#sale</styleUrl>
      <Point><coordinates>-98.4795,29.4305,0</coordinates></Point>
    </Placemark>
    <Placemark>
      <name>2122 Fallow Run — Huge Garage (Stone Oak)</name>
      <description>Fri-Sat Aug 14-15 8am-3pm | brand clothing, jewelry, furniture, baby | conf 0.92</description>
      <styleUrl>#hot</styleUrl>
      <Point><coordinates>-98.4960,29.6100,0</coordinates></Point>
    </Placemark>
    <Placemark>
      <name>123 Northview Cir Cibolo — Multi-family</name>
      <description>Fri-Sat 9am-3pm | antiques, name brand clothes, fixtures, electronics | conf 0.90</description>
      <styleUrl>#hot</styleUrl>
      <Point><coordinates>-98.2300,29.5600,0</coordinates></Point>
    </Placemark>
    <Placemark>
      <name>3211 Morning Crk — Multi Family (NE)</name>
      <description>Fri-Sat Aug 14-15 | electronics, furniture, vintage, decor | conf 0.88</description>
      <styleUrl>#sale</styleUrl>
      <Point><coordinates>-98.4200,29.5800,0</coordinates></Point>
    </Placemark>
    <Placemark>
      <name>9215 Osage Valley — Community Yard Sale</name>
      <description>Sat Aug 15 | conf 0.82</description>
      <styleUrl>#sale</styleUrl>
      <Point><coordinates>-98.5200,29.4800,0</coordinates></Point>
    </Placemark>
    <Placemark>
      <name>8645 Fredericksburg Rd — Art Liquidation</name>
      <description>Through Aug 16 | framed art, wall hangings | conf 0.85</description>
      <styleUrl>#sale</styleUrl>
      <Point><coordinates>-98.5800,29.5300,0</coordinates></Point>
    </Placemark>
  </Document>
</kml>