<?xml version="1.0" encoding="UTF-8"?>
<kml xmlns="http://www.opengis.net/kml/2.2">
  <Document>
    <name>YardBird San Antonio — 2026-08-01 Seed</name>
    <description>Initial verified estate-sale layer for Saturday 1 Aug 2026. Generated by Project YardBird. Import into Google My Maps. Confidence scores and full records live in data/.</description>

    <Placemark>
      <name>From Trash To Treasure — Nuggett Peak</name>
      <description>Jul 31 – Aug 2 • 9am-4pm • 4410 Nuggett Peak, 78259 • Fiesta, Manhattan Glass, Dept 56 &amp; more • Estate</description>
      <Point><coordinates>-98.48,29.58,0</coordinates></Point>
    </Placemark>

    <Placemark>
      <name>Southern Charm — Pepperidge / Wetz Rd</name>
      <description>Jul 31 – Aug 2 • 9am-3pm • 4626 Wetz Rd, 78217 • Estate</description>
      <Point><coordinates>-98.45,29.55,0</coordinates></Point>
    </Placemark>

    <Placemark>
      <name>Top Hat Estate Sales — The Tool Box</name>
      <description>Jul 31 – Aug 1 • 9am-3pm • 11788 Southton Rd, 78223 • Tools focus • Estate</description>
      <Point><coordinates>-98.42,29.35,0</coordinates></Point>
    </Placemark>

    <Placemark>
      <name>Professional Estate Sales — Terrell Hills / Canterbury Hill</name>
      <description>Jul 31 – Aug 1 • 9am-4pm • 805 Canterbury Hill, 78209 • Furniture, art, china, crystal, rugs • 25% off Friday</description>
      <Point><coordinates>-98.46,29.48,0</coordinates></Point>
    </Placemark>

    <Placemark>
      <name>About Face Estate Sales — Morgans Creek</name>
      <description>Jul 31 – Aug 1 • 9am-5pm • 3947 Morgans Creek, 78230 • Sterling, gold, French desk, Baccarat, Prada, Ralph Lauren</description>
      <Point><coordinates>-98.55,29.55,0</coordinates></Point>
    </Placemark>

    <Placemark>
      <name>My Estate To Liquidate — Converse / Nediator Run</name>
      <description>Jul 31 – Aug 2 • 10am-4pm • 9603 Nediator Run, Converse 78109 • Large inventory</description>
      <Point><coordinates>-98.30,29.52,0</coordinates></Point>
    </Placemark>

  </Document>
</kml>
