<?xml version="1.0" encoding="UTF-8"?>
<kml xmlns="http://www.opengis.net/kml/2.2">
<Document>
<name>Chica Map Saturday Live 2026-08-22</name>
<Placemark><name>Hidden Jewel Estate Sale</name><Point><coordinates>-98.1942,29.933,0</coordinates></Point></Placemark>
<Placemark><name>Craftsman Estate Sale 306 Bailey</name><Point><coordinates>-98.4692512,29.3939162,0</coordinates></Point></Placemark>
<Placemark><name>Potranco Run Community Yard Sale</name><Point><coordinates>-98.79495,29.4228,0</coordinates></Point></Placemark>
<Placemark><name>Rita Ave yard sale</name><Point><coordinates>-98.5789,29.4608,0</coordinates></Point></Placemark>
<Placemark><name>13711 Shavano Mist</name><Point><coordinates>-98.568605,29.571028,0</coordinates></Point></Placemark>
<Placemark><name>13771 Shavano Mist</name><Point><coordinates>-98.569043,29.572122,0</coordinates></Point></Placemark>
<Placemark><name>Tulia Grove Live Oak</name><Point><coordinates>-98.3430125,29.54613466,0</coordinates></Point></Placemark>
<Placemark><name>Lilly-Crest Dr</name><Point><coordinates>-98.468282,29.595408,0</coordinates></Point></Placemark>
<Placemark><name>Irish Creek Schertz</name><Point><coordinates>-98.292261,29.576699,0</coordinates></Point></Placemark>
<Placemark><name>Wagner Ave</name><Point><coordinates>-98.536078,29.364565,0</coordinates></Point></Placemark>
<Placemark><name>Basswood Dr</name><Point><coordinates>-98.524746,29.503582,0</coordinates></Point></Placemark>
<Placemark><name>Blessing St</name><Point><coordinates>-98.587109,29.454599,0</coordinates></Point></Placemark>
<Placemark><name>Furlong Dr Universal City</name><Point><coordinates>-98.299613,29.55372,0</coordinates></Point></Placemark>
<Placemark><name>Rue Sophie St</name><Point><coordinates>-98.607194,29.491001,0</coordinates></Point></Placemark>
<Placemark><name>Emerald Pl</name><Point><coordinates>-98.67749,29.43628,0</coordinates></Point></Placemark>
<Placemark><name>Moonlit Grove</name><Point><coordinates>-98.433022,29.579679,0</coordinates></Point></Placemark>
<Placemark><name>Brooks Ave Schertz</name><Point><coordinates>-98.276071,29.555689,0</coordinates></Point></Placemark>
<Placemark><name>Jack Bean St</name><Point><coordinates>-98.6188,29.5326,0</coordinates></Point></Placemark>
<Placemark><name>Altius Pass</name><Point><coordinates>-98.7,29.42,0</coordinates></Point></Placemark>
<Placemark><name>Green Spring Drive</name><Point><coordinates>-98.427915,29.580824,0</coordinates></Point></Placemark>
<Placemark><name>Rizzoli Ave</name><Point><coordinates>-98.431292,29.666488,0</coordinates></Point></Placemark>
<Placemark><name>9207 Northchase</name><Point><coordinates>-98.662356,29.501971,0</coordinates></Point></Placemark>
<Placemark><name>Luckey View</name><Point><coordinates>-98.728681,29.364186,0</coordinates></Point></Placemark>
<Placemark><name>Fuller Ln Adkins</name><Point><coordinates>-98.247,29.358,0</coordinates></Point></Placemark>
<Placemark><name>Hunters Creek</name><Point><coordinates>-98.543219,29.56441,0</coordinates></Point></Placemark>
<Placemark><name>Westview Court</name><Point><coordinates>-98.262734,29.860823,0</coordinates></Point></Placemark>
<Placemark><name>Byrnes Dr</name><Point><coordinates>-98.4554,29.4821,0</coordinates></Point></Placemark>
<Placemark><name>171 Rosemont</name><Point><coordinates>-98.542796,29.470939,0</coordinates></Point></Placemark>
<Placemark><name>329 Skyforest</name><Point><coordinates>-98.494148,29.598421,0</coordinates></Point></Placemark>
<Placemark><name>1711 Sandringham</name><Point><coordinates>-98.519519,29.611918,0</coordinates></Point></Placemark>
<Placemark><name>Ullman Dr</name><Point><coordinates>-98.3446,29.4492,0</coordinates></Point></Placemark>
<Placemark><name>Ellen St</name><Point><coordinates>-98.053009,29.65243,0</coordinates></Point></Placemark>
<Placemark><name>Spring Branch RR473</name><Point><coordinates>-98.4936,29.4241,0</coordinates></Point></Placemark>
</Document>
</kml>
