<?xml version="1.0" encoding="UTF-8"?>
<kml xmlns="http://www.opengis.net/kml/2.2">
  <Document>
    <name>YardBird San Antonio — Saturday 2026-08-08 Live</name>
    <description>Project YardBird GSIN focused Discovery + Sentinel pass. Status: verified. Confidence: 0.82. Generated 2026-08-08. High-value estate layer for Saturday peak.</description>
    <Style id="estate">
      <IconStyle>
        <color>ff0000ff</color>
        <scale>1.2</scale>
        <Icon><href>http://maps.google.com/mapfiles/kml/paddle/red-circle.png</href></Icon>
      </IconStyle>
    </Style>
    <Style id="high-value">
      <IconStyle>
        <color>ff00ffff</color>
        <scale>1.3</scale>
        <Icon><href>http://maps.google.com/mapfiles/kml/paddle/ylw-stars.png</href></Icon>
      </IconStyle>
    </Style>
    <Style id="warehouse">
      <IconStyle>
        <color>ff00a5ff</color>
        <scale>1.1</scale>
        <Icon><href>http://maps.google.com/mapfiles/kml/paddle/orange-circle.png</href></Icon>
      </IconStyle>
    </Style>
    <Placemark>
      <name>Helotes — A STEP BACK IN TIME</name>
      <description>Aug 7-9 • 9am-4pm • From Trash To Treasure • Helotes 78023 • Rare items, sewing, electronics</description>
      <styleUrl>#high-value</styleUrl>
      <Point><coordinates>-98.6890,29.5650,0</coordinates></Point>
    </Placemark>
    <Placemark>
      <name>Redland Springs Moving Sale</name>
      <description>Aug 7-8 • 9am-4pm • Antiques, vintage, collectibles • 16522 Calico Creek 78247</description>
      <styleUrl>#estate</styleUrl>
      <Point><coordinates>-98.4200,29.5800,0</coordinates></Point>
    </Placemark>
    <Placemark>
      <name>Cadillac Dr Estate (Top Hat)</name>
      <description>Aug 7-8 • 9am-3pm • 14684 Cadillac Dr 78248</description>
      <styleUrl>#estate</styleUrl>
      <Point><coordinates>-98.5500,29.5800,0</coordinates></Point>
    </Placemark>
    <Placemark>
      <name>Alamo City Mercantale Warehouse</name>
      <description>Aug 7-9 • 9am-4pm • Tools, Funko, comics, antiques • 3903 Eisenhauer 78218</description>
      <styleUrl>#warehouse</styleUrl>
      <Point><coordinates>-98.4000,29.5000,0</coordinates></Point>
    </Placemark>
    <Placemark>
      <name>Holiday House — Garden Ridge</name>
      <description>Aug 7-8 • 10am-4pm • Crystal's Estate Sales • 19835 Brandywine Cove</description>
      <styleUrl>#high-value</styleUrl>
      <Point><coordinates>-98.3000,29.6300,0</coordinates></Point>
    </Placemark>
    <Placemark>
      <name>Quaintly Windcrest</name>
      <description>Aug 7+ • 8am start • Heritage Senior Downsizing • 78239</description>
      <styleUrl>#estate</styleUrl>
      <Point><coordinates>-98.3800,29.5500,0</coordinates></Point>
    </Placemark>
  </Document>
</kml>