{"type": "FeatureCollection", "features": [{"type": "Feature", "geometry": {"type": "Point", "coordinates": [-98.495866, 29.437526]}, "properties": {"name": "Any Baby Can", "address": "217 Howard St., San Antonio, TX 78212", "hours": "24/7 (outside gate)", "provider": "Community First Health Plans", "category": "24h_food_pantry", "icon": "food-pantry"}}, {"type": "Feature", "geometry": {"type": "Point", "coordinates": [-98.483861, 29.399409]}, "properties": {"name": "James Bonham Academy (SAISD)", "address": "122 W Whittier St., San Antonio, TX 78210", "hours": "24/7", "provider": "Community First Health Plans", "category": "24h_food_pantry", "icon": "food-pantry"}}, {"type": "Feature", "geometry": {"type": "Point", "coordinates": [-98.461351, 29.427035]}, "properties": {"name": "Gardopia Gardens", "address": "619 N New Braunfels Ave, San Antonio, TX 78202", "hours": "24/7", "provider": "Community First Health Plans", "category": "24h_food_pantry", "icon": "food-pantry"}}, {"type": "Feature", "geometry": {"type": "Point", "coordinates": [-98.467736, 29.442799]}, "properties": {"name": "Saint Paul’s Episcopal Church", "address": "1018 E Grayson St, San Antonio, TX 78208", "hours": "24/7 (front)", "provider": "Community First Health Plans", "category": "24h_food_pantry", "icon": "food-pantry"}}, {"type": "Feature", "geometry": {"type": "Point", "coordinates": [-98.457241, 29.411322]}, "properties": {"name": "Smith Elementary (SAISD)", "address": "823 S Gevers St., San Antonio, TX 78203", "hours": "24/7", "provider": "Community First Health Plans", "category": "24h_food_pantry", "icon": "food-pantry"}}, {"type": "Feature", "geometry": {"type": "Point", "coordinates": [-98.54159, 29.448453]}, "properties": {"name": "Fenwick Elementary School (SAISD)", "address": "1930 Waverly Ave, San Antonio, TX 78228", "hours": "24/7", "provider": "Community First Health Plans", "category": "24h_food_pantry", "icon": "food-pantry"}}, {"type": "Feature", "geometry": {"type": "Point", "coordinates": [-98.493987, 29.473912]}, "properties": {"name": "El Salvador Assembly of God Church", "address": "201 Odell, San Antonio, TX 78212", "hours": "24/7", "provider": "Community First Health Plans", "category": "24h_food_pantry", "icon": "food-pantry"}}, {"type": "Feature", "geometry": {"type": "Point", "coordinates": [-98.485704, 29.370076]}, "properties": {"name": "Gilbert Elementary (HISD)", "address": "931 E Southcross Blvd, San Antonio, TX 78214", "hours": "24/7", "provider": "Community First Health Plans", "category": "24h_food_pantry", "icon": "food-pantry"}}, {"type": "Feature", "geometry": {"type": "Point", "coordinates": [-98.501998, 29.369397]}, "properties": {"name": "Adams Elementary (HISD)", "address": "135 E Southcross, San Antonio, TX 78214", "hours": "24/7", "provider": "Community First Health Plans", "category": "24h_food_pantry", "icon": "food-pantry"}}, {"type": "Feature", "geometry": {"type": "Point", "coordinates": [-98.517952, 29.372878]}, "properties": {"name": "Stonewall Flanders Elementary (HISD)", "address": "804 Stonewall, San Antonio, TX 78221", "hours": "24/7", "provider": "Community First Health Plans", "category": "24h_food_pantry", "icon": "food-pantry"}}, {"type": "Feature", "geometry": {"type": "Point", "coordinates": [-98.549463, 29.452558]}, "properties": {"name": "Autism Community Network", "address": "535 Bandera Rd, San Antonio, TX 78228", "hours": "24/7", "provider": "Community First Health Plans", "category": "24h_food_pantry", "icon": "food-pantry"}}, {"type": "Feature", "geometry": {"type": "Point", "coordinates": [-98.492564, 29.364236]}, "properties": {"name": "Wright Elementary (HISD)", "address": "115 E Huff Ave., San Antonio, TX 78214", "hours": "24/7", "provider": "Community First Health Plans", "category": "24h_food_pantry", "icon": "food-pantry"}}, {"type": "Feature", "geometry": {"type": "Point", "coordinates": [-98.498763, 29.363828]}, "properties": {"name": "Harlandale Middle (HISD)", "address": "300 W Huff, San Antonio, TX 78221", "hours": "24/7", "provider": "Community First Health Plans", "category": "24h_food_pantry", "icon": "food-pantry"}}, {"type": "Feature", "geometry": {"type": "Point", "coordinates": [-98.523325, 29.367803]}, "properties": {"name": "Collier Elementary (HISD)", "address": "834 W. Southcross, San Antonio, TX 78221", "hours": "24/7", "provider": "Community First Health Plans", "category": "24h_food_pantry", "icon": "food-pantry"}}, {"type": "Feature", "geometry": {"type": "Point", "coordinates": [-98.515272, 29.483411]}, "properties": {"name": "Neal Elementary (SAISD)", "address": "3407 Capitol Ave, San Antonio, TX 78201", "hours": "24/7", "provider": "Community First Health Plans", "category": "24h_food_pantry", "icon": "food-pantry"}}, {"type": "Feature", "geometry": {"type": "Point", "coordinates": [-98.41358, 29.40744]}, "properties": {"name": "Henry Carroll Early Child Education Center (SAISD)", "address": "463 Holmgreen Rd, San Antonio, TX 78220", "hours": "24/7 (inside playground)", "provider": "Community First Health Plans", "category": "24h_food_pantry", "icon": "food-pantry"}}, {"type": "Feature", "geometry": {"type": "Point", "coordinates": [-98.455316, 29.492125]}, "properties": {"name": "Charis Collective at Sunset Ridge", "address": "95 Brees Blvd, San Antonio, TX 78209", "hours": "24/7", "provider": "Community First Health Plans", "category": "24h_food_pantry", "icon": "food-pantry"}}, {"type": "Feature", "geometry": {"type": "Point", "coordinates": [-98.568754, 29.465553]}, "properties": {"name": "Woodlawn Hills Elementary", "address": "110 W Quill Dr, San Antonio, TX 78228", "hours": "24/7", "provider": "Community First Health Plans", "category": "24h_food_pantry", "icon": "food-pantry"}}, {"type": "Feature", "geometry": {"type": "Point", "coordinates": [-98.509996, 29.344506]}, "properties": {"name": "Terrell Wells Middle (HISD)", "address": "422 W Hutchins, San Antonio, TX 78221", "hours": "24/7", "provider": "Community First Health Plans", "category": "24h_food_pantry", "icon": "food-pantry"}}, {"type": "Feature", "geometry": {"type": "Point", "coordinates": [-98.416398, 29.37235]}, "properties": {"name": "Pecan Valley Elementary School (ECISD)", "address": "3966 E Southcross, San Antonio, TX 78222", "hours": "24/7", "provider": "Community First Health Plans", "category": "24h_food_pantry", "icon": "food-pantry"}}, {"type": "Feature", "geometry": {"type": "Point", "coordinates": [-98.493384, 29.331069]}, "properties": {"name": "Schulze Elementary (HISD)", "address": "9131 Yett Drive, San Antonio, TX 78221", "hours": "24/7", "provider": "Community First Health Plans", "category": "24h_food_pantry", "icon": "food-pantry"}}, {"type": "Feature", "geometry": {"type": "Point", "coordinates": [-98.420821, 29.353756]}, "properties": {"name": "Highland Forest Elementary (ECISD)", "address": "3736 SE Military Dr, San Antonio, TX 78223", "hours": "24/7", "provider": "Community First Health Plans", "category": "24h_food_pantry", "icon": "food-pantry"}}, {"type": "Feature", "geometry": {"type": "Point", "coordinates": [-98.51911, 29.331068]}, "properties": {"name": "Gillette Elementary (HISD)", "address": "625 Gillette Blvd, San Antonio, TX 78221", "hours": "24/7", "provider": "Community First Health Plans", "category": "24h_food_pantry", "icon": "food-pantry"}}, {"type": "Feature", "geometry": {"type": "Point", "coordinates": [-98.399748, 29.365714]}, "properties": {"name": "Legacy Middle School (ECISD)", "address": "5903 SE Loop 410 Acc Rd, San Antonio, TX 78222", "hours": "24/7", "provider": "Community First Health Plans", "category": "24h_food_pantry", "icon": "food-pantry"}}, {"type": "Feature", "geometry": {"type": "Point", "coordinates": [-98.399889, 29.363558]}, "properties": {"name": "Salado Elementary School (ECISD)", "address": "3602 S WW White Rd, San Antonio, TX 78222", "hours": "24/7", "provider": "Community First Health Plans", "category": "24h_food_pantry", "icon": "food-pantry"}}, {"type": "Feature", "geometry": {"type": "Point", "coordinates": [-98.601316, 29.472331]}, "properties": {"name": "Church of God Northwest", "address": "5914 Silvercrest, San Antonio, TX 78228", "hours": "24/7", "provider": "Community First Health Plans", "category": "24h_food_pantry", "icon": "food-pantry"}}, {"type": "Feature", "geometry": {"type": "Point", "coordinates": [-98.373116, 29.384953]}, "properties": {"name": "Sinclair Elementary School (ECISD)", "address": "6126 Sinclair Rd, San Antonio, TX 78222", "hours": "24/7", "provider": "Community First Health Plans", "category": "24h_food_pantry", "icon": "food-pantry"}}, {"type": "Feature", "geometry": {"type": "Point", "coordinates": [-98.622682, 29.430392]}, "properties": {"name": "Passmore Elementary School (SAISD)", "address": "570 Pinn Rd., San Antonio, TX 78227", "hours": "24/7 (outside side parking)", "provider": "Community First Health Plans", "category": "24h_food_pantry", "icon": "food-pantry"}}, {"type": "Feature", "geometry": {"type": "Point", "coordinates": [-98.360103, 29.468773]}, "properties": {"name": "San Antonio Prepatory School", "address": "6127 Summer Fest Dr., San Antonio, TX 78244", "hours": "24/7", "provider": "Community First Health Plans", "category": "24h_food_pantry", "icon": "food-pantry"}}, {"type": "Feature", "geometry": {"type": "Point", "coordinates": [-98.569591, 29.551235]}, "properties": {"name": "Shenandoah Community Of Christ", "address": "11910 Vance Jackson, San Antonio, TX 78230", "hours": "24/7", "provider": "Community First Health Plans", "category": "24h_food_pantry", "icon": "food-pantry"}}, {"type": "Feature", "geometry": {"type": "Point", "coordinates": [-98.385361, 29.314379]}, "properties": {"name": "Harmony Elementary School (ECISD)", "address": "10625 Green Lake St., San Antonio, TX 78223", "hours": "24/7", "provider": "Community First Health Plans", "category": "24h_food_pantry", "icon": "food-pantry"}}, {"type": "Feature", "geometry": {"type": "Point", "coordinates": [-98.393244, 29.540259]}, "properties": {"name": "SAFC", "address": "5106 David Edwards Dr, San Antonio, TX 78233", "hours": "24/7 (outside STAR Soccer)", "provider": "Community First Health Plans", "category": "24h_food_pantry", "icon": "food-pantry"}}, {"type": "Feature", "geometry": {"type": "Point", "coordinates": [-98.663931, 29.442766]}, "properties": {"name": "YMCA Potranco", "address": "8765 Highway 151 Access Rd, San Antonio, TX 78245", "hours": "24/7", "provider": "Community First Health Plans", "category": "24h_food_pantry", "icon": "food-pantry"}}, {"type": "Feature", "geometry": {"type": "Point", "coordinates": [-98.641797, 29.533892]}, "properties": {"name": "YMCA OP Schnabel", "address": "9606 Bandera Rd, San Antonio, TX 78250", "hours": "24/7", "provider": "Community First Health Plans", "category": "24h_food_pantry", "icon": "food-pantry"}}, {"type": "Feature", "geometry": {"type": "Point", "coordinates": [-98.294089, 29.351217]}, "properties": {"name": "CAST Lead High School (ECISD)", "address": "7284 FM1628, San Antonio, TX 78263", "hours": "24/7", "provider": "Community First Health Plans", "category": "24h_food_pantry", "icon": "food-pantry"}}, {"type": "Feature", "geometry": {"type": "Point", "coordinates": [-98.687886, 29.565563]}, "properties": {"name": "Forest Hills Presbyterian Church", "address": "13200 Bandera Rd, San Antonio, TX 78023", "hours": "24/7", "provider": "Community First Health Plans", "category": "24h_food_pantry", "icon": "food-pantry"}}], "metadata": {"source": "Community First Health Plans", "updated": "2026-08-15", "count": 36, "note": "Primarily outdoor free-standing 24/7 pantries operated by Community First Health Plans. Take what you need, leave what you can. Availability varies. Official map: https://communityfirsthealthplans.com/food-pantry/"}}