{"type":"FeatureCollection","name":"San Antonio Thrift Resale Consignment Vintage Flea","features":[{"type":"Feature","geometry":{"type":"Point","coordinates":[-98.624725,29.464512]},"properties":{"name":"Texas Thrift (Ingram)","address":"6776 Ingram Rd, San Antonio, TX 78238","category":"chain","type":"thrift"}},{"type":"Feature","geometry":{"type":"Point","coordinates":[-98.490585,29.355965]},"properties":{"name":"Texas Thrift (SE Military)","address":"6708 S Flores St, San Antonio, TX 78221","category":"chain","type":"thrift"}},{"type":"Feature","geometry":{"type":"Point","coordinates":[-98.544065,29.429626]},"properties":{"name":"Texas Thrift (Commerce)","address":"4114 W Commerce St, San Antonio, TX 78207","category":"chain","type":"thrift"}},{"type":"Feature","geometry":{"type":"Point","coordinates":[-98.398884,29.501748]},"properties":{"name":"Texas Thrift (Windcrest)","address":"7500 N Interstate 35 #104, Windcrest, TX 78218","category":"chain","type":"thrift"}},{"type":"Feature","geometry":{"type":"Point","coordinates":[-98.625271,29.49717]},"properties":{"name":"Thrift City","address":"6804 Huebner Rd, San Antonio, TX 78238","category":"chain","type":"thrift"}},{"type":"Feature","geometry":{"type":"Point","coordinates":[-98.442252,29.578487]},"properties":{"name":"Thrift Town","address":"2864 Thousand Oaks Dr, San Antonio, TX 78232","category":"chain","type":"thrift"}},{"type":"Feature","geometry":{"type":"Point","coordinates":[-98.553395,29.455958]},"properties":{"name":"Family Thrift Center (Bandera)","address":"811 Bandera Rd, San Antonio, TX 78228","category":"chain","type":"thrift"}},{"type":"Feature","geometry":{"type":"Point","coordinates":[-98.441523,29.366022]},"properties":{"name":"Family Thrift Center (Goliad)","address":"2017 Goliad Rd, San Antonio, TX 78223","category":"chain","type":"thrift"}},{"type":"Feature","geometry":{"type":"Point","coordinates":[-98.49748,29.425135]},"properties":{"name":"Goodwill (Commerce St)","address":"406 W Commerce St, San Antonio, TX 78207","category":"goodwill","type":"thrift"}},{"type":"Feature","geometry":{"type":"Point","coordinates":[-98.432131,29.353752]},"properties":{"name":"Goodwill (Goliad Rd)","address":"2902 Goliad Rd Ste 121, San Antonio, TX 78223","category":"goodwill","type":"thrift"}},{"type":"Feature","geometry":{"type":"Point","coordinates":[-98.405525,29.403532]},"properties":{"name":"Goodwill (S. WW White Rd)","address":"1721 S WW White Rd, San Antonio, TX 78220","category":"goodwill","type":"thrift"}},{"type":"Feature","geometry":{"type":"Point","coordinates":[-98.536514,29.356586]},"properties":{"name":"Goodwill (SW Military Dr)","address":"2514 SW Military Dr Ste 102, San Antonio, TX 78224","category":"goodwill","type":"thrift"}},{"type":"Feature","geometry":{"type":"Point","coordinates":[-98.58418,29.48848]},"properties":{"name":"Goodwill (NW Loop 410)","address":"4949 Northwest Loop 410, San Antonio, TX 78229","category":"goodwill","type":"thrift"}},{"type":"Feature","geometry":{"type":"Point","coordinates":[-98.536368,29.47473]},"properties":{"name":"Goodwill (Fredericksburg Rd)","address":"3401 Fredericksburg Road, San Antonio, TX 78201","category":"goodwill","type":"thrift"}},{"type":"Feature","geometry":{"type":"Point","coordinates":[-98.70142,29.492846]},"properties":{"name":"Goodwill (Culebra Rd)","address":"10647 Culebra Road, San Antonio, TX 78251","category":"goodwill","type":"thrift"}},{"type":"Feature","geometry":{"type":"Point","coordinates":[-98.591567,29.558669]},"properties":{"name":"Goodwill (IH-10 Frontage Rd)","address":"12332 Interstate Highway 10 Frontage Road, San Antonio, TX 78230","category":"goodwill","type":"thrift"}},{"type":"Feature","geometry":{"type":"Point","coordinates":[-98.420783,29.600094]},"properties":{"name":"Goodwill (Loop 1604 East)","address":"3730 North Loop 1604 East, San Antonio, TX 78247","category":"goodwill","type":"thrift"}},{"type":"Feature","geometry":{"type":"Point","coordinates":[-98.465146,29.517548]},"properties":{"name":"Goodwill (NW Loop 410 - North)","address":"727 Northwest Loop 410, San Antonio, TX 78216","category":"goodwill","type":"thrift"}},{"type":"Feature","geometry":{"type":"Point","coordinates":[-98.361521,29.480516]},"properties":{"name":"Goodwill (Rittiman Rd)","address":"6363 Rittiman Rd, San Antonio, TX 78218","category":"goodwill","type":"thrift"}},{"type":"Feature","geometry":{"type":"Point","coordinates":[-98.432509,29.494371]},"properties":{"name":"Goodwill (Austin Hwy)","address":"1533 Austin Hwy, San Antonio, TX 78218","category":"goodwill","type":"thrift"}},{"type":"Feature","geometry":{"type":"Point","coordinates":[-98.483548,29.562958]},"properties":{"name":"Goodwill (San Pedro / Bitters)","address":"13311 San Pedro Ave, San Antonio, TX 78216","category":"goodwill","type":"thrift"}},{"type":"Feature","geometry":{"type":"Point","coordinates":[-98.452572,29.643856]},"properties":{"name":"Goodwill (US 281 N)","address":"21230 US-281, San Antonio, TX 78258","category":"goodwill","type":"thrift"}},{"type":"Feature","geometry":{"type":"Point","coordinates":[-98.650056,29.416222]},"properties":{"name":"Goodwill (SW Loop 410)","address":"1739 SW Loop 410, San Antonio, TX 78227","category":"goodwill","type":"thrift"}},{"type":"Feature","geometry":{"type":"Point","coordinates":[-98.557479,29.431137]},"properties":{"name":"Goodwill (W Commerce)","address":"4861 W Commerce St, San Antonio, TX 78237","category":"goodwill","type":"thrift"}},{"type":"Feature","geometry":{"type":"Point","coordinates":[-98.335135,29.571417]},"properties":{"name":"Goodwill (Live Oak)","address":"7693 N Loop 1604 E, Live Oak, TX 78233","category":"goodwill","type":"thrift"}},{"type":"Feature","geometry":{"type":"Point","coordinates":[-98.234563,29.572256]},"properties":{"name":"Goodwill (Cibolo)","address":"635 Cibolo Valley Dr, Cibolo, TX 78108","category":"goodwill","type":"thrift"}},{"type":"Feature","geometry":{"type":"Point","coordinates":[-98.124946,29.683583]},"properties":{"name":"Goodwill (New Braunfels)","address":"1075 S Walnut Ave, New Braunfels, TX 78130","category":"goodwill","type":"thrift"}},{"type":"Feature","geometry":{"type":"Point","coordinates":[-97.942906,29.56908]},"properties":{"name":"Goodwill (Seguin)","address":"1431 E Court St, Seguin, TX 78155","category":"goodwill","type":"thrift"}},{"type":"Feature","geometry":{"type":"Point","coordinates":[-98.49645,29.356764]},"properties":{"name":"Salvation Army (SW Military Dr)","address":"301 SW Military Dr, San Antonio, TX 78221","category":"salvation-army","type":"thrift"}},{"type":"Feature","geometry":{"type":"Point","coordinates":[-98.500628,29.410813]},"properties":{"name":"Salvation Army (S. Flores St)","address":"1324 S Flores St, San Antonio, TX 78204","category":"salvation-army","type":"thrift"}},{"type":"Feature","geometry":{"type":"Point","coordinates":[-98.68234,29.539141]},"properties":{"name":"Salvation Army (W. Loop 1604 N)","address":"10203 W Loop 1604 N, San Antonio, TX 78254","category":"salvation-army","type":"thrift"}},{"type":"Feature","geometry":{"type":"Point","coordinates":[-98.4952,29.405345]},"properties":{"name":"Habitat Home Center (Probandt St)","address":"311 Probandt St, San Antonio, TX 78204","category":"habitat","type":"thrift"}},{"type":"Feature","geometry":{"type":"Point","coordinates":[-98.382286,29.510228]},"properties":{"name":"Habitat Home Center (Walzem Rd)","address":"5482 Walzem Rd, San Antonio, TX 78218","category":"habitat","type":"thrift"}},{"type":"Feature","geometry":{"type":"Point","coordinates":[-98.645576,29.419747]},"properties":{"name":"Habitat Home Center (Meadow Leaf Dr)","address":"8125 Meadow Leaf Dr, San Antonio, TX 78227","category":"habitat","type":"thrift"}},{"type":"Feature","geometry":{"type":"Point","coordinates":[-98.491574,29.527792]},"properties":{"name":"Thrift @ The Warehouse (North Central)","address":"305 E Ramsey Rd Suite 307, San Antonio, TX 78216","category":"independent","type":"thrift"}},{"type":"Feature","geometry":{"type":"Point","coordinates":[-98.483484,29.439719]},"properties":{"name":"Thrift @ The Warehouse (Pearl District)","address":"1203 Camden St, San Antonio, TX 78215","category":"independent","type":"thrift"}},{"type":"Feature","geometry":{"type":"Point","coordinates":[-98.495712,29.470998]},"properties":{"name":"Boysville Thrift Store","address":"307 W Olmos Dr, San Antonio, TX 78212","category":"independent","type":"thrift"}},{"type":"Feature","geometry":{"type":"Point","coordinates":[-98.481614,29.396127]},"properties":{"name":"Junk Depot Thrift Shop","address":"2608 South Presa Street, San Antonio, TX 78210","category":"independent","type":"thrift"}},{"type":"Feature","geometry":{"type":"Point","coordinates":[-98.543296,29.423846]},"properties":{"name":"THRIFT 24","address":"619 SW 24th St, San Antonio, TX 78207","category":"independent","type":"thrift"}},{"type":"Feature","geometry":{"type":"Point","coordinates":[-98.534162,29.373193]},"properties":{"name":"SA's Most Wanted Thrift n Resale Shop","address":"5423 S Zarzamora St Suite 101, San Antonio, TX 78211","category":"independent","type":"thrift"}},{"type":"Feature","geometry":{"type":"Point","coordinates":[-98.482037,29.39881]},"properties":{"name":"St. Paul Thrift Store","address":"120 Roseborough St, San Antonio, TX 78210","category":"independent","type":"thrift"}},{"type":"Feature","geometry":{"type":"Point","coordinates":[-98.534082,29.420223]},"properties":{"name":"J.C.S Thrift Store","address":"3031 Guadalupe St, San Antonio, TX 78207","category":"independent","type":"thrift"}},{"type":"Feature","geometry":{"type":"Point","coordinates":[-98.559338,29.415419]},"properties":{"name":"Re-Sell","address":"1303 Castroville Road, San Antonio, TX 78237","category":"independent","type":"thrift"}},{"type":"Feature","geometry":{"type":"Point","coordinates":[-98.507804,29.468038]},"properties":{"name":"Sa's Newest Thrift Store","address":"2318 Blanco Rd, San Antonio, TX 78212","category":"independent","type":"thrift"}},{"type":"Feature","geometry":{"type":"Point","coordinates":[-98.516298,29.349463]},"properties":{"name":"Lucky 4 You General Thrift Store","address":"2815 Commercial Ave, San Antonio, TX 78226","category":"independent","type":"thrift"}},{"type":"Feature","geometry":{"type":"Point","coordinates":[-98.473343,29.375745]},"properties":{"name":"Friends Together Thrift & Gift Shop","address":"4718 S Hackberry St, San Antonio, TX 78223","category":"independent","type":"thrift"}},{"type":"Feature","geometry":{"type":"Point","coordinates":[-98.567839,29.429033]},"properties":{"name":"Patty's Thrift Shop","address":"403 Historic Old Hwy 90, San Antonio, TX 78237","category":"independent","type":"thrift"}},{"type":"Feature","geometry":{"type":"Point","coordinates":[-98.48325,29.356296]},"properties":{"name":"Community Thrift Store","address":"1047 SE Military Dr, San Antonio, TX 78214","category":"independent","type":"thrift"}},{"type":"Feature","geometry":{"type":"Point","coordinates":[-98.461597,29.268658]},"properties":{"name":"Triple J's Thrift Store","address":"15420 Belen St, San Antonio, TX 78221","category":"independent","type":"thrift"}},{"type":"Feature","geometry":{"type":"Point","coordinates":[-98.30512,29.267007]},"properties":{"name":"R & R Thrift Store","address":"15536 S US Highway 181, San Antonio, TX 78223","category":"independent","type":"thrift"}},{"type":"Feature","geometry":{"type":"Point","coordinates":[-98.469819,29.517821]},"properties":{"name":"Plato's Closet (Park North)","address":"630 Northwest Loop 410, San Antonio, TX 78216","category":"resale-clothing","type":"thrift"}},{"type":"Feature","geometry":{"type":"Point","coordinates":[-98.652035,29.436805]},"properties":{"name":"Plato's Closet (West San Antonio)","address":"8331 TX-151, San Antonio, TX 78245","category":"resale-clothing","type":"thrift"}},{"type":"Feature","geometry":{"type":"Point","coordinates":[-98.669724,29.555593]},"properties":{"name":"Plato's Closet (Northwest / Helotes)","address":"11851 Bandera Rd, Helotes, TX 78023","category":"resale-clothing","type":"thrift"}},{"type":"Feature","geometry":{"type":"Point","coordinates":[-98.577153,29.546289]},"properties":{"name":"Uptown Cheapskate (Huebner Road)","address":"11255 Huebner Rd Ste 205, San Antonio, TX 78230","category":"resale-clothing","type":"thrift"}},{"type":"Feature","geometry":{"type":"Point","coordinates":[-98.703475,29.489984]},"properties":{"name":"Uptown Cheapskate (Alamo Ranch)","address":"5742 W Loop 1604 N Suite 121, San Antonio, TX 78251","category":"resale-clothing","type":"thrift"}},{"type":"Feature","geometry":{"type":"Point","coordinates":[-98.446761,29.650467]},"properties":{"name":"Uptown Cheapskate (Stone Oak)","address":"2606 TPC Pkwy Suite 111, San Antonio, TX 78259","category":"resale-clothing","type":"thrift"}},{"type":"Feature","geometry":{"type":"Point","coordinates":[-98.583088,29.488846]},"properties":{"name":"Kid to Kid (Summit / NW Loop 410)","address":"4911 Northwest Loop 410, San Antonio, TX 78229","category":"kids-resale","type":"thrift"}},{"type":"Feature","geometry":{"type":"Point","coordinates":[-98.47374,29.611122]},"properties":{"name":"Kid to Kid (Loop 1604)","address":"1321 N Loop 1604 E Ste 109, San Antonio, TX 78232","category":"kids-resale","type":"thrift"}},{"type":"Feature","geometry":{"type":"Point","coordinates":[-98.547317,29.573012]},"properties":{"name":"Kid to Kid (Huebner)","address":"14602 Huebner Rd Suite 130, San Antonio, TX 78230","category":"kids-resale","type":"thrift"}},{"type":"Feature","geometry":{"type":"Point","coordinates":[-98.4876,29.4268]},"properties":{"name":"Canela Vintage","address":"110 Broadway Ste 175, San Antonio, TX 78205","category":"vintage","type":"vintage"}},{"type":"Feature","geometry":{"type":"Point","coordinates":[-98.4751,29.4466]},"properties":{"name":"Grey Moon Vintage","address":"2202 Broadway, San Antonio, TX 78215","category":"vintage","type":"vintage"}},{"type":"Feature","geometry":{"type":"Point","coordinates":[-98.524248,29.462863]},"properties":{"name":"Hello Tallulah","address":"1912 Fredericksburg Rd, San Antonio, TX 78201","category":"vintage","type":"vintage"}},{"type":"Feature","geometry":{"type":"Point","coordinates":[-98.520015,29.458458]},"properties":{"name":"House of Trends Co.","address":"1512 Fredericksburg Rd, San Antonio, TX 78201","category":"vintage","type":"vintage"}},{"type":"Feature","geometry":{"type":"Point","coordinates":[-98.486146,29.443119]},"properties":{"name":"The Vaulti","address":"1927 N St Mary's St, San Antonio, TX 78212","category":"vintage","type":"vintage"}},{"type":"Feature","geometry":{"type":"Point","coordinates":[-98.463546,29.469379]},"properties":{"name":"Rag Parlor Vintage","address":"4710 Broadway, San Antonio, TX 78209","category":"vintage","type":"vintage"}},{"type":"Feature","geometry":{"type":"Point","coordinates":[-98.511383,29.449543]},"properties":{"name":"Pink Dreams Vintage","address":"726 Fredericksburg Rd, San Antonio, TX 78201","category":"vintage","type":"vintage"}},{"type":"Feature","geometry":{"type":"Point","coordinates":[-98.499361,29.48434]},"properties":{"name":"Abandoned Apparel","address":"5509 San Pedro Ave, San Antonio, TX 78212","category":"vintage","type":"vintage"}},{"type":"Feature","geometry":{"type":"Point","coordinates":[-98.507814,29.462596]},"properties":{"name":"The Queen of Vintage","address":"1810 Blanco Rd, San Antonio, TX 78212","category":"vintage","type":"vintage"}},{"type":"Feature","geometry":{"type":"Point","coordinates":[-98.507938,29.460809]},"properties":{"name":"Good Golly TX","address":"1621 Blanco Rd, San Antonio, TX 78212","category":"vintage","type":"vintage"}},{"type":"Feature","geometry":{"type":"Point","coordinates":[-98.487084,29.408552]},"properties":{"name":"La Segunda Bartique & Gallery","address":"1302 S St Mary's St, San Antonio, TX 78210","category":"vintage","type":"vintage"}},{"type":"Feature","geometry":{"type":"Point","coordinates":[-98.532403,29.519143]},"properties":{"name":"Texas Quality Vintage","address":"2543 Jackson Keller Rd, San Antonio, TX 78230","category":"vintage","type":"vintage"}},{"type":"Feature","geometry":{"type":"Point","coordinates":[-98.420527,29.496601]},"properties":{"name":"Real Retro","address":"3903 Eisenhauer Rd A6, San Antonio, TX 78218","category":"vintage","type":"vintage"}},{"type":"Feature","geometry":{"type":"Point","coordinates":[-98.458942,29.505226]},"properties":{"name":"Second Looks","address":"1804 Nacogdoches Rd, San Antonio, TX 78209","category":"vintage","type":"vintage"}},{"type":"Feature","geometry":{"type":"Point","coordinates":[-98.492833,29.47101]},"properties":{"name":"Buffalo Exchange Outlet","address":"145 W Olmos Dr, San Antonio, TX 78212","category":"resale-clothing","type":"vintage"}},{"type":"Feature","geometry":{"type":"Point","coordinates":[-98.483182,29.564035]},"properties":{"name":"Too Good To Be Threw","address":"13413 San Pedro Ave, San Antonio, TX 78216","category":"consignment","type":"resale"}},{"type":"Feature","geometry":{"type":"Point","coordinates":[-98.491626,29.470001]},"properties":{"name":"Otra Vez Couture Consignment","address":"4222 McCullough Ave, San Antonio, TX 78212","category":"consignment","type":"resale"}},{"type":"Feature","geometry":{"type":"Point","coordinates":[-98.59013,29.557974]},"properties":{"name":"Daly Finds Resale Boutique","address":"12300 I-10 Building 2, San Antonio, TX 78230","category":"consignment","type":"resale"}},{"type":"Feature","geometry":{"type":"Point","coordinates":[-98.597177,29.60858]},"properties":{"name":"Home Consignment Center","address":"17603 La Cantera Pkwy Ste 130, San Antonio, TX 78257","category":"consignment","type":"resale"}},{"type":"Feature","geometry":{"type":"Point","coordinates":[-98.6264,29.3312]},"properties":{"name":"Traders Village San Antonio","address":"9333 SW Loop 410, San Antonio, TX 78242","category":"flea-market","type":"flea"}},{"type":"Feature","geometry":{"type":"Point","coordinates":[-98.260312,29.614401]},"properties":{"name":"Bussey's Flea Market","address":"18738 Interstate 35 N, Schertz, TX 78154","category":"flea-market","type":"flea"}},{"type":"Feature","geometry":{"type":"Point","coordinates":[-98.372361,29.510254]},"properties":{"name":"Red White & Blue Thrift","address":"5722 Walzem Rd, San Antonio, TX 78218","category":"chain","type":"thrift"}},{"type":"Feature","geometry":{"type":"Point","coordinates":[-98.565539,29.465121]},"properties":{"name":"The Shops at Bandera Road","address":"1331 Bandera Rd, San Antonio, TX 78228","category":"flea-market","type":"flea"}},{"type":"Feature","geometry":{"type":"Point","coordinates":[-98.503873,29.32287]},"properties":{"name":"Mission Open Air Market","address":"707 Moursund Blvd, San Antonio, TX 78221","category":"flea-market","type":"flea"}},{"type":"Feature","geometry":{"type":"Point","coordinates":[-98.498852,29.240011]},"properties":{"name":"Las Esperanzas Flea Market","address":"18600 Pleasanton Rd, San Antonio, TX 78221","category":"flea-market","type":"flea"}},{"type":"Feature","geometry":{"type":"Point","coordinates":[-98.420527,29.496601]},"properties":{"name":"Eisenhauer Road Flea Market","address":"3903 Eisenhauer Rd, San Antonio, TX 78218","category":"flea-market","type":"flea"}},{"type":"Feature","geometry":{"type":"Point","coordinates":[-98.631033,29.402337]},"properties":{"name":"Hwy 90 Flea Market","address":"7171 W US Highway 90, San Antonio, TX 78227","category":"flea-market","type":"flea"}},{"type":"Feature","geometry":{"type":"Point","coordinates":[-98.127432,29.703393]},"properties":{"name":"Saints Peter & Paul Thrift (New Braunfels)","address":"386 N Castell Ave, New Braunfels, TX 78130","category":"independent","type":"thrift"}},{"type":"Feature","geometry":{"type":"Point","coordinates":[-98.097342,29.700356]},"properties":{"name":"CIS Thrift Store (New Braunfels)","address":"1058 N Business IH 35, New Braunfels, TX 78130","category":"independent","type":"thrift"}},{"type":"Feature","geometry":{"type":"Point","coordinates":[-98.13796,29.699415]},"properties":{"name":"Hope Hospice Thrift Shop (New Braunfels)","address":"613 N Walnut Ave, New Braunfels, TX 78130","category":"independent","type":"thrift"}},{"type":"Feature","geometry":{"type":"Point","coordinates":[-98.284045,29.547119]},"properties":{"name":"GRASP Thrift Store","address":"417 E Aviation Blvd, Universal City, TX 78148","category":"independent","type":"thrift"}},{"type":"Feature","geometry":{"type":"Point","coordinates":[-98.310118,29.517219]},"properties":{"name":"St. Monica's Thrift Store","address":"501 North St, Converse, TX 78109","category":"independent","type":"thrift"}},{"type":"Feature","geometry":{"type":"Point","coordinates":[-98.737667,29.806244]},"properties":{"name":"Fabulous Finds Thrift (Boerne)","address":"934 N School St, Boerne, TX 78006","category":"independent","type":"thrift"}},{"type":"Feature","geometry":{"type":"Point","coordinates":[-98.729316,29.780364]},"properties":{"name":"Hill Country Animal League Thrift","address":"115 W Bandera Rd, Boerne, TX 78006","category":"independent","type":"thrift"}},{"type":"Feature","geometry":{"type":"Point","coordinates":[-98.733423,29.78437]},"properties":{"name":"The Sisters\u2019 Attic Thrift","address":"316 W Highland Dr, Boerne, TX 78006","category":"independent","type":"thrift"}},{"type":"Feature","geometry":{"type":"Point","coordinates":[-98.717655,29.778213]},"properties":{"name":"The Closet Thrift Shop (Boerne)","address":"17 Old San Antonio Rd, Boerne, TX 78006","category":"independent","type":"thrift"}},{"type":"Feature","geometry":{"type":"Point","coordinates":[-98.734267,29.79851]},"properties":{"name":"Boerne Rags Thrift Store","address":"616 N Main St, Boerne, TX 78006","category":"independent","type":"thrift"}},{"type":"Feature","geometry":{"type":"Point","coordinates":[-98.736425,29.802222]},"properties":{"name":"Random Hangers / HCFS Thrift","address":"114 W Advogt St, Boerne, TX 78006","category":"independent","type":"thrift"}},{"type":"Feature","geometry":{"type":"Point","coordinates":[-98.755666,29.821792]},"properties":{"name":"Faith and Funky Junk","address":"39320 Interstate 10 W, Boerne, TX 78006","category":"independent","type":"thrift"}}]}