{"type": "FeatureCollection", "features": [{"type": "Feature", "geometry": {"type": "Point", "coordinates": [-98.4936, 29.4252]}, "properties": {"name": "Central Library", "address": "600 Soledad St, San Antonio, TX 78205", "category": "library", "provider": "San Antonio Public Library", "ssid": "SAPLWiFi", "hours": "Outdoor: 7:30am–10:30pm daily; Indoor during library hours", "outdoor": true, "status": "unknown", "last_verified": null, "verified_by": "official", "report_count_48h": 0, "city": "San Antonio", "icon": "wifi-library"}}, {"type": "Feature", "geometry": {"type": "Point", "coordinates": [-98.5089, 29.4315]}, "properties": {"name": "Bazan Library", "address": "2200 W Commerce St, San Antonio, TX 78207", "category": "library", "provider": "San Antonio Public Library", "ssid": "SAPLWiFi", "hours": "Outdoor: 7:30am–10:30pm daily; Indoor during library hours", "outdoor": true, "status": "unknown", "last_verified": null, "verified_by": "official", "report_count_48h": 0, "city": "San Antonio", "icon": "wifi-library"}}, {"type": "Feature", "geometry": {"type": "Point", "coordinates": [-98.4621, 29.5698]}, "properties": {"name": "Brook Hollow Library", "address": "530 Heimer Rd, San Antonio, TX 78232", "category": "library", "provider": "San Antonio Public Library", "ssid": "SAPLWiFi", "hours": "Outdoor: 7:30am–10:30pm daily; Indoor during library hours", "outdoor": true, "status": "unknown", "last_verified": null, "verified_by": "official", "report_count_48h": 0, "city": "San Antonio", "icon": "wifi-library"}}, {"type": "Feature", "geometry": {"type": "Point", "coordinates": [-98.4398, 29.4201]}, "properties": {"name": "Carver Library", "address": "3350 E Commerce St, San Antonio, TX 78220", "category": "library", "provider": "San Antonio Public Library", "ssid": "SAPLWiFi", "hours": "Outdoor: 7:30am–10:30pm daily; Indoor during library hours", "outdoor": true, "status": "unknown", "last_verified": null, "verified_by": "official", "report_count_48h": 0, "city": "San Antonio", "icon": "wifi-library"}}, {"type": "Feature", "geometry": {"type": "Point", "coordinates": [-98.5687, 29.5502]}, "properties": {"name": "Cody Library", "address": "11441 Vance Jackson, San Antonio, TX 78230", "category": "library", "provider": "San Antonio Public Library", "ssid": "SAPLWiFi", "hours": "Outdoor: 7:30am–10:30pm daily; Indoor during library hours", "outdoor": true, "status": "unknown", "last_verified": null, "verified_by": "official", "report_count_48h": 0, "city": "San Antonio", "icon": "wifi-library"}}, {"type": "Feature", "geometry": {"type": "Point", "coordinates": [-98.5102, 29.4105]}, "properties": {"name": "Collins Garden Library", "address": "200 N Park Blvd, San Antonio, TX 78204", "category": "library", "provider": "San Antonio Public Library", "ssid": "SAPLWiFi", "hours": "Outdoor: 7:30am–10:30pm daily; Indoor during library hours", "outdoor": true, "status": "unknown", "last_verified": null, "verified_by": "official", "report_count_48h": 0, "city": "San Antonio", "icon": "wifi-library"}}, {"type": "Feature", "geometry": {"type": "Point", "coordinates": [-98.5321, 29.3512]}, "properties": {"name": "Cortez Library", "address": "2803 Hunter Blvd, San Antonio, TX 78224", "category": "library", "provider": "San Antonio Public Library", "ssid": "SAPLWiFi", "hours": "Outdoor: 7:30am–10:30pm daily; Indoor during library hours", "outdoor": true, "status": "unknown", "last_verified": null, "verified_by": "official", "report_count_48h": 0, "city": "San Antonio", "icon": "wifi-library"}}, {"type": "Feature", "geometry": {"type": "Point", "coordinates": [-98.575, 29.4655]}, "properties": {"name": "Forest Hills Library", "address": "5245 Ingram Rd, San Antonio, TX 78228", "category": "library", "provider": "San Antonio Public Library", "ssid": "SAPLWiFi", "hours": "Outdoor: 7:30am–10:30pm daily; Indoor during library hours", "outdoor": true, "status": "unknown", "last_verified": null, "verified_by": "official", "report_count_48h": 0, "city": "San Antonio", "icon": "wifi-library"}}, {"type": "Feature", "geometry": {"type": "Point", "coordinates": [-98.638, 29.541]}, "properties": {"name": "Great Northwest Library", "address": "9050 Wellwood, San Antonio, TX 78250", "category": "library", "provider": "San Antonio Public Library", "ssid": "SAPLWiFi", "hours": "Outdoor: 7:30am–10:30pm daily; Indoor during library hours", "outdoor": true, "status": "unknown", "last_verified": null, "verified_by": "official", "report_count_48h": 0, "city": "San Antonio", "icon": "wifi-library"}}, {"type": "Feature", "geometry": {"type": "Point", "coordinates": [-98.62, 29.415]}, "properties": {"name": "Guerra Library", "address": "7978 W Military Dr, San Antonio, TX 78227", "category": "library", "provider": "San Antonio Public Library", "ssid": "SAPLWiFi", "hours": "Outdoor: 7:30am–10:30pm daily; Indoor during library hours", "outdoor": true, "status": "unknown", "last_verified": null, "verified_by": "official", "report_count_48h": 0, "city": "San Antonio", "icon": "wifi-library"}}, {"type": "Feature", "geometry": {"type": "Point", "coordinates": [-98.485, 29.455]}, "properties": {"name": "Landa Library", "address": "233 Bushnell Ave, San Antonio, TX 78212", "category": "library", "provider": "San Antonio Public Library", "ssid": "SAPLWiFi", "hours": "Outdoor: 7:30am–10:30pm daily; Indoor during library hours", "outdoor": true, "status": "unknown", "last_verified": null, "verified_by": "official", "report_count_48h": 0, "city": "San Antonio", "icon": "wifi-library"}}, {"type": "Feature", "geometry": {"type": "Point", "coordinates": [-98.56, 29.41]}, "properties": {"name": "Las Palmas Library", "address": "515 Castroville Rd, San Antonio, TX 78237", "category": "library", "provider": "San Antonio Public Library", "ssid": "SAPLWiFi", "hours": "Outdoor: 7:30am–10:30pm daily; Indoor during library hours", "outdoor": true, "status": "unknown", "last_verified": null, "verified_by": "official", "report_count_48h": 0, "city": "San Antonio", "icon": "wifi-library"}}, {"type": "Feature", "geometry": {"type": "Point", "coordinates": [-98.55, 29.45]}, "properties": {"name": "Memorial Library", "address": "3222 Culebra Rd, San Antonio, TX 78228", "category": "library", "provider": "San Antonio Public Library", "ssid": "SAPLWiFi", "hours": "Outdoor: 7:30am–10:30pm daily; Indoor during library hours", "outdoor": true, "status": "unknown", "last_verified": null, "verified_by": "official", "report_count_48h": 0, "city": "San Antonio", "icon": "wifi-library"}}, {"type": "Feature", "geometry": {"type": "Point", "coordinates": [-98.49, 29.38]}, "properties": {"name": "Mission Library", "address": "3134 Roosevelt Ave, San Antonio, TX 78214", "category": "library", "provider": "San Antonio Public Library", "ssid": "SAPLWiFi", "hours": "Outdoor: 7:30am–10:30pm daily; Indoor during library hours", "outdoor": true, "status": "unknown", "last_verified": null, "verified_by": "official", "report_count_48h": 0, "city": "San Antonio", "icon": "wifi-library"}}, {"type": "Feature", "geometry": {"type": "Point", "coordinates": [-98.505, 29.355]}, "properties": {"name": "Pan American Library", "address": "1122 W Pyron Ave, San Antonio, TX 78221", "category": "library", "provider": "San Antonio Public Library", "ssid": "SAPLWiFi", "hours": "Outdoor: 7:30am–10:30pm daily; Indoor during library hours", "outdoor": true, "status": "unknown", "last_verified": null, "verified_by": "official", "report_count_48h": 0, "city": "San Antonio", "icon": "wifi-library"}}, {"type": "Feature", "geometry": {"type": "Point", "coordinates": [-98.42, 29.37]}, "properties": {"name": "Schaefer Library", "address": "6322 US Hwy 87 E, San Antonio, TX 78222", "category": "library", "provider": "San Antonio Public Library", "ssid": "SAPLWiFi", "hours": "Outdoor: 7:30am–10:30pm daily; Indoor during library hours", "outdoor": true, "status": "unknown", "last_verified": null, "verified_by": "official", "report_count_48h": 0, "city": "San Antonio", "icon": "wifi-library"}}, {"type": "Feature", "geometry": {"type": "Point", "coordinates": [-98.43, 29.54]}, "properties": {"name": "Thousand Oaks Library", "address": "4618 Thousand Oaks Dr, San Antonio, TX 78233", "category": "library", "provider": "San Antonio Public Library", "ssid": "SAPLWiFi", "hours": "Outdoor: 7:30am–10:30pm daily; Indoor during library hours", "outdoor": true, "status": "unknown", "last_verified": null, "verified_by": "official", "report_count_48h": 0, "city": "San Antonio", "icon": "wifi-library"}}, {"type": "Feature", "geometry": {"type": "Point", "coordinates": [-98.45, 29.5]}, "properties": {"name": "Tobin Library", "address": "4134 Harry Wurzbach Rd, San Antonio, TX 78209", "category": "library", "provider": "San Antonio Public Library", "ssid": "SAPLWiFi", "hours": "Outdoor: 7:30am–10:30pm daily; Indoor during library hours", "outdoor": true, "status": "unknown", "last_verified": null, "verified_by": "official", "report_count_48h": 0, "city": "San Antonio", "icon": "wifi-library"}}, {"type": "Feature", "geometry": {"type": "Point", "coordinates": [-98.53, 29.47]}, "properties": {"name": "Westfall Library", "address": "6111 Rosedale Ct, San Antonio, TX 78201", "category": "library", "provider": "San Antonio Public Library", "ssid": "SAPLWiFi", "hours": "Outdoor: 7:30am–10:30pm daily; Indoor during library hours", "outdoor": true, "status": "unknown", "last_verified": null, "verified_by": "official", "report_count_48h": 0, "city": "San Antonio", "icon": "wifi-library"}}, {"type": "Feature", "geometry": {"type": "Point", "coordinates": [-98.47, 29.39]}, "properties": {"name": "McCreless Library", "address": "1023 Ada St, San Antonio, TX 78223", "category": "library", "provider": "San Antonio Public Library", "ssid": "SAPLWiFi", "hours": "Outdoor: 7:30am–10:30pm daily; Indoor during library hours", "outdoor": true, "status": "unknown", "last_verified": null, "verified_by": "official", "report_count_48h": 0, "city": "San Antonio", "icon": "wifi-library"}}, {"type": "Feature", "geometry": {"type": "Point", "coordinates": [-98.472, 29.465]}, "properties": {"name": "Brackenridge Park", "address": "3700 N St Marys St, San Antonio, TX 78209", "category": "park", "provider": "City of San Antonio Parks & Recreation", "ssid": null, "hours": "5am–11pm", "outdoor": true, "status": "unknown", "last_verified": null, "verified_by": "official", "report_count_48h": 0, "city": "San Antonio", "icon": "wifi-park"}}, {"type": "Feature", "geometry": {"type": "Point", "coordinates": [-98.47, 29.42]}, "properties": {"name": "Dawson Park", "address": "2500 E Commerce St, San Antonio, TX 78203", "category": "park", "provider": "City of San Antonio Parks & Recreation", "ssid": null, "hours": "5am–11pm", "outdoor": true, "status": "unknown", "last_verified": null, "verified_by": "official", "report_count_48h": 0, "city": "San Antonio", "icon": "wifi-park"}}, {"type": "Feature", "geometry": {"type": "Point", "coordinates": [-98.63, 29.62]}, "properties": {"name": "Friedrich Wilderness Park", "address": "21395 Milsa Dr, San Antonio, TX 78256", "category": "park", "provider": "City of San Antonio Parks & Recreation", "ssid": null, "hours": "Sunrise–Sunset", "outdoor": true, "status": "unknown", "last_verified": null, "verified_by": "official", "report_count_48h": 0, "city": "San Antonio", "icon": "wifi-park"}}, {"type": "Feature", "geometry": {"type": "Point", "coordinates": [-98.58, 29.35]}, "properties": {"name": "Pearsall Park", "address": "4700 Old Pearsall Rd, San Antonio, TX 78242", "category": "park", "provider": "City of San Antonio Parks & Recreation", "ssid": null, "hours": "5am–11pm", "outdoor": true, "status": "unknown", "last_verified": null, "verified_by": "official", "report_count_48h": 0, "city": "San Antonio", "icon": "wifi-park"}}, {"type": "Feature", "geometry": {"type": "Point", "coordinates": [-98.53, 29.39]}, "properties": {"name": "Palm Heights Park", "address": "1201 W Malone, San Antonio, TX 78225", "category": "park", "provider": "City of San Antonio Parks & Recreation", "ssid": null, "hours": "5am–11pm", "outdoor": true, "status": "unknown", "last_verified": null, "verified_by": "official", "report_count_48h": 0, "city": "San Antonio", "icon": "wifi-park"}}, {"type": "Feature", "geometry": {"type": "Point", "coordinates": [-98.5, 29.36]}, "properties": {"name": "Harlandale Park", "address": "7227 Briar Pl, San Antonio, TX 78221", "category": "park", "provider": "City of San Antonio Parks & Recreation", "ssid": null, "hours": "5am–11pm", "outdoor": true, "status": "unknown", "last_verified": null, "verified_by": "official", "report_count_48h": 0, "city": "San Antonio", "icon": "wifi-park"}}, {"type": "Feature", "geometry": {"type": "Point", "coordinates": [-98.52, 29.45]}, "properties": {"name": "Woodlawn Lake Park", "address": "1103 Cincinnati, San Antonio, TX 78201", "category": "park", "provider": "City of San Antonio Parks & Recreation", "ssid": null, "hours": "5am–11pm", "outdoor": true, "status": "unknown", "last_verified": null, "verified_by": "official", "report_count_48h": 0, "city": "San Antonio", "icon": "wifi-park"}}, {"type": "Feature", "geometry": {"type": "Point", "coordinates": [-98.46, 29.415]}, "properties": {"name": "Pittman-Sullivan Park", "address": "1001 Iowa St, San Antonio, TX 78203", "category": "park", "provider": "City of San Antonio Parks & Recreation", "ssid": null, "hours": "5am–11pm", "outdoor": true, "status": "unknown", "last_verified": null, "verified_by": "official", "report_count_48h": 0, "city": "San Antonio", "icon": "wifi-park"}}, {"type": "Feature", "geometry": {"type": "Point", "coordinates": [-98.56, 29.41]}, "properties": {"name": "Cuellar Park", "address": "5626 San Fernando St, San Antonio, TX 78237", "category": "park", "provider": "City of San Antonio Parks & Recreation", "ssid": null, "hours": "5am–11pm", "outdoor": true, "status": "unknown", "last_verified": null, "verified_by": "official", "report_count_48h": 0, "city": "San Antonio", "icon": "wifi-park"}}, {"type": "Feature", "geometry": {"type": "Point", "coordinates": [-98.44, 29.54]}, "properties": {"name": "Lady Bird Johnson Park", "address": "10700 Nacogdoches Rd, San Antonio, TX 78217", "category": "park", "provider": "City of San Antonio Parks & Recreation", "ssid": null, "hours": "5am–11pm", "outdoor": true, "status": "unknown", "last_verified": null, "verified_by": "official", "report_count_48h": 0, "city": "San Antonio", "icon": "wifi-park"}}, {"type": "Feature", "geometry": {"type": "Point", "coordinates": [-98.51, 29.55]}, "properties": {"name": "Walker Ranch Park", "address": "12603 West Ave, San Antonio, TX 78216", "category": "park", "provider": "City of San Antonio Parks & Recreation", "ssid": null, "hours": "5am–11pm", "outdoor": true, "status": "unknown", "last_verified": null, "verified_by": "official", "report_count_48h": 0, "city": "San Antonio", "icon": "wifi-park"}}, {"type": "Feature", "geometry": {"type": "Point", "coordinates": [-98.5, 29.445]}, "properties": {"name": "San Pedro Springs Park", "address": "1315 San Pedro Ave, San Antonio, TX 78212", "category": "park", "provider": "City of San Antonio Parks & Recreation", "ssid": null, "hours": "5am–11pm", "outdoor": true, "status": "unknown", "last_verified": null, "verified_by": "official", "report_count_48h": 0, "city": "San Antonio", "icon": "wifi-park"}}, {"type": "Feature", "geometry": {"type": "Point", "coordinates": [-98.47, 29.4]}, "properties": {"name": "Southside Lions Park", "address": "3100 Hiawatha, San Antonio, TX 78210", "category": "park", "provider": "City of San Antonio Parks & Recreation", "ssid": null, "hours": "5am–11pm", "outdoor": true, "status": "unknown", "last_verified": null, "verified_by": "official", "report_count_48h": 0, "city": "San Antonio", "icon": "wifi-park"}}, {"type": "Feature", "geometry": {"type": "Point", "coordinates": [-98.52, 29.56]}, "properties": {"name": "Phil Hardberger Park East (Outdoor Classroom)", "address": "13203 Blanco Rd, San Antonio, TX 78216", "category": "park", "provider": "City of San Antonio Parks & Recreation", "ssid": null, "hours": "5am–11pm", "outdoor": true, "status": "unknown", "last_verified": null, "verified_by": "official", "report_count_48h": 0, "city": "San Antonio", "icon": "wifi-park"}}, {"type": "Feature", "geometry": {"type": "Point", "coordinates": [-98.48, 29.36]}, "properties": {"name": "Mission San José", "address": "701 E Pyron Ave, San Antonio, TX 78214", "category": "mission", "provider": "San Antonio Missions National Historical Park", "ssid": null, "hours": "9am–5pm", "outdoor": true, "status": "unknown", "last_verified": null, "verified_by": "official", "report_count_48h": 0, "city": "San Antonio", "icon": "wifi-mission"}}, {"type": "Feature", "geometry": {"type": "Point", "coordinates": [-98.49, 29.39]}, "properties": {"name": "Mission Concepción", "address": "807 Mission Rd, San Antonio, TX 78210", "category": "mission", "provider": "San Antonio Missions National Historical Park", "ssid": null, "hours": "9am–5pm", "outdoor": true, "status": "unknown", "last_verified": null, "verified_by": "official", "report_count_48h": 0, "city": "San Antonio", "icon": "wifi-mission"}}, {"type": "Feature", "geometry": {"type": "Point", "coordinates": [-98.45, 29.33]}, "properties": {"name": "Mission San Juan", "address": "9101 Graf Rd, San Antonio, TX 78214", "category": "mission", "provider": "San Antonio Missions National Historical Park", "ssid": null, "hours": "9am–5pm", "outdoor": true, "status": "unknown", "last_verified": null, "verified_by": "official", "report_count_48h": 0, "city": "San Antonio", "icon": "wifi-mission"}}, {"type": "Feature", "geometry": {"type": "Point", "coordinates": [-98.495, 29.418]}, "properties": {"name": "H-E-B (Flores St)", "address": "516 S Flores St, San Antonio, TX 78204", "category": "retail", "provider": "Business guest network", "ssid": "HEB Customer WiFi", "hours": "During business hours", "outdoor": false, "status": "unknown", "last_verified": null, "verified_by": "official", "report_count_48h": 0, "city": "San Antonio", "icon": "wifi-retail"}}, {"type": "Feature", "geometry": {"type": "Point", "coordinates": [-98.47, 29.43]}, "properties": {"name": "H-E-B (New Braunfels)", "address": "415 N New Braunfels Ave, San Antonio, TX 78202", "category": "retail", "provider": "Business guest network", "ssid": "HEB Customer WiFi", "hours": "During business hours", "outdoor": false, "status": "unknown", "last_verified": null, "verified_by": "official", "report_count_48h": 0, "city": "San Antonio", "icon": "wifi-retail"}}, {"type": "Feature", "geometry": {"type": "Point", "coordinates": [-98.51, 29.4]}, "properties": {"name": "H-E-B (Nogalitos)", "address": "1601 Nogalitos St, San Antonio, TX 78204", "category": "retail", "provider": "Business guest network", "ssid": "HEB Customer WiFi", "hours": "During business hours", "outdoor": false, "status": "unknown", "last_verified": null, "verified_by": "official", "report_count_48h": 0, "city": "San Antonio", "icon": "wifi-retail"}}, {"type": "Feature", "geometry": {"type": "Point", "coordinates": [-98.49, 29.425]}, "properties": {"name": "VIA Downtown Info Center", "address": "150 W Commerce St, San Antonio, TX 78205", "category": "retail", "provider": "Business guest network", "ssid": "VIAFreeWIFI", "hours": "During business hours", "outdoor": false, "status": "unknown", "last_verified": null, "verified_by": "official", "report_count_48h": 0, "city": "San Antonio", "icon": "wifi-retail"}}], "metadata": {"source": "Official SAPL, City of San Antonio Parks & Recreation, NPS, public guest networks", "updated": "2026-08-16", "count": 41, "note": "Free public / guest WiFi only. No private network credentials. Status colors update from hours + community reports.", "categories": ["library", "park", "mission", "retail"]}}