{
  "type": "FeatureCollection",
  "name": "ZoneAware_Schools_Starter",
  "features": [
    {
      "type": "Feature",
      "geometry": {
        "type": "Point",
        "coordinates": [-98.4936, 29.4241]
      },
      "properties": {
        "id": "saisd-001",
        "name": "San Antonio ISD Central Area (sample)",
        "district": "San Antonio ISD",
        "type": "Elementary",
        "am_start": "07:00",
        "am_end": "08:00",
        "pm_start": "14:45",
        "pm_end": "15:45",
        "buffer_ft": 400,
        "confidence": "High",
        "source": "spreadsheet + public point"
      }
    },
    {
      "type": "Feature",
      "geometry": {
        "type": "Point",
        "coordinates": [-98.52, 29.51]
      },
      "properties": {
        "id": "nisd-001",
        "name": "Northside ISD Northwest sample",
        "district": "Northside ISD",
        "type": "Elementary",
        "am_start": "07:00",
        "am_end": "08:00",
        "pm_start": "14:45",
        "pm_end": "15:45",
        "buffer_ft": 400,
        "confidence": "High",
        "source": "spreadsheet + public point"
      }
    },
    {
      "type": "Feature",
      "geometry": {
        "type": "Point",
        "coordinates": [-98.45, 29.55]
      },
      "properties": {
        "id": "neisd-001",
        "name": "North East ISD sample",
        "district": "North East ISD",
        "type": "Elementary",
        "am_start": "06:45",
        "am_end": "07:45",
        "pm_start": "14:30",
        "pm_end": "15:30",
        "buffer_ft": 400,
        "confidence": "High",
        "source": "spreadsheet + public point"
      }
    },
    {
      "type": "Feature",
      "geometry": {
        "type": "Point",
        "coordinates": [-98.55, 29.38]
      },
      "properties": {
        "id": "ssaisd-001",
        "name": "South San Antonio ISD sample",
        "district": "South San Antonio ISD",
        "type": "Elementary",
        "am_start": "06:45",
        "am_end": "07:45",
        "pm_start": "14:45",
        "pm_end": "15:45",
        "buffer_ft": 400,
        "confidence": "High",
        "source": "spreadsheet + public point"
      }
    },
    {
      "type": "Feature",
      "geometry": {
        "type": "Point",
        "coordinates": [-98.48, 29.36]
      },
      "properties": {
        "id": "harlandale-001",
        "name": "Harlandale ISD sample",
        "district": "Harlandale ISD",
        "type": "Elementary",
        "am_start": "07:00",
        "am_end": "08:00",
        "pm_start": "15:10",
        "pm_end": "16:10",
        "buffer_ft": 400,
        "confidence": "High",
        "source": "spreadsheet + public point"
      }
    }
  ]
}
