{
  "type": "FeatureCollection",
  "properties": {
    "target_date": "2026-08-22",
    "generated_at": "2026-08-22T02:33:59-05:00",
    "count": 43,
    "project": "Chicas-Map"
  },
  "features": [
    {
      "type": "Feature",
      "geometry": {
        "type": "Point",
        "coordinates": [
          -98.1942,
          29.933
        ]
      },
      "properties": {
        "sale_id": "2026-08-20_1370-sunset-view-fischer-tx-78623",
        "title": "Hidden Jewel Estate Sale – North of Canyon Lake",
        "sale_type": "estate",
        "date_start": "2026-08-20",
        "date_end": "2026-08-22",
        "start_time": "",
        "end_time": "",
        "address": "1370 Sunset View, Fischer, TX 78623",
        "city": "San Antonio",
        "state": "TX",
        "zip": "",
        "latitude": 29.933,
        "longitude": -98.1942,
        "description": "Ultra IMMACULATELY clean home with furniture, antiques & collectibles plus lawn & garden, housewares, decor and lots MORE! Preferred seller – gold star. Video tour available.",
        "highlights": [],
        "source_urls": [
          "https://www.estatesales.net/TX/Fischer/78623/5030250"
        ],
        "original_url": "https://www.estatesales.net/TX/Fischer/78623/5030250",
        "source_names": [
          "EstateSales.net"
        ],
        "photos": [],
        "confidence": 100,
        "verified_at": "2026-08-22T02:33:05-05:00",
        "street_view_url": "https://www.google.com/maps/@?api=1&map_action=pano&viewpoint=29.933,-98.1942",
        "google_maps_url": "https://www.google.com/maps/search/?api=1&query=29.933,-98.1942",
        "status": "verified",
        "geocode_method": "approx",
        "notes": "",
        "community_source": "",
        "community_link_or_notes": ""
      }
    },
    {
      "type": "Feature",
      "geometry": {
        "type": "Point",
        "coordinates": [
          -98.795,
          29.426
        ]
      },
      "properties": {
        "sale_id": "2026-08-22_1054-raceland-road-san-antonio-tx-78245",
        "title": "POTRANCO RUN COMMUNITY YARD SALE = Aug. 22 & 23",
        "sale_type": "garage",
        "date_start": "2026-08-22",
        "date_end": "2026-08-23",
        "start_time": "",
        "end_time": "",
        "address": "1054 RACELAND ROAD, SAN ANTONIO, TX 78245",
        "city": "San Antonio",
        "state": "TX",
        "zip": "",
        "latitude": 29.426,
        "longitude": -98.795,
        "description": "san antonio garage & moving sales - craigslist",
        "highlights": [],
        "source_urls": [
          "https://sanantonio.craigslist.org/search/gms"
        ],
        "original_url": "https://sanantonio.craigslist.org/search/gms",
        "source_names": [
          "Craigslist"
        ],
        "photos": [],
        "confidence": 94,
        "verified_at": "2026-08-22T02:33:05-05:00",
        "street_view_url": "https://www.google.com/maps/@?api=1&map_action=pano&viewpoint=29.426,-98.795",
        "google_maps_url": "https://www.google.com/maps/search/?api=1&query=29.426,-98.795",
        "status": "verified",
        "geocode_method": "approx",
        "notes": "",
        "community_source": "",
        "community_link_or_notes": ""
      }
    },
    {
      "type": "Feature",
      "geometry": {
        "type": "Point",
        "coordinates": [
          -98.46855,
          29.39444
        ]
      },
      "properties": {
        "sale_id": "2026-08-21_san-antonio-tx-78210",
        "title": "Craftsman’S Estate Sale — Packed Garage, Tools, Machinery & More!",
        "sale_type": "estate",
        "date_start": "2026-08-21",
        "date_end": "2026-08-23",
        "start_time": "9:00 AM - 3:00 PM",
        "end_time": "",
        "address": "San Antonio, TX 78210",
        "city": "San Antonio",
        "state": "TX",
        "zip": "",
        "latitude": 29.39444,
        "longitude": -98.46855,
        "description": "Find all the garage sales, yard sales, and estate sales on a map! Or place a free ad for your upcoming sale on yardsalesearch.com",
        "highlights": [],
        "source_urls": [
          "https://www.yardsalesearch.com/yss-garage-sale.jsp?id=196345909"
        ],
        "original_url": "https://www.yardsalesearch.com/yss-garage-sale.jsp?id=196345909",
        "source_names": [
          "YardSaleSearch"
        ],
        "photos": [
          "https://d82cz7nyq77ak.cloudfront.net/images/social/Facebook.png",
          "https://d82cz7nyq77ak.cloudfront.net/images/social/Pinterest.png",
          "https://d82cz7nyq77ak.cloudfront.net/images/social/Reddit.png",
          "https://d82cz7nyq77ak.cloudfront.net/images/social/Twitter.png",
          "https://d82cz7nyq77ak.cloudfront.net/images/social/Email.png",
          "https://eso-cdn.tlcdn.workers.dev/s-2456907-v1e649zkhg87vx1c-t.webp"
        ],
        "confidence": 100,
        "verified_at": "2026-08-22T02:33:05-05:00",
        "street_view_url": "https://www.google.com/maps/@?api=1&map_action=pano&viewpoint=29.39444,-98.46855",
        "google_maps_url": "https://www.google.com/maps/search/?api=1&query=29.39444,-98.46855",
        "status": "verified",
        "geocode_method": "source",
        "notes": "",
        "community_source": "",
        "community_link_or_notes": ""
      }
    },
    {
      "type": "Feature",
      "geometry": {
        "type": "Point",
        "coordinates": [
          -98.6490584,
          29.7487321
        ]
      },
      "properties": {
        "sale_id": "2026-08-14_boerne-tx-78015",
        "title": "Luxury Entertainment & Lifestyle in Boerne, TX- Bidding Ends 8/26 6:30PM CDT PU 8/28 10AM-2PM",
        "sale_type": "estate",
        "date_start": "2026-08-14",
        "date_end": "2026-08-26",
        "start_time": "",
        "end_time": "",
        "address": "Boerne, TX 78015",
        "city": "San Antonio",
        "state": "TX",
        "zip": "",
        "latitude": 29.7487321,
        "longitude": -98.6490584,
        "description": "Caring Transitions of Boerne, Fredericksburg, and Kerrville. Welcome Home to CTBids! We put together an excellent selection of items for you! Start exploring and discover the deals for yourself! Bidding on ALL items starts at $1! Step into a beautifully curated home in exclusive Stone Creek Ranch, where i...",
        "highlights": [],
        "source_urls": [
          "https://estatesales.org/estate-sales/tx/boerne/78015/luxury-entertainment-lifestyle-in-boerne-2457368"
        ],
        "original_url": "https://estatesales.org/estate-sales/tx/boerne/78015/luxury-entertainment-lifestyle-in-boerne-2457368",
        "source_names": [
          "EstateSales.org"
        ],
        "photos": [
          "https://estatesales.org/uploads/2024/02/04/m/7/5/2392475/4PGu6-1.jpeg",
          "https://estatesales.org/2036244653/css/images/social/facebook.png",
          "https://eso-cdn.tlcdn.workers.dev/s-2457368-83wfx6zdhmnau5p9-t.webp",
          "https://eso-cdn.tlcdn.workers.dev/s-2457368-lj5hl50tzueh0luk-t.webp",
          "https://eso-cdn.tlcdn.workers.dev/s-2457368-y5kugfyo2mp6vrp0-t.webp",
          "https://eso-cdn.tlcdn.workers.dev/s-2457368-7t5nh1pbekcbdra6-t.webp"
        ],
        "confidence": 96,
        "verified_at": "2026-08-22T02:33:05-05:00",
        "street_view_url": "https://www.google.com/maps/@?api=1&map_action=pano&viewpoint=29.7487321,-98.6490584",
        "google_maps_url": "https://www.google.com/maps/search/?api=1&query=29.7487321,-98.6490584",
        "status": "verified",
        "geocode_method": "source",
        "notes": "",
        "community_source": "",
        "community_link_or_notes": ""
      }
    },
    {
      "type": "Feature",
      "geometry": {
        "type": "Point",
        "coordinates": [
          -98.6105703,
          29.5269768
        ]
      },
      "properties": {
        "sale_id": "2026-08-14_san-antonio-tx-78240",
        "title": "Treasures at Terra View: Bidding ENDS 8/23 @ 7PM!",
        "sale_type": "estate",
        "date_start": "2026-08-14",
        "date_end": "2026-08-23",
        "start_time": "",
        "end_time": "",
        "address": "San Antonio, TX 78240",
        "city": "San Antonio",
        "state": "TX",
        "zip": "",
        "latitude": 29.5269768,
        "longitude": -98.6105703,
        "description": "Caring Transitions of San Antonio Northwest. Welcome Home to CTBids! We put together an excellent selection of items for you! Start exploring and discover the deals for yourself! Bidding on ALL items starts at $1! A beautifully eclectic collection where vintage charm meets treasures from n...",
        "highlights": [],
        "source_urls": [
          "https://estatesales.org/estate-sales/tx/san-antonio/78240/treasures-at-terra-view-bidding-2457430"
        ],
        "original_url": "https://estatesales.org/estate-sales/tx/san-antonio/78240/treasures-at-terra-view-bidding-2457430",
        "source_names": [
          "EstateSales.org"
        ],
        "photos": [
          "https://estatesales.org/uploads/2025/05/30/m/5/2/2632652/4qYyY-1.jpeg",
          "https://estatesales.org/2036244653/css/images/social/facebook.png",
          "https://eso-cdn.tlcdn.workers.dev/s-2457430-iwz89sj7vebsc60u-t.webp",
          "https://eso-cdn.tlcdn.workers.dev/s-2457430-fi5g6i7w4pi36v4w-t.webp",
          "https://eso-cdn.tlcdn.workers.dev/s-2457430-rp07wbxi0l12qrzl-t.webp",
          "https://eso-cdn.tlcdn.workers.dev/s-2457430-7fii3o961qot3vh2-t.webp"
        ],
        "confidence": 96,
        "verified_at": "2026-08-22T02:33:05-05:00",
        "street_view_url": "https://www.google.com/maps/@?api=1&map_action=pano&viewpoint=29.5269768,-98.6105703",
        "google_maps_url": "https://www.google.com/maps/search/?api=1&query=29.5269768,-98.6105703",
        "status": "verified",
        "geocode_method": "source",
        "notes": "",
        "community_source": "",
        "community_link_or_notes": ""
      }
    },
    {
      "type": "Feature",
      "geometry": {
        "type": "Point",
        "coordinates": [
          -98.4936,
          29.4241
        ]
      },
      "properties": {
        "sale_id": "2026-08-22_1658-ranch-road-473-w-spring-branch-tx-78070",
        "title": "MASSIVE GARAGE/ANTIQUE SALE (multi-family)",
        "sale_type": "garage",
        "date_start": "2026-08-22",
        "date_end": "2026-08-22",
        "start_time": "7:30 am - 3:00 pm",
        "end_time": "",
        "address": "1658 Ranch Road 473 W, Spring Branch, TX 78070",
        "city": "San Antonio",
        "state": "TX",
        "zip": "",
        "latitude": 29.4241,
        "longitude": -98.4936,
        "description": "Date and Time: Saturday, August 22, 2026 7:30 am - 3:00 pm",
        "highlights": [],
        "source_urls": [
          "https://garagesalefinder.com/s/N9vir/1658-ranch-road-473-w-spring-branch-tx-78070"
        ],
        "original_url": "https://garagesalefinder.com/s/N9vir/1658-ranch-road-473-w-spring-branch-tx-78070",
        "source_names": [
          "GarageSaleFinder"
        ],
        "photos": [
          "https://gsf.tlstatic.com/image/w150-h100/2026/08/16/s/5/7/21717157/XSNoe-0.jpeg",
          "https://gsf.tlstatic.com/image/w150-h100/2026/08/16/s/5/7/21717157/XfpIF-0.jpeg",
          "https://gsf.tlstatic.com/image/w150-h100/2026/08/16/s/5/7/21717157/XgMDq-0.jpeg",
          "https://gsf.tlstatic.com/image/w150-h100/2026/08/16/s/5/7/21717157/XwuoK-0.jpeg",
          "https://gsf.tlstatic.com/image/w150-h100/2026/08/16/s/5/7/21717157/iXVy-0.jpeg",
          "https://gsf.tlstatic.com/image/w150-h100/2026/08/16/s/5/7/21717157/cVAe-0.jpeg"
        ],
        "confidence": 100,
        "verified_at": "2026-08-22T02:33:05-05:00",
        "street_view_url": "https://www.google.com/maps/@?api=1&map_action=pano&viewpoint=29.4241,-98.4936",
        "google_maps_url": "https://www.google.com/maps/search/?api=1&query=29.4241,-98.4936",
        "status": "verified",
        "geocode_method": "city-center",
        "notes": "",
        "community_source": "",
        "community_link_or_notes": ""
      }
    },
    {
      "type": "Feature",
      "geometry": {
        "type": "Point",
        "coordinates": [
          -98.568605,
          29.571028
        ]
      },
      "properties": {
        "sale_id": "2026-08-22_13711-shavano-mist-san-antonio-tx-78230",
        "title": "Huge Moving & Downsizing Sale – Furniture, Art, Collectibles & More – 78230",
        "sale_type": "garage",
        "date_start": "2026-08-22",
        "date_end": "2026-08-22",
        "start_time": "9:00 AM - 6:00 PM",
        "end_time": "",
        "address": "13711 Shavano Mist, San Antonio, TX 78230",
        "city": "San Antonio",
        "state": "TX",
        "zip": "",
        "latitude": 29.571028,
        "longitude": -98.568605,
        "description": "Find all the garage sales, yard sales, and estate sales on a map! Or place a free ad for your upcoming sale on yardsalesearch.com",
        "highlights": [],
        "source_urls": [
          "https://www.yardsalesearch.com/yss-garage-sale.jsp?id=196352487"
        ],
        "original_url": "https://www.yardsalesearch.com/yss-garage-sale.jsp?id=196352487",
        "source_names": [
          "YardSaleSearch"
        ],
        "photos": [
          "https://d82cz7nyq77ak.cloudfront.net/images/social/Facebook.png",
          "https://d82cz7nyq77ak.cloudfront.net/images/social/Pinterest.png",
          "https://d82cz7nyq77ak.cloudfront.net/images/social/Reddit.png",
          "https://d82cz7nyq77ak.cloudfront.net/images/social/Twitter.png",
          "https://d82cz7nyq77ak.cloudfront.net/images/social/Email.png",
          "https://gsf.tlstatic.com/image/w300-c300:250/2026/08/17/s/4/5/21718045/oAr9-0.jpeg"
        ],
        "confidence": 100,
        "verified_at": "2026-08-22T02:33:05-05:00",
        "street_view_url": "https://www.google.com/maps/@?api=1&map_action=pano&viewpoint=29.571028,-98.568605",
        "google_maps_url": "https://www.google.com/maps/search/?api=1&query=29.571028,-98.568605",
        "status": "verified",
        "geocode_method": "source",
        "notes": "",
        "community_source": "",
        "community_link_or_notes": ""
      }
    },
    {
      "type": "Feature",
      "geometry": {
        "type": "Point",
        "coordinates": [
          -98.3430125,
          29.54613466
        ]
      },
      "properties": {
        "sale_id": "2026-08-22_11901-toepperwein-rd-live-oak-tx-78233",
        "title": "Tulia Grove Community Yard Sale (Baby And Kids Clothing, Toys, And Accessories)",
        "sale_type": "garage",
        "date_start": "2026-08-22",
        "date_end": "2026-08-22",
        "start_time": "9:00 AM - 1:00 PM",
        "end_time": "",
        "address": "11901 Toepperwein Rd, Live Oak, TX 78233",
        "city": "San Antonio",
        "state": "TX",
        "zip": "",
        "latitude": 29.54613466,
        "longitude": -98.3430125,
        "description": "Find all the garage sales, yard sales, and estate sales on a map! Or place a free ad for your upcoming sale on yardsalesearch.com",
        "highlights": [],
        "source_urls": [
          "https://www.yardsalesearch.com/yss-garage-sale.jsp?id=196352917"
        ],
        "original_url": "https://www.yardsalesearch.com/yss-garage-sale.jsp?id=196352917",
        "source_names": [
          "YardSaleSearch"
        ],
        "photos": [
          "https://d82cz7nyq77ak.cloudfront.net/images/social/Facebook.png",
          "https://d82cz7nyq77ak.cloudfront.net/images/social/Pinterest.png",
          "https://d82cz7nyq77ak.cloudfront.net/images/social/Reddit.png",
          "https://d82cz7nyq77ak.cloudfront.net/images/social/Twitter.png",
          "https://d82cz7nyq77ak.cloudfront.net/images/social/Email.png",
          "https://ps.tlstatic.com/image/w300-c300:250/2026/08/18/s/8/7/403287/65Dag-0.jpeg"
        ],
        "confidence": 100,
        "verified_at": "2026-08-22T02:33:05-05:00",
        "street_view_url": "https://www.google.com/maps/@?api=1&map_action=pano&viewpoint=29.54613466,-98.3430125",
        "google_maps_url": "https://www.google.com/maps/search/?api=1&query=29.54613466,-98.3430125",
        "status": "verified",
        "geocode_method": "source",
        "notes": "",
        "community_source": "",
        "community_link_or_notes": ""
      }
    },
    {
      "type": "Feature",
      "geometry": {
        "type": "Point",
        "coordinates": [
          -98.794906,
          29.422745
        ]
      },
      "properties": {
        "sale_id": "2026-08-22_1056-raceland-rd-san-antonio-tx-78245",
        "title": "Community Yard Garage Sales = Potranco Run Neighborhood",
        "sale_type": "garage",
        "date_start": "2026-08-22",
        "date_end": "2026-08-23",
        "start_time": "7:00 AM - 2:00 PM",
        "end_time": "",
        "address": "1056 Raceland Rd, San Antonio, TX 78245",
        "city": "San Antonio",
        "state": "TX",
        "zip": "",
        "latitude": 29.422745,
        "longitude": -98.794906,
        "description": "Find all the garage sales, yard sales, and estate sales on a map! Or place a free ad for your upcoming sale on yardsalesearch.com",
        "highlights": [],
        "source_urls": [
          "https://www.yardsalesearch.com/yss-garage-sale.jsp?id=196352993"
        ],
        "original_url": "https://www.yardsalesearch.com/yss-garage-sale.jsp?id=196352993",
        "source_names": [
          "YardSaleSearch"
        ],
        "photos": [
          "https://d82cz7nyq77ak.cloudfront.net/images/social/Facebook.png",
          "https://d82cz7nyq77ak.cloudfront.net/images/social/Pinterest.png",
          "https://d82cz7nyq77ak.cloudfront.net/images/social/Reddit.png",
          "https://d82cz7nyq77ak.cloudfront.net/images/social/Twitter.png",
          "https://d82cz7nyq77ak.cloudfront.net/images/social/Email.png",
          "https://gsf.tlstatic.com/image/w300-c300:250/2026/08/18/s/5/3/21718553/0WUK-0.jpeg"
        ],
        "confidence": 100,
        "verified_at": "2026-08-22T02:33:05-05:00",
        "street_view_url": "https://www.google.com/maps/@?api=1&map_action=pano&viewpoint=29.422745,-98.794906",
        "google_maps_url": "https://www.google.com/maps/search/?api=1&query=29.422745,-98.794906",
        "status": "verified",
        "geocode_method": "source",
        "notes": "",
        "community_source": "",
        "community_link_or_notes": ""
      }
    },
    {
      "type": "Feature",
      "geometry": {
        "type": "Point",
        "coordinates": [
          -98.795007,
          29.422831
        ]
      },
      "properties": {
        "sale_id": "2026-08-22_1052-raceland-rd-san-antonio-tx-78245",
        "title": "Aug. 22 & 23 = Community Yard Sales - Potranco Run, San Antonio Tx",
        "sale_type": "garage",
        "date_start": "2026-08-22",
        "date_end": "2026-08-22",
        "start_time": "8:00 AM - 5:00 PM",
        "end_time": "",
        "address": "1052 Raceland Rd, San Antonio, TX 78245",
        "city": "San Antonio",
        "state": "TX",
        "zip": "",
        "latitude": 29.422831,
        "longitude": -98.795007,
        "description": "Find all the garage sales, yard sales, and estate sales on a map! Or place a free ad for your upcoming sale on yardsalesearch.com",
        "highlights": [],
        "source_urls": [
          "https://www.yardsalesearch.com/yss-garage-sale.jsp?id=196353001"
        ],
        "original_url": "https://www.yardsalesearch.com/yss-garage-sale.jsp?id=196353001",
        "source_names": [
          "YardSaleSearch"
        ],
        "photos": [
          "https://d82cz7nyq77ak.cloudfront.net/images/social/Facebook.png",
          "https://d82cz7nyq77ak.cloudfront.net/images/social/Pinterest.png",
          "https://d82cz7nyq77ak.cloudfront.net/images/social/Reddit.png",
          "https://d82cz7nyq77ak.cloudfront.net/images/social/Twitter.png",
          "https://d82cz7nyq77ak.cloudfront.net/images/social/Email.png",
          "https://d82cz7nyq77ak.cloudfront.net/image/w300-c300:250/2026/08/18/s/0/1/196353001/Xthhc-0.jpeg"
        ],
        "confidence": 100,
        "verified_at": "2026-08-22T02:33:05-05:00",
        "street_view_url": "https://www.google.com/maps/@?api=1&map_action=pano&viewpoint=29.422831,-98.795007",
        "google_maps_url": "https://www.google.com/maps/search/?api=1&query=29.422831,-98.795007",
        "status": "verified",
        "geocode_method": "source",
        "notes": "",
        "community_source": "",
        "community_link_or_notes": ""
      }
    },
    {
      "type": "Feature",
      "geometry": {
        "type": "Point",
        "coordinates": [
          -98.427915,
          29.580824
        ]
      },
      "properties": {
        "sale_id": "2026-08-22_3537-green-spring-drive-san-antonio-tx",
        "title": "Estate sale/moving sale -antiques too (Green spring Valley)",
        "sale_type": "estate",
        "date_start": "2026-08-22",
        "date_end": "2026-08-24",
        "start_time": "",
        "end_time": "",
        "address": "3537 Green Spring Drive, San Antonio, TX",
        "city": "San Antonio",
        "state": "TX",
        "zip": "",
        "latitude": 29.580824,
        "longitude": -98.427915,
        "description": "QR Code Link to This Post Selling only at dates 29,30th of August at estate sale. Sorry too busy to reply to emails. Seeking to sale furniture in home. only Cash. I have a TV, one DvD/VHS, two area rugs, two couches ( one vintage) , three vintage armchairs , massage table, dressers, hutch, vanity annd queen bed. All must go! As well as some home apppliances, mirrors, sports equipment, e-bike (just needs minor work), lamps….",
        "highlights": [],
        "source_urls": [
          "https://www.craigslist.org/view/d/san-antonio-estate-sale-moving-sale/iyLKr45DRf81Ty7rAjR8d2"
        ],
        "original_url": "https://www.craigslist.org/view/d/san-antonio-estate-sale-moving-sale/iyLKr45DRf81Ty7rAjR8d2",
        "source_names": [
          "Craigslist"
        ],
        "photos": [
          "https://images.craigslist.org/00I0I_ekWJsVq2d7w_0t20CI_600x450.jpg",
          "https://images.craigslist.org/00I0I_ekWJsVq2d7w_0t20CI_50x50c.jpg",
          "https://images.craigslist.org/00p0p_QYb6ykW4KB_0t20CI_50x50c.jpg",
          "https://images.craigslist.org/00O0O_h7ljnddzsjW_0t20CI_50x50c.jpg",
          "https://images.craigslist.org/00f0f_dA6WXF92xSH_0t20CI_50x50c.jpg",
          "https://images.craigslist.org/00P0P_2ad87O90FYn_0t20CI_50x50c.jpg"
        ],
        "confidence": 96,
        "verified_at": "2026-08-22T02:33:05-05:00",
        "street_view_url": "https://www.google.com/maps/@?api=1&map_action=pano&viewpoint=29.580824,-98.427915",
        "google_maps_url": "https://www.google.com/maps/search/?api=1&query=29.580824,-98.427915",
        "status": "verified",
        "geocode_method": "source",
        "notes": "",
        "community_source": "",
        "community_link_or_notes": ""
      }
    },
    {
      "type": "Feature",
      "geometry": {
        "type": "Point",
        "coordinates": [
          -98.431292,
          29.666488
        ]
      },
      "properties": {
        "sale_id": "2026-08-22_3310-rizzoli-ave-san-antonio-tx",
        "title": "Moving/Estate Sale (Northeast San Antonio)",
        "sale_type": "estate",
        "date_start": "2026-08-22",
        "date_end": "2026-08-24",
        "start_time": "",
        "end_time": "",
        "address": "3310 Rizzoli Ave, San Antonio, TX",
        "city": "San Antonio",
        "state": "TX",
        "zip": "",
        "latitude": 29.666488,
        "longitude": -98.431292,
        "description": "QR Code Link to This Post Join us this Saturday from 8am-2pm and Sunday 8am-12pm for our moving/estate sale at 3310 Rizzoli Ave, San Antonio, TX 78261. No reasonable offers will be refused. Items uncles furniture, refrigerator, couches, end tables, chairs, etc.",
        "highlights": [],
        "source_urls": [
          "https://www.craigslist.org/view/d/san-antonio-moving-estate-sale/gMWdVpFwC7qqBLZL82sHeZ"
        ],
        "original_url": "https://www.craigslist.org/view/d/san-antonio-moving-estate-sale/gMWdVpFwC7qqBLZL82sHeZ",
        "source_names": [
          "Craigslist"
        ],
        "photos": [
          "https://images.craigslist.org/00A0A_2rjD1q8sLc1_0t20CI_600x450.jpg",
          "https://images.craigslist.org/00A0A_2rjD1q8sLc1_0t20CI_50x50c.jpg",
          "https://images.craigslist.org/00707_kOwlKKZ19RH_0t20CI_50x50c.jpg",
          "https://images.craigslist.org/00Z0Z_ltRgSkjMS6E_0t20CI_50x50c.jpg",
          "https://images.craigslist.org/00L0L_gXqPzjP3DeE_0CI0t2_50x50c.jpg",
          "https://images.craigslist.org/00U0U_1D5xeQvrscq_0CI0t2_50x50c.jpg"
        ],
        "confidence": 96,
        "verified_at": "2026-08-22T02:33:05-05:00",
        "street_view_url": "https://www.google.com/maps/@?api=1&map_action=pano&viewpoint=29.666488,-98.431292",
        "google_maps_url": "https://www.google.com/maps/search/?api=1&query=29.666488,-98.431292",
        "status": "verified",
        "geocode_method": "source",
        "notes": "",
        "community_source": "",
        "community_link_or_notes": ""
      }
    },
    {
      "type": "Feature",
      "geometry": {
        "type": "Point",
        "coordinates": [
          -98.1672,
          29.6636
        ]
      },
      "properties": {
        "sale_id": "2026-08-22_us-35n-near-cibilo-valley-exit-san-antonio-tx",
        "title": "Unbelievable collection liquidation (Schertz)",
        "sale_type": "estate",
        "date_start": "2026-08-22",
        "date_end": "2026-08-24",
        "start_time": "",
        "end_time": "",
        "address": "US 35n near Cibilo Valley exit, San Antonio, TX",
        "city": "San Antonio",
        "state": "TX",
        "zip": "",
        "latitude": 29.6636,
        "longitude": -98.1672,
        "description": "QR Code Link to This Post Attention Resellers!!! Huge sell off liquidation of decades of collecting!!! Starting Saturday-Sunday 22nd and 23rd Booths 383 and 306 at Busseys flea market Front aisle right of the parking lot. See pics. More and more new inventory every weekend until December.",
        "highlights": [],
        "source_urls": [
          "https://www.craigslist.org/view/d/new-braunfels-unbelievable-collection/6mxMeJuTorrrK9csPPdpLv"
        ],
        "original_url": "https://www.craigslist.org/view/d/new-braunfels-unbelievable-collection/6mxMeJuTorrrK9csPPdpLv",
        "source_names": [
          "Craigslist"
        ],
        "photos": [
          "https://images.craigslist.org/00d0d_aB3U1uqnde5_0t20CI_600x450.jpg",
          "https://images.craigslist.org/00d0d_aB3U1uqnde5_0t20CI_50x50c.jpg",
          "https://images.craigslist.org/00J0J_ifHhBWwTJbp_0t20CI_50x50c.jpg",
          "https://images.craigslist.org/00c0c_3xG8m02OOSm_0t20CI_50x50c.jpg",
          "https://images.craigslist.org/00j0j_6Ih1vy3d1X_0t20CI_50x50c.jpg",
          "https://images.craigslist.org/00q0q_4rTQI2Bx814_0t20CI_50x50c.jpg"
        ],
        "confidence": 96,
        "verified_at": "2026-08-22T02:33:05-05:00",
        "street_view_url": "https://www.google.com/maps/@?api=1&map_action=pano&viewpoint=29.6636,-98.1672",
        "google_maps_url": "https://www.google.com/maps/search/?api=1&query=29.6636,-98.1672",
        "status": "verified",
        "geocode_method": "source",
        "notes": "",
        "community_source": "",
        "community_link_or_notes": ""
      }
    },
    {
      "type": "Feature",
      "geometry": {
        "type": "Point",
        "coordinates": [
          -98.6094,
          29.556
        ]
      },
      "properties": {
        "sale_id": "2026-08-22_6151-nw-loop-410-san-antonio-tx",
        "title": "Alamo Craft Co. Antiques & More (San Antonio)",
        "sale_type": "garage",
        "date_start": "2026-08-22",
        "date_end": "2026-08-24",
        "start_time": "",
        "end_time": "",
        "address": "6151 NW Loop 410, San Antonio, TX",
        "city": "San Antonio",
        "state": "TX",
        "zip": "",
        "latitude": 29.556,
        "longitude": -98.6094,
        "description": "QR Code Link to This Post OPEN TUES - SAT 10AM-6PM 6151 NW Loop 410, #302 SATX 78238 A hidden gem in San Antonio! Here you'll find unique antiques, vintage items, collectibles, hand-crafted items &amp; so much more. Come by &amp; see all the fun stuff! Ask for your frequent buyer card &amp; get punches with every purchase.",
        "highlights": [],
        "source_urls": [
          "https://www.craigslist.org/view/d/san-antonio-alamo-craft-co-antiques-more/mj6FcRd4ZDr7zwAwc4pwWa"
        ],
        "original_url": "https://www.craigslist.org/view/d/san-antonio-alamo-craft-co-antiques-more/mj6FcRd4ZDr7zwAwc4pwWa",
        "source_names": [
          "Craigslist"
        ],
        "photos": [
          "https://images.craigslist.org/01515_1Xh2ogBe0sZ_0CI0pq_600x450.jpg"
        ],
        "confidence": 96,
        "verified_at": "2026-08-22T02:33:05-05:00",
        "street_view_url": "https://www.google.com/maps/@?api=1&map_action=pano&viewpoint=29.556,-98.6094",
        "google_maps_url": "https://www.google.com/maps/search/?api=1&query=29.556,-98.6094",
        "status": "verified",
        "geocode_method": "source",
        "notes": "",
        "community_source": "",
        "community_link_or_notes": ""
      }
    },
    {
      "type": "Feature",
      "geometry": {
        "type": "Point",
        "coordinates": [
          -98.728681,
          29.364186
        ]
      },
      "properties": {
        "sale_id": "2026-08-22_12022-luckey-view-san-antonio-tx",
        "title": "Garage sale 08/22 (Luckey Ranch)",
        "sale_type": "garage",
        "date_start": "2026-08-22",
        "date_end": "2026-08-24",
        "start_time": "",
        "end_time": "",
        "address": "12022 Luckey View, San Antonio, TX",
        "city": "San Antonio",
        "state": "TX",
        "zip": "",
        "latitude": 29.364186,
        "longitude": -98.728681,
        "description": "QR Code Link to This Post Garage sale in the Luckey ranch subdivision. I will have collectibles, art, toys, video games, home decor, clothes, shoes, clocks, old national cash register, caps, Star Wars, MOTU, metal industrial shelf, ash trays,Pokémon plush",
        "highlights": [],
        "source_urls": [
          "https://www.craigslist.org/view/d/san-antonio-garage-sale-08-22/7DopX2cKFEZnRxywwg3PPv"
        ],
        "original_url": "https://www.craigslist.org/view/d/san-antonio-garage-sale-08-22/7DopX2cKFEZnRxywwg3PPv",
        "source_names": [
          "Craigslist"
        ],
        "photos": [
          "https://images.craigslist.org/00n0n_ckVK2LXdG25_0a60a6_600x450.jpg"
        ],
        "confidence": 96,
        "verified_at": "2026-08-22T02:33:05-05:00",
        "street_view_url": "https://www.google.com/maps/@?api=1&map_action=pano&viewpoint=29.364186,-98.728681",
        "google_maps_url": "https://www.google.com/maps/search/?api=1&query=29.364186,-98.728681",
        "status": "verified",
        "geocode_method": "source",
        "notes": "",
        "community_source": "",
        "community_link_or_notes": ""
      }
    },
    {
      "type": "Feature",
      "geometry": {
        "type": "Point",
        "coordinates": [
          -98.247,
          29.358
        ]
      },
      "properties": {
        "sale_id": "2026-08-22_748-fuller-ln-san-antonio-tx",
        "title": "HUGE DOWNSIZING SALE — EVERYTHING PRICED TO SELL QUICK! (Adkins)",
        "sale_type": "garage",
        "date_start": "2026-08-22",
        "date_end": "2026-08-24",
        "start_time": "8:00 AM – 2:00 PM",
        "end_time": "",
        "address": "748 Fuller Ln, San Antonio, TX",
        "city": "San Antonio",
        "state": "TX",
        "zip": "",
        "latitude": 29.358,
        "longitude": -98.247,
        "description": "QR Code Link to This Post 🏡💥 HUGE DOWNSIZING SALE — EVERYTHING PRICED TO SELL QUICK! 💥🏡 We’re downsizing, which means LOTS of stuff needs to go! We have a huge variety of items, and everything is priced to sell. Come early for the best selection! 📍 748 Fuller Ln, Adkins, TX 78101 📅 Friday, 8/21 | 8:00 AM – 2:00 PM 📅 Saturday, 8/22 | 8:00 AM – 4:00 PM 📅 Sunday, 8/23 | 8:00 AM – 2:00 PM 🛍️ ITEMS INCLUDE: • Toys • Porcelain dolls • Women’s clothing & shoes • Men’s clothing & shoes • Girls’ clothing",
        "highlights": [],
        "source_urls": [
          "https://www.craigslist.org/view/d/adkins-huge-downsizing-sale-everything/t299pMZNw1Wk1uU4UkW6gZ"
        ],
        "original_url": "https://www.craigslist.org/view/d/adkins-huge-downsizing-sale-everything/t299pMZNw1Wk1uU4UkW6gZ",
        "source_names": [
          "Craigslist"
        ],
        "photos": [],
        "confidence": 100,
        "verified_at": "2026-08-22T02:33:05-05:00",
        "street_view_url": "https://www.google.com/maps/@?api=1&map_action=pano&viewpoint=29.358,-98.247",
        "google_maps_url": "https://www.google.com/maps/search/?api=1&query=29.358,-98.247",
        "status": "verified",
        "geocode_method": "source",
        "notes": "",
        "community_source": "",
        "community_link_or_notes": ""
      }
    },
    {
      "type": "Feature",
      "geometry": {
        "type": "Point",
        "coordinates": [
          -98.794609,
          29.426202
        ]
      },
      "properties": {
        "sale_id": "2026-08-22_1051-1056-raceland-road-san-antonio-tx-78245-san",
        "title": "POTRANCO RUN COMMUNITY GARAGE YARD SALE = Aug. 22 & 23 (San Antonio)",
        "sale_type": "garage",
        "date_start": "2026-08-22",
        "date_end": "2026-08-22",
        "start_time": "7:00 AM - 2:00 PM",
        "end_time": "",
        "address": "1051 - 1056 RACELAND ROAD, SAN ANTONIO, TX 78245, San Antonio, TX",
        "city": "San Antonio",
        "state": "TX",
        "zip": "",
        "latitude": 29.426202,
        "longitude": -98.794609,
        "description": "QR Code Link to This Post Potranco Run Community Yard & Garage Sale 🎉 POTRANCO RUN COMMUNITY SALE 🎉 📅 August 22 & 23 ⏰ 7:00 AM - 2:00 PM 📍 1050 - 1058 RACELAND ROAD, SAN ANTONIO, TX + Surrounding Neighborhood Homes! HUGE SELECTION OF ITEMS! EVERYTHING MUST GO! 📚 Entertainment & Media Books Vinyl Records CDs & DVDs Toys & Games 🏠 Home & Kitchen Kitchen Items Throw Pillows Blankets Decor & Home Accessories 🪑 Furniture & Storage Storage Shelves Cubicle Cabinets Bookcases Desks & Tables Stools & Sma",
        "highlights": [],
        "source_urls": [
          "https://www.craigslist.org/view/d/san-antonio-potranco-run-community/3Qo7rN4pFfMBiEErJwtXfn"
        ],
        "original_url": "https://www.craigslist.org/view/d/san-antonio-potranco-run-community/3Qo7rN4pFfMBiEErJwtXfn",
        "source_names": [
          "Craigslist"
        ],
        "photos": [
          "https://images.craigslist.org/00W0W_MAgQRGIjt_0j40t2_600x450.jpg",
          "https://images.craigslist.org/00W0W_MAgQRGIjt_0j40t2_50x50c.jpg",
          "https://images.craigslist.org/00B0B_3xReTS5fI9O_06D02U_50x50c.jpg",
          "https://images.craigslist.org/00A0A_kbvaYWwPl5i_04q03I_50x50c.jpg",
          "https://images.craigslist.org/00s0s_2HhZBn45W30_0CI0pQ_50x50c.jpg",
          "https://images.craigslist.org/00o0o_3BMfZZntXGb_05C05C_50x50c.jpg"
        ],
        "confidence": 100,
        "verified_at": "2026-08-22T02:33:05-05:00",
        "street_view_url": "https://www.google.com/maps/@?api=1&map_action=pano&viewpoint=29.426202,-98.794609",
        "google_maps_url": "https://www.google.com/maps/search/?api=1&query=29.426202,-98.794609",
        "status": "verified",
        "geocode_method": "source",
        "notes": "",
        "community_source": "",
        "community_link_or_notes": ""
      }
    },
    {
      "type": "Feature",
      "geometry": {
        "type": "Point",
        "coordinates": [
          -98.4936,
          29.4241
        ]
      },
      "properties": {
        "sale_id": "2026-08-19_new-braunfels-tx-78133",
        "title": "Collections of a Lifetime Online Auction by Caring Transitions - Ends 8/26!",
        "sale_type": "estate",
        "date_start": "2026-08-19",
        "date_end": "2026-08-26",
        "start_time": "11:48 am - 11:59 pm",
        "end_time": "",
        "address": "New Braunfels, TX 78133",
        "city": "San Antonio",
        "state": "TX",
        "zip": "",
        "latitude": 29.4241,
        "longitude": -98.4936,
        "description": "Dates and Times: Wednesday, August 19, 2026 11:48 am - 11:59 pm",
        "highlights": [],
        "source_urls": [
          "https://garagesalefinder.com/s/N9gGt/new-braunfels-tx-78133"
        ],
        "original_url": "https://garagesalefinder.com/s/N9gGt/new-braunfels-tx-78133",
        "source_names": [
          "GarageSaleFinder"
        ],
        "photos": [
          "https://eso-cdn.tlcdn.workers.dev/s-2458311-qrta6w673hwlc92t-t.webp",
          "https://eso-cdn.tlcdn.workers.dev/s-2458311-8kzf5mhq9o9s8ipl-t.webp",
          "https://eso-cdn.tlcdn.workers.dev/s-2458311-rbo369adertacltp-t.webp",
          "https://eso-cdn.tlcdn.workers.dev/s-2458311-p5kqbrlti7tlpci5-t.webp",
          "https://eso-cdn.tlcdn.workers.dev/s-2458311-awx8vijbpnobnz1j-t.webp",
          "https://eso-cdn.tlcdn.workers.dev/s-2458311-g92uo5f236f9yx1o-t.webp"
        ],
        "confidence": 100,
        "verified_at": "2026-08-22T02:33:05-05:00",
        "street_view_url": "https://www.google.com/maps/@?api=1&map_action=pano&viewpoint=29.4241,-98.4936",
        "google_maps_url": "https://www.google.com/maps/search/?api=1&query=29.4241,-98.4936",
        "status": "verified",
        "geocode_method": "city-center",
        "notes": "",
        "community_source": "",
        "community_link_or_notes": ""
      }
    },
    {
      "type": "Feature",
      "geometry": {
        "type": "Point",
        "coordinates": [
          -98.569043,
          29.572122
        ]
      },
      "properties": {
        "sale_id": "2026-08-22_13771-shavano-mist-san-antonio-tx-78230",
        "title": "Huge Garage&Moving Sale",
        "sale_type": "garage",
        "date_start": "2026-08-22",
        "date_end": "2026-08-22",
        "start_time": "9:00 AM - 4:00 PM",
        "end_time": "",
        "address": "13771 Shavano Mist, San Antonio, TX 78230",
        "city": "San Antonio",
        "state": "TX",
        "zip": "",
        "latitude": 29.572122,
        "longitude": -98.569043,
        "description": "Find all the garage sales, yard sales, and estate sales on a map! Or place a free ad for your upcoming sale on yardsalesearch.com",
        "highlights": [],
        "source_urls": [
          "https://www.yardsalesearch.com/yss-garage-sale.jsp?id=196354971"
        ],
        "original_url": "https://www.yardsalesearch.com/yss-garage-sale.jsp?id=196354971",
        "source_names": [
          "YardSaleSearch"
        ],
        "photos": [
          "https://d82cz7nyq77ak.cloudfront.net/images/social/Facebook.png",
          "https://d82cz7nyq77ak.cloudfront.net/images/social/Pinterest.png",
          "https://d82cz7nyq77ak.cloudfront.net/images/social/Reddit.png",
          "https://d82cz7nyq77ak.cloudfront.net/images/social/Twitter.png",
          "https://d82cz7nyq77ak.cloudfront.net/images/social/Email.png",
          "https://d3sp8ubbhnru9d.cloudfront.net/image/w300-c300:250/2026/08/19/s/7/9/38890579/7BD1Z-0.jpeg"
        ],
        "confidence": 100,
        "verified_at": "2026-08-22T02:33:05-05:00",
        "street_view_url": "https://www.google.com/maps/@?api=1&map_action=pano&viewpoint=29.572122,-98.569043",
        "google_maps_url": "https://www.google.com/maps/search/?api=1&query=29.572122,-98.569043",
        "status": "verified",
        "geocode_method": "source",
        "notes": "",
        "community_source": "",
        "community_link_or_notes": ""
      }
    },
    {
      "type": "Feature",
      "geometry": {
        "type": "Point",
        "coordinates": [
          -98.468282,
          29.595408
        ]
      },
      "properties": {
        "sale_id": "2026-08-21_16724-lilly-crest-dr-san-antonio-tx-78232",
        "title": "16724 Lilly-Crest Dr, San Antonio, TX 78232",
        "sale_type": "garage",
        "date_start": "2026-08-21",
        "date_end": "2026-08-22",
        "start_time": "8:00 am - 4:00 pm",
        "end_time": "",
        "address": "16724 Lilly-Crest Dr, San Antonio, TX 78232",
        "city": "San Antonio",
        "state": "TX",
        "zip": "",
        "latitude": 29.595408,
        "longitude": -98.468282,
        "description": "Dates and Times: Friday, August 21, 2026 8:00 am - 4:00 pm",
        "highlights": [],
        "source_urls": [
          "https://garagesalefinder.com/s/N9gSj/16724-lillycrest-dr-san-antonio-tx-78232"
        ],
        "original_url": "https://garagesalefinder.com/s/N9gSj/16724-lillycrest-dr-san-antonio-tx-78232",
        "source_names": [
          "GarageSaleFinder"
        ],
        "photos": [
          "https://gsf.tlstatic.com/images/social/Facebook.png",
          "https://gsf.tlstatic.com/images/social/Reddit.png",
          "https://gsf.tlstatic.com/images/social/Twitter.png",
          "https://gsf.tlstatic.com/images/social/Email.png"
        ],
        "confidence": 100,
        "verified_at": "2026-08-22T02:33:05-05:00",
        "street_view_url": "https://www.google.com/maps/@?api=1&map_action=pano&viewpoint=29.595408,-98.468282",
        "google_maps_url": "https://www.google.com/maps/search/?api=1&query=29.595408,-98.468282",
        "status": "verified",
        "geocode_method": "source",
        "notes": "",
        "community_source": "",
        "community_link_or_notes": ""
      }
    },
    {
      "type": "Feature",
      "geometry": {
        "type": "Point",
        "coordinates": [
          -98.292261,
          29.576699
        ]
      },
      "properties": {
        "sale_id": "2026-08-22_3533-irish-creek-rd-schertz-tx-78154",
        "title": "3533 Irish Creek Rd, Schertz, TX 78154",
        "sale_type": "garage",
        "date_start": "2026-08-22",
        "date_end": "2026-08-23",
        "start_time": "7:00 am - 2:00 pm",
        "end_time": "",
        "address": "3533 Irish Creek Rd, Schertz, TX 78154",
        "city": "San Antonio",
        "state": "TX",
        "zip": "",
        "latitude": 29.576699,
        "longitude": -98.292261,
        "description": "Dates and Times: Saturday, August 22, 2026 7:00 am - 2:00 pm",
        "highlights": [],
        "source_urls": [
          "https://garagesalefinder.com/s/N9gPn/3533-irish-creek-rd-schertz-tx-78154"
        ],
        "original_url": "https://garagesalefinder.com/s/N9gPn/3533-irish-creek-rd-schertz-tx-78154",
        "source_names": [
          "GarageSaleFinder"
        ],
        "photos": [
          "https://gsf.tlstatic.com/images/social/Facebook.png",
          "https://gsf.tlstatic.com/images/social/Reddit.png",
          "https://gsf.tlstatic.com/images/social/Twitter.png",
          "https://gsf.tlstatic.com/images/social/Email.png"
        ],
        "confidence": 100,
        "verified_at": "2026-08-22T02:33:05-05:00",
        "street_view_url": "https://www.google.com/maps/@?api=1&map_action=pano&viewpoint=29.576699,-98.292261",
        "google_maps_url": "https://www.google.com/maps/search/?api=1&query=29.576699,-98.292261",
        "status": "verified",
        "geocode_method": "source",
        "notes": "",
        "community_source": "",
        "community_link_or_notes": ""
      }
    },
    {
      "type": "Feature",
      "geometry": {
        "type": "Point",
        "coordinates": [
          -98.4692512,
          29.3939162
        ]
      },
      "properties": {
        "sale_id": "2026-08-21_hidden-san-antonio-tx-78210",
        "title": "Craftsman’s Estate Sale — Packed Garage, Tools, Machinery & More!",
        "sale_type": "estate",
        "date_start": "2026-08-21",
        "date_end": "2026-08-23",
        "start_time": "9:00AM - 3:00PM",
        "end_time": "",
        "address": "hidden, San Antonio, TX 78210",
        "city": "San Antonio",
        "state": "TX",
        "zip": "",
        "latitude": 29.3939162,
        "longitude": -98.4692512,
        "description": "Caring Transitions of San Antonio Central. Calling all craftsmen, welders, woodworkers, mechanics, contractors, DIYers and tool hunters! Caring Transitions of San Antonio Central invites you to a unique estate sale featuring the garage and workshop of a longtime welder and skilled craftsman....",
        "highlights": [],
        "source_urls": [
          "https://estatesales.org/estate-sales/tx/san-antonio/78210/craftsmans-estate-sale-packed-garage-2456907"
        ],
        "original_url": "https://estatesales.org/estate-sales/tx/san-antonio/78210/craftsmans-estate-sale-packed-garage-2456907",
        "source_names": [
          "EstateSales.org"
        ],
        "photos": [
          "https://estatesales.org/2036244653/css/images/nophoto_company_400x400.png",
          "https://estatesales.org/2036244653/css/images/social/facebook.png",
          "https://eso-cdn.tlcdn.workers.dev/s-2456907-v1e649zkhg87vx1c-t.webp",
          "https://eso-cdn.tlcdn.workers.dev/s-2456907-ugal9saitzuea267-t.webp",
          "https://eso-cdn.tlcdn.workers.dev/s-2456907-1pii9anm79cul9cz-t.webp",
          "https://eso-cdn.tlcdn.workers.dev/s-2456907-2n1ukq9qbttohgx9-t.webp"
        ],
        "confidence": 100,
        "verified_at": "2026-08-22T02:33:05-05:00",
        "street_view_url": "https://www.google.com/maps/@?api=1&map_action=pano&viewpoint=29.3939162,-98.4692512",
        "google_maps_url": "https://www.google.com/maps/search/?api=1&query=29.3939162,-98.4692512",
        "status": "verified",
        "geocode_method": "source",
        "notes": "",
        "community_source": "",
        "community_link_or_notes": ""
      }
    },
    {
      "type": "Feature",
      "geometry": {
        "type": "Point",
        "coordinates": [
          -98.2778,
          29.579
        ]
      },
      "properties": {
        "sale_id": "2026-08-21_3533-irish-creek-rd-san-antonio-tx",
        "title": "Yard Sale - Schertz TX",
        "sale_type": "garage",
        "date_start": "2026-08-21",
        "date_end": "2026-08-23",
        "start_time": "",
        "end_time": "",
        "address": "3533 Irish Creek Rd, San Antonio, TX",
        "city": "San Antonio",
        "state": "TX",
        "zip": "",
        "latitude": 29.579,
        "longitude": -98.2778,
        "description": "QR Code Link to This Post 3533 Irish Creek Road, Schertz,TX Household and kitchen items, stuffed animals, furniture, women’s clothes and shoes, jewelry, purses, CDs, vinyl, and many other items.",
        "highlights": [],
        "source_urls": [
          "https://www.craigslist.org/view/d/schertz-yard-sale-schertz-tx/mMzk9zm3ASvAx5GM6aMKjL"
        ],
        "original_url": "https://www.craigslist.org/view/d/schertz-yard-sale-schertz-tx/mMzk9zm3ASvAx5GM6aMKjL",
        "source_names": [
          "Craigslist"
        ],
        "photos": [],
        "confidence": 96,
        "verified_at": "2026-08-22T02:33:05-05:00",
        "street_view_url": "https://www.google.com/maps/@?api=1&map_action=pano&viewpoint=29.579,-98.2778",
        "google_maps_url": "https://www.google.com/maps/search/?api=1&query=29.579,-98.2778",
        "status": "verified",
        "geocode_method": "source",
        "notes": "",
        "community_source": "",
        "community_link_or_notes": ""
      }
    },
    {
      "type": "Feature",
      "geometry": {
        "type": "Point",
        "coordinates": [
          -98.262734,
          29.860823
        ]
      },
      "properties": {
        "sale_id": "2026-08-22_1588-westview-court-drive-san-antonio-tx",
        "title": "Moving sale Everything must go!",
        "sale_type": "garage",
        "date_start": "2026-08-22",
        "date_end": "2026-08-24",
        "start_time": "",
        "end_time": "",
        "address": "1588 Westview Court Drive, San Antonio, TX",
        "city": "San Antonio",
        "state": "TX",
        "zip": "",
        "latitude": 29.860823,
        "longitude": -98.262734,
        "description": "QR Code Link to This Post Appliances, furniture, housewares, toys, clothes, kitchenware. Too much to list. Come by and look for yourself. Everything must go!",
        "highlights": [],
        "source_urls": [
          "https://www.craigslist.org/view/d/canyon-lake-moving-sale-everything-must/48RkXyTGScER2PFwi7hn8Y"
        ],
        "original_url": "https://www.craigslist.org/view/d/canyon-lake-moving-sale-everything-must/48RkXyTGScER2PFwi7hn8Y",
        "source_names": [
          "Craigslist"
        ],
        "photos": [
          "https://images.craigslist.org/00V0V_7FzdadO7vdn_0cM0gw_600x450.jpg"
        ],
        "confidence": 96,
        "verified_at": "2026-08-22T02:33:05-05:00",
        "street_view_url": "https://www.google.com/maps/@?api=1&map_action=pano&viewpoint=29.860823,-98.262734",
        "google_maps_url": "https://www.google.com/maps/search/?api=1&query=29.860823,-98.262734",
        "status": "verified",
        "geocode_method": "source",
        "notes": "",
        "community_source": "",
        "community_link_or_notes": ""
      }
    },
    {
      "type": "Feature",
      "geometry": {
        "type": "Point",
        "coordinates": [
          -98.4692512,
          29.3939162
        ]
      },
      "properties": {
        "sale_id": "2026-08-21_306-bailey-ave-san-antonio-tx-78210",
        "title": "Craftsman’S Estate Sale — Packed Garage, Tools, Machinery & More!",
        "sale_type": "estate",
        "date_start": "2026-08-21",
        "date_end": "2026-08-23",
        "start_time": "9:00 AM - 3:00 PM",
        "end_time": "",
        "address": "306 Bailey Ave, San Antonio, TX 78210",
        "city": "San Antonio",
        "state": "TX",
        "zip": "",
        "latitude": 29.3939162,
        "longitude": -98.4692512,
        "description": "Find all the garage sales, yard sales, and estate sales on a map! Or place a free ad for your upcoming sale on yardsalesearch.com",
        "highlights": [],
        "source_urls": [
          "https://www.yardsalesearch.com/yss-garage-sale.jsp?id=196345909"
        ],
        "original_url": "https://www.yardsalesearch.com/yss-garage-sale.jsp?id=196345909",
        "source_names": [
          "YardSaleSearch"
        ],
        "photos": [
          "https://d82cz7nyq77ak.cloudfront.net/images/social/Facebook.png",
          "https://d82cz7nyq77ak.cloudfront.net/images/social/Pinterest.png",
          "https://d82cz7nyq77ak.cloudfront.net/images/social/Reddit.png",
          "https://d82cz7nyq77ak.cloudfront.net/images/social/Twitter.png",
          "https://d82cz7nyq77ak.cloudfront.net/images/social/Email.png",
          "https://eso-cdn.tlcdn.workers.dev/s-2456907-v1e649zkhg87vx1c-t.webp"
        ],
        "confidence": 100,
        "verified_at": "2026-08-22T02:33:05-05:00",
        "street_view_url": "https://www.google.com/maps/@?api=1&map_action=pano&viewpoint=29.3939162,-98.4692512",
        "google_maps_url": "https://www.google.com/maps/search/?api=1&query=29.3939162,-98.4692512",
        "status": "verified",
        "geocode_method": "source",
        "notes": "",
        "community_source": "",
        "community_link_or_notes": ""
      }
    },
    {
      "type": "Feature",
      "geometry": {
        "type": "Point",
        "coordinates": [
          -98.536078,
          29.364565
        ]
      },
      "properties": {
        "sale_id": "2026-08-22_1022-wagner-ave-san-antonio-tx-78211",
        "title": "Yard Sale",
        "sale_type": "garage",
        "date_start": "2026-08-22",
        "date_end": "2026-08-22",
        "start_time": "8:00 AM - 5:00 PM",
        "end_time": "",
        "address": "1022 Wagner Ave, San Antonio, TX 78211",
        "city": "San Antonio",
        "state": "TX",
        "zip": "",
        "latitude": 29.364565,
        "longitude": -98.536078,
        "description": "Find all the garage sales, yard sales, and estate sales on a map! Or place a free ad for your upcoming sale on yardsalesearch.com",
        "highlights": [],
        "source_urls": [
          "https://www.yardsalesearch.com/yss-garage-sale.jsp?id=196355419"
        ],
        "original_url": "https://www.yardsalesearch.com/yss-garage-sale.jsp?id=196355419",
        "source_names": [
          "YardSaleSearch"
        ],
        "photos": [
          "https://d82cz7nyq77ak.cloudfront.net/images/social/Facebook.png",
          "https://d82cz7nyq77ak.cloudfront.net/images/social/Pinterest.png",
          "https://d82cz7nyq77ak.cloudfront.net/images/social/Reddit.png",
          "https://d82cz7nyq77ak.cloudfront.net/images/social/Twitter.png",
          "https://d82cz7nyq77ak.cloudfront.net/images/social/Email.png"
        ],
        "confidence": 100,
        "verified_at": "2026-08-22T02:33:05-05:00",
        "street_view_url": "https://www.google.com/maps/@?api=1&map_action=pano&viewpoint=29.364565,-98.536078",
        "google_maps_url": "https://www.google.com/maps/search/?api=1&query=29.364565,-98.536078",
        "status": "verified",
        "geocode_method": "source",
        "notes": "",
        "community_source": "",
        "community_link_or_notes": ""
      }
    },
    {
      "type": "Feature",
      "geometry": {
        "type": "Point",
        "coordinates": [
          -98.524746,
          29.503582
        ]
      },
      "properties": {
        "sale_id": "2026-08-21_67-basswood-dr-san-antonio-tx-78213",
        "title": "Yard Sale",
        "sale_type": "garage",
        "date_start": "2026-08-21",
        "date_end": "2026-08-22",
        "start_time": "9:00 AM - 1:00 PM",
        "end_time": "",
        "address": "67 Basswood Dr, San Antonio, TX 78213",
        "city": "San Antonio",
        "state": "TX",
        "zip": "",
        "latitude": 29.503582,
        "longitude": -98.524746,
        "description": "Find all the garage sales, yard sales, and estate sales on a map! Or place a free ad for your upcoming sale on yardsalesearch.com",
        "highlights": [],
        "source_urls": [
          "https://www.yardsalesearch.com/yss-garage-sale.jsp?id=196355373"
        ],
        "original_url": "https://www.yardsalesearch.com/yss-garage-sale.jsp?id=196355373",
        "source_names": [
          "YardSaleSearch"
        ],
        "photos": [
          "https://d82cz7nyq77ak.cloudfront.net/images/social/Facebook.png",
          "https://d82cz7nyq77ak.cloudfront.net/images/social/Pinterest.png",
          "https://d82cz7nyq77ak.cloudfront.net/images/social/Reddit.png",
          "https://d82cz7nyq77ak.cloudfront.net/images/social/Twitter.png",
          "https://d82cz7nyq77ak.cloudfront.net/images/social/Email.png"
        ],
        "confidence": 100,
        "verified_at": "2026-08-22T02:33:05-05:00",
        "street_view_url": "https://www.google.com/maps/@?api=1&map_action=pano&viewpoint=29.503582,-98.524746",
        "google_maps_url": "https://www.google.com/maps/search/?api=1&query=29.503582,-98.524746",
        "status": "verified",
        "geocode_method": "source",
        "notes": "",
        "community_source": "",
        "community_link_or_notes": ""
      }
    },
    {
      "type": "Feature",
      "geometry": {
        "type": "Point",
        "coordinates": [
          -98.587109,
          29.454599
        ]
      },
      "properties": {
        "sale_id": "2026-08-21_5115-blessing-st-san-antonio-tx-78228",
        "title": "Household",
        "sale_type": "garage",
        "date_start": "2026-08-21",
        "date_end": "2026-08-22",
        "start_time": "8:00 AM - 5:00 PM",
        "end_time": "",
        "address": "5115 Blessing St, San Antonio, TX 78228",
        "city": "San Antonio",
        "state": "TX",
        "zip": "",
        "latitude": 29.454599,
        "longitude": -98.587109,
        "description": "Find all the garage sales, yard sales, and estate sales on a map! Or place a free ad for your upcoming sale on yardsalesearch.com",
        "highlights": [],
        "source_urls": [
          "https://www.yardsalesearch.com/yss-garage-sale.jsp?id=196356027"
        ],
        "original_url": "https://www.yardsalesearch.com/yss-garage-sale.jsp?id=196356027",
        "source_names": [
          "YardSaleSearch"
        ],
        "photos": [
          "https://d82cz7nyq77ak.cloudfront.net/images/social/Facebook.png",
          "https://d82cz7nyq77ak.cloudfront.net/images/social/Pinterest.png",
          "https://d82cz7nyq77ak.cloudfront.net/images/social/Reddit.png",
          "https://d82cz7nyq77ak.cloudfront.net/images/social/Twitter.png",
          "https://d82cz7nyq77ak.cloudfront.net/images/social/Email.png"
        ],
        "confidence": 100,
        "verified_at": "2026-08-22T02:33:05-05:00",
        "street_view_url": "https://www.google.com/maps/@?api=1&map_action=pano&viewpoint=29.454599,-98.587109",
        "google_maps_url": "https://www.google.com/maps/search/?api=1&query=29.454599,-98.587109",
        "status": "verified",
        "geocode_method": "source",
        "notes": "",
        "community_source": "",
        "community_link_or_notes": ""
      }
    },
    {
      "type": "Feature",
      "geometry": {
        "type": "Point",
        "coordinates": [
          -98.299613,
          29.55372
        ]
      },
      "properties": {
        "sale_id": "2026-08-22_121-furlong-dr-universal-city-tx-78148",
        "title": "Garage/Estate Sale",
        "sale_type": "estate",
        "date_start": "2026-08-22",
        "date_end": "2026-08-23",
        "start_time": "9:00 AM - 2:00 PM",
        "end_time": "",
        "address": "121 Furlong Dr, Universal City, TX 78148",
        "city": "San Antonio",
        "state": "TX",
        "zip": "",
        "latitude": 29.55372,
        "longitude": -98.299613,
        "description": "Find all the garage sales, yard sales, and estate sales on a map! Or place a free ad for your upcoming sale on yardsalesearch.com",
        "highlights": [],
        "source_urls": [
          "https://www.yardsalesearch.com/yss-garage-sale.jsp?id=196356197"
        ],
        "original_url": "https://www.yardsalesearch.com/yss-garage-sale.jsp?id=196356197",
        "source_names": [
          "YardSaleSearch"
        ],
        "photos": [
          "https://d82cz7nyq77ak.cloudfront.net/images/social/Facebook.png",
          "https://d82cz7nyq77ak.cloudfront.net/images/social/Pinterest.png",
          "https://d82cz7nyq77ak.cloudfront.net/images/social/Reddit.png",
          "https://d82cz7nyq77ak.cloudfront.net/images/social/Twitter.png",
          "https://d82cz7nyq77ak.cloudfront.net/images/social/Email.png",
          "https://gsf.tlstatic.com/image/w300-c300:250/2026/08/20/s/4/9/21721749/HtC1-0.jpeg"
        ],
        "confidence": 100,
        "verified_at": "2026-08-22T02:33:05-05:00",
        "street_view_url": "https://www.google.com/maps/@?api=1&map_action=pano&viewpoint=29.55372,-98.299613",
        "google_maps_url": "https://www.google.com/maps/search/?api=1&query=29.55372,-98.299613",
        "status": "verified",
        "geocode_method": "source",
        "notes": "",
        "community_source": "",
        "community_link_or_notes": ""
      }
    },
    {
      "type": "Feature",
      "geometry": {
        "type": "Point",
        "coordinates": [
          -98.4554,
          29.4821
        ]
      },
      "properties": {
        "sale_id": "2026-08-22_315-byrnes-dr-near-north-vandiver-san-antonio-tx",
        "title": "Multi Generational Estate/Yard/Garage Sales (San Antonio)",
        "sale_type": "estate",
        "date_start": "2026-08-22",
        "date_end": "2026-08-24",
        "start_time": "",
        "end_time": "",
        "address": "315 Byrnes Dr near North Vandiver, San Antonio, TX",
        "city": "San Antonio",
        "state": "TX",
        "zip": "",
        "latitude": 29.4821,
        "longitude": -98.4554,
        "description": "QR Code Link to This Post Starting Friday August 21st-Saturday August 22nd at 9am we are hosting a huge 4 generational estate/yard/garage sale at 315 Byrnes Dr . We have alot of items for sale new, old , vintage, antique, and unique pieces. There is more than can be put out due to space I will have a \"short list \" posted shortly of a few of the items with prices which are all negotiable and the more you get the better the deal that can be made ! If any questions or inquiries your welcome to text",
        "highlights": [],
        "source_urls": [
          "https://www.craigslist.org/view/d/san-antonio-multi-generational-estate/pk4df6yixsQC8B1CmADwDR"
        ],
        "original_url": "https://www.craigslist.org/view/d/san-antonio-multi-generational-estate/pk4df6yixsQC8B1CmADwDR",
        "source_names": [
          "Craigslist"
        ],
        "photos": [
          "https://images.craigslist.org/00q0q_6J40Fiu0Mk7_0jm0ew_600x450.jpg",
          "https://images.craigslist.org/00q0q_6J40Fiu0Mk7_0jm0ew_50x50c.jpg",
          "https://images.craigslist.org/00E0E_1TzWi6DSiYM_0jG0rs_50x50c.jpg",
          "https://images.craigslist.org/00000_78v7Kikdv6I_0t20CI_50x50c.jpg",
          "https://images.craigslist.org/00q0q_gbYiw9KwPcD_0t20CI_50x50c.jpg",
          "https://images.craigslist.org/00S0S_f5gD2YKHhHW_0CI0t2_50x50c.jpg"
        ],
        "confidence": 96,
        "verified_at": "2026-08-22T02:33:05-05:00",
        "street_view_url": "https://www.google.com/maps/@?api=1&map_action=pano&viewpoint=29.4821,-98.4554",
        "google_maps_url": "https://www.google.com/maps/search/?api=1&query=29.4821,-98.4554",
        "status": "verified",
        "geocode_method": "source",
        "notes": "",
        "community_source": "",
        "community_link_or_notes": ""
      }
    },
    {
      "type": "Feature",
      "geometry": {
        "type": "Point",
        "coordinates": [
          -97.988084,
          29.580842
        ]
      },
      "properties": {
        "sale_id": "2026-08-22_1331-ch-matthies-jr-san-antonio-tx",
        "title": "Craft Fair Vendor Market Handmade Market (Seguin, TX)",
        "sale_type": "garage",
        "date_start": "2026-08-22",
        "date_end": "2026-08-24",
        "start_time": "",
        "end_time": "",
        "address": "1331 CH Matthies JR, San Antonio, TX",
        "city": "San Antonio",
        "state": "TX",
        "zip": "",
        "latitude": 29.580842,
        "longitude": -97.988084,
        "description": "QR Code Link to This Post Come support local at our craft Fair with homemade crafts, honey, jewelry, hats, clothes, handbags and so much more. You will find things here you do not see at every craft fair, local artists, help local businesses. Over 20 Vendors Seguin Elks Lodge 1331 CH Matthies JR, Seguin, TX (Off of 46, behind RBFCU & Cosmic Carwash) August 29th 10am to 3pm this is all indoor and air-conditioned so you don't need to worry about melting in the August Heat.",
        "highlights": [],
        "source_urls": [
          "https://www.craigslist.org/view/d/seguin-craft-fair-vendor-market/k1bY7s7RUgQPtTxZgRDwqo"
        ],
        "original_url": "https://www.craigslist.org/view/d/seguin-craft-fair-vendor-market/k1bY7s7RUgQPtTxZgRDwqo",
        "source_names": [
          "Craigslist"
        ],
        "photos": [
          "https://images.craigslist.org/00Q0Q_cV2mIP7bcs8_0gV0ob_600x450.jpg"
        ],
        "confidence": 96,
        "verified_at": "2026-08-22T02:33:05-05:00",
        "street_view_url": "https://www.google.com/maps/@?api=1&map_action=pano&viewpoint=29.580842,-97.988084",
        "google_maps_url": "https://www.google.com/maps/search/?api=1&query=29.580842,-97.988084",
        "status": "verified",
        "geocode_method": "source",
        "notes": "",
        "community_source": "",
        "community_link_or_notes": ""
      }
    },
    {
      "type": "Feature",
      "geometry": {
        "type": "Point",
        "coordinates": [
          -98.542796,
          29.470939
        ]
      },
      "properties": {
        "sale_id": "2026-08-22_171-rosemont-near-babcock-san-antonio-tx",
        "title": "Garage sale 171 Rosemont",
        "sale_type": "garage",
        "date_start": "2026-08-22",
        "date_end": "2026-08-24",
        "start_time": "",
        "end_time": "",
        "address": "171 Rosemont near Babcock, San Antonio, TX",
        "city": "San Antonio",
        "state": "TX",
        "zip": "",
        "latitude": 29.470939,
        "longitude": -98.542796,
        "description": "QR Code Link to This Post Lots of beautiful items Tons of furniture Everything great prices",
        "highlights": [],
        "source_urls": [
          "https://www.craigslist.org/view/d/san-antonio-garage-sale-171-rosemont/sp7giiRA3XvEYbkoUSQjFR"
        ],
        "original_url": "https://www.craigslist.org/view/d/san-antonio-garage-sale-171-rosemont/sp7giiRA3XvEYbkoUSQjFR",
        "source_names": [
          "Craigslist"
        ],
        "photos": [
          "https://images.craigslist.org/00K0K_5molztiJRLb_0t20CI_600x450.jpg",
          "https://images.craigslist.org/00K0K_5molztiJRLb_0t20CI_50x50c.jpg",
          "https://images.craigslist.org/00z0z_hNF7niLgc3M_0i90jb_50x50c.jpg",
          "https://images.craigslist.org/00Q0Q_dR3etZTM3jB_0t20CI_50x50c.jpg",
          "https://images.craigslist.org/00h0h_fDweYgyPzLd_0t20CI_50x50c.jpg",
          "https://images.craigslist.org/00J0J_gpT4psItTEo_0t20CI_50x50c.jpg"
        ],
        "confidence": 96,
        "verified_at": "2026-08-22T02:33:05-05:00",
        "street_view_url": "https://www.google.com/maps/@?api=1&map_action=pano&viewpoint=29.470939,-98.542796",
        "google_maps_url": "https://www.google.com/maps/search/?api=1&query=29.470939,-98.542796",
        "status": "verified",
        "geocode_method": "source",
        "notes": "",
        "community_source": "",
        "community_link_or_notes": ""
      }
    },
    {
      "type": "Feature",
      "geometry": {
        "type": "Point",
        "coordinates": [
          -98.607194,
          29.491001
        ]
      },
      "properties": {
        "sale_id": "2026-08-22_6101-rue-sophie-st-san-antonio-tx-78238",
        "title": "Garage Sale!   Priced To Sell!!!",
        "sale_type": "garage",
        "date_start": "2026-08-22",
        "date_end": "2026-08-22",
        "start_time": "8:00 AM - 3:00 PM",
        "end_time": "",
        "address": "6101 Rue Sophie St, San Antonio, TX 78238",
        "city": "San Antonio",
        "state": "TX",
        "zip": "",
        "latitude": 29.491001,
        "longitude": -98.607194,
        "description": "Find all the garage sales, yard sales, and estate sales on a map! Or place a free ad for your upcoming sale on yardsalesearch.com",
        "highlights": [],
        "source_urls": [
          "https://www.yardsalesearch.com/yss-garage-sale.jsp?id=196357099"
        ],
        "original_url": "https://www.yardsalesearch.com/yss-garage-sale.jsp?id=196357099",
        "source_names": [
          "YardSaleSearch"
        ],
        "photos": [
          "https://d82cz7nyq77ak.cloudfront.net/images/social/Facebook.png",
          "https://d82cz7nyq77ak.cloudfront.net/images/social/Pinterest.png",
          "https://d82cz7nyq77ak.cloudfront.net/images/social/Reddit.png",
          "https://d82cz7nyq77ak.cloudfront.net/images/social/Twitter.png",
          "https://d82cz7nyq77ak.cloudfront.net/images/social/Email.png",
          "https://gsf.tlstatic.com/image/w300-c300:250/2026/08/21/s/4/9/21722649/X8HxJ-0.jpeg"
        ],
        "confidence": 100,
        "verified_at": "2026-08-22T02:33:05-05:00",
        "street_view_url": "https://www.google.com/maps/@?api=1&map_action=pano&viewpoint=29.491001,-98.607194",
        "google_maps_url": "https://www.google.com/maps/search/?api=1&query=29.491001,-98.607194",
        "status": "verified",
        "geocode_method": "source",
        "notes": "",
        "community_source": "",
        "community_link_or_notes": ""
      }
    },
    {
      "type": "Feature",
      "geometry": {
        "type": "Point",
        "coordinates": [
          -98.67749,
          29.43628
        ]
      },
      "properties": {
        "sale_id": "2026-08-22_9763-emerald-pl-san-antonio-tx-78245",
        "title": "Multi Family Yard Sale Off Potranco",
        "sale_type": "garage",
        "date_start": "2026-08-22",
        "date_end": "2026-08-22",
        "start_time": "8:00 AM - 2:30 PM",
        "end_time": "",
        "address": "9763 Emerald Pl, San Antonio, TX 78245",
        "city": "San Antonio",
        "state": "TX",
        "zip": "",
        "latitude": 29.43628,
        "longitude": -98.67749,
        "description": "Find all the garage sales, yard sales, and estate sales on a map! Or place a free ad for your upcoming sale on yardsalesearch.com",
        "highlights": [],
        "source_urls": [
          "https://www.yardsalesearch.com/yss-garage-sale.jsp?id=196357469"
        ],
        "original_url": "https://www.yardsalesearch.com/yss-garage-sale.jsp?id=196357469",
        "source_names": [
          "YardSaleSearch"
        ],
        "photos": [
          "https://d82cz7nyq77ak.cloudfront.net/images/social/Facebook.png",
          "https://d82cz7nyq77ak.cloudfront.net/images/social/Pinterest.png",
          "https://d82cz7nyq77ak.cloudfront.net/images/social/Reddit.png",
          "https://d82cz7nyq77ak.cloudfront.net/images/social/Twitter.png",
          "https://d82cz7nyq77ak.cloudfront.net/images/social/Email.png"
        ],
        "confidence": 100,
        "verified_at": "2026-08-22T02:33:05-05:00",
        "street_view_url": "https://www.google.com/maps/@?api=1&map_action=pano&viewpoint=29.43628,-98.67749",
        "google_maps_url": "https://www.google.com/maps/search/?api=1&query=29.43628,-98.67749",
        "status": "verified",
        "geocode_method": "source",
        "notes": "",
        "community_source": "",
        "community_link_or_notes": ""
      }
    },
    {
      "type": "Feature",
      "geometry": {
        "type": "Point",
        "coordinates": [
          -98.433022,
          29.579679
        ]
      },
      "properties": {
        "sale_id": "2026-08-22_15242-moonlit-grv-san-antonio-tx-78247",
        "title": "Garage Sale-Multi Family",
        "sale_type": "garage",
        "date_start": "2026-08-22",
        "date_end": "2026-08-22",
        "start_time": "8:00 AM - 5:00 PM",
        "end_time": "",
        "address": "15242 Moonlit Grv, San Antonio, TX 78247",
        "city": "San Antonio",
        "state": "TX",
        "zip": "",
        "latitude": 29.579679,
        "longitude": -98.433022,
        "description": "Find all the garage sales, yard sales, and estate sales on a map! Or place a free ad for your upcoming sale on yardsalesearch.com",
        "highlights": [],
        "source_urls": [
          "https://www.yardsalesearch.com/yss-garage-sale.jsp?id=196356753"
        ],
        "original_url": "https://www.yardsalesearch.com/yss-garage-sale.jsp?id=196356753",
        "source_names": [
          "YardSaleSearch"
        ],
        "photos": [
          "https://d82cz7nyq77ak.cloudfront.net/images/social/Facebook.png",
          "https://d82cz7nyq77ak.cloudfront.net/images/social/Pinterest.png",
          "https://d82cz7nyq77ak.cloudfront.net/images/social/Reddit.png",
          "https://d82cz7nyq77ak.cloudfront.net/images/social/Twitter.png",
          "https://d82cz7nyq77ak.cloudfront.net/images/social/Email.png"
        ],
        "confidence": 100,
        "verified_at": "2026-08-22T02:33:05-05:00",
        "street_view_url": "https://www.google.com/maps/@?api=1&map_action=pano&viewpoint=29.579679,-98.433022",
        "google_maps_url": "https://www.google.com/maps/search/?api=1&query=29.579679,-98.433022",
        "status": "verified",
        "geocode_method": "source",
        "notes": "",
        "community_source": "",
        "community_link_or_notes": ""
      }
    },
    {
      "type": "Feature",
      "geometry": {
        "type": "Point",
        "coordinates": [
          -98.7,
          29.42
        ]
      },
      "properties": {
        "sale_id": "2026-08-22_3443-altius-pass-san-antonio-tx-78245",
        "title": "Big Sale",
        "sale_type": "garage",
        "date_start": "2026-08-22",
        "date_end": "2026-08-23",
        "start_time": "",
        "end_time": "",
        "address": "3443 Altius Pass, San Antonio, TX 78245",
        "city": "San Antonio",
        "state": "TX",
        "zip": "",
        "latitude": 29.42,
        "longitude": -98.7,
        "description": "",
        "highlights": [],
        "source_urls": [
          "https://garagesalefinder.com/s/N9xx0/3443-altius-pass-san-antonio-tx-78245"
        ],
        "original_url": "https://garagesalefinder.com/s/N9xx0/3443-altius-pass-san-antonio-tx-78245",
        "source_names": [
          "GarageSaleFinder"
        ],
        "photos": [],
        "confidence": 88,
        "verified_at": "2026-08-22T02:33:05-05:00",
        "street_view_url": "https://www.google.com/maps/@?api=1&map_action=pano&viewpoint=29.42,-98.7",
        "google_maps_url": "https://www.google.com/maps/search/?api=1&query=29.42,-98.7",
        "status": "verified",
        "geocode_method": "zip-centroid",
        "notes": "",
        "community_source": "",
        "community_link_or_notes": ""
      }
    },
    {
      "type": "Feature",
      "geometry": {
        "type": "Point",
        "coordinates": [
          -98.276071,
          29.555689
        ]
      },
      "properties": {
        "sale_id": "2026-08-21_305-brooks-ave-schertz-tx-78154",
        "title": "Huge Yard Sale",
        "sale_type": "garage",
        "date_start": "2026-08-21",
        "date_end": "2026-08-23",
        "start_time": "",
        "end_time": "",
        "address": "305 Brooks Ave, Schertz, TX 78154",
        "city": "San Antonio",
        "state": "TX",
        "zip": "",
        "latitude": 29.555689,
        "longitude": -98.276071,
        "description": "",
        "highlights": [],
        "source_urls": [
          "https://www.yardsalesearch.com/yss-garage-sale.jsp?id=196357153"
        ],
        "original_url": "https://www.yardsalesearch.com/yss-garage-sale.jsp?id=196357153",
        "source_names": [
          "YardSaleSearch"
        ],
        "photos": [],
        "confidence": 88,
        "verified_at": "2026-08-22T02:33:05-05:00",
        "street_view_url": "https://www.google.com/maps/@?api=1&map_action=pano&viewpoint=29.555689,-98.276071",
        "google_maps_url": "https://www.google.com/maps/search/?api=1&query=29.555689,-98.276071",
        "status": "verified",
        "geocode_method": "source",
        "notes": "",
        "community_source": "",
        "community_link_or_notes": ""
      }
    },
    {
      "type": "Feature",
      "geometry": {
        "type": "Point",
        "coordinates": [
          -98.519519,
          29.611918
        ]
      },
      "properties": {
        "sale_id": "2026-08-22_1711-sandringham-san-antonio-tx",
        "title": "Estate sale!!! 1711 Sandringham San Antonio, TX  78258",
        "sale_type": "estate",
        "date_start": "2026-08-22",
        "date_end": "2026-08-24",
        "start_time": "",
        "end_time": "",
        "address": "1711 Sandringham, San Antonio, TX",
        "city": "San Antonio",
        "state": "TX",
        "zip": "",
        "latitude": 29.611918,
        "longitude": -98.519519,
        "description": "QR Code Link to This Post Everything goes! Furniture, leather chairs, beds, comics, tools, collectibles and more!",
        "highlights": [],
        "source_urls": [
          "https://www.craigslist.org/view/d/san-antonio-estate-sale-1711/jFVb4fbMTnFq1LsxzMPFph"
        ],
        "original_url": "https://www.craigslist.org/view/d/san-antonio-estate-sale-1711/jFVb4fbMTnFq1LsxzMPFph",
        "source_names": [
          "Craigslist"
        ],
        "photos": [],
        "confidence": 92,
        "verified_at": "2026-08-22T02:33:05-05:00",
        "street_view_url": "https://www.google.com/maps/@?api=1&map_action=pano&viewpoint=29.611918,-98.519519",
        "google_maps_url": "https://www.google.com/maps/search/?api=1&query=29.611918,-98.519519",
        "status": "verified",
        "geocode_method": "source",
        "notes": "",
        "community_source": "",
        "community_link_or_notes": ""
      }
    },
    {
      "type": "Feature",
      "geometry": {
        "type": "Point",
        "coordinates": [
          -97.988777,
          29.537576
        ]
      },
      "properties": {
        "sale_id": "2026-08-22_15316-fm-725-near-indian-trail-san-antonio-tx",
        "title": "AUCTION 08/25/26 @ 7pm Tools-Generators-Chainsaws-Coins-Collectibles",
        "sale_type": "estate",
        "date_start": "2026-08-22",
        "date_end": "2026-08-24",
        "start_time": "",
        "end_time": "",
        "address": "15316 FM 725 near Indian Trail, San Antonio, TX",
        "city": "San Antonio",
        "state": "TX",
        "zip": "",
        "latitude": 29.537576,
        "longitude": -97.988777,
        "description": "QR Code Link to This Post Tri-County Auctions and Liquidations Presents An \"On-Line Only\" Auction AUCTION - \"Tuesday Night\" 08/25/26 at 7pm CONTENTS: We Have Lots of Brand Name Tools Like Craftsman, Troy Bilt, Crescent, Olympia, Pittsburg, Larin, Dewalt, Mac, Central Forge, Wilton, Crain, Husky, Teslong, Channel Lock, MQ, Torin, TDE, Delta, Simpson, Stihl, Honda, Stanley, Kobalt, Ridgid, KMA, Dril",
        "highlights": [],
        "source_urls": [
          "https://www.craigslist.org/view/d/seguin-auction-pm-tools-generators/fYfnMcGpiNMz9wy4k16AGp"
        ],
        "original_url": "https://www.craigslist.org/view/d/seguin-auction-pm-tools-generators/fYfnMcGpiNMz9wy4k16AGp",
        "source_names": [
          "Craigslist"
        ],
        "photos": [],
        "confidence": 92,
        "verified_at": "2026-08-22T02:33:05-05:00",
        "street_view_url": "https://www.google.com/maps/@?api=1&map_action=pano&viewpoint=29.537576,-97.988777",
        "google_maps_url": "https://www.google.com/maps/search/?api=1&query=29.537576,-97.988777",
        "status": "verified",
        "geocode_method": "source",
        "notes": "",
        "community_source": "",
        "community_link_or_notes": ""
      }
    },
    {
      "type": "Feature",
      "geometry": {
        "type": "Point",
        "coordinates": [
          -98.3446,
          29.4492
        ]
      },
      "properties": {
        "sale_id": "2026-08-22_4335-ullman-dr-78219-near-e-houston-san-antonio-",
        "title": "Front Yard and Backyard Garage Sell",
        "sale_type": "garage",
        "date_start": "2026-08-22",
        "date_end": "2026-08-24",
        "start_time": "",
        "end_time": "",
        "address": "4335 Ullman dr 78219 near E. Houston, San Antonio, TX",
        "city": "San Antonio",
        "state": "TX",
        "zip": "",
        "latitude": 29.4492,
        "longitude": -98.3446,
        "description": "QR Code Link to This Post Each item has different prices$$$$ Women and men closing shoes tennis shoes house hold items refrigerators bug and small all different Tools. Electric tools, hand tools, skilled trades tools. Work carts. Lawn equipment. Building material doors",
        "highlights": [],
        "source_urls": [
          "https://www.craigslist.org/view/d/san-antonio-front-yard-and-backyard/ic9MiALG7W92gjgjiSPeDZ"
        ],
        "original_url": "https://www.craigslist.org/view/d/san-antonio-front-yard-and-backyard/ic9MiALG7W92gjgjiSPeDZ",
        "source_names": [
          "Craigslist"
        ],
        "photos": [],
        "confidence": 92,
        "verified_at": "2026-08-22T02:33:05-05:00",
        "street_view_url": "https://www.google.com/maps/@?api=1&map_action=pano&viewpoint=29.4492,-98.3446",
        "google_maps_url": "https://www.google.com/maps/search/?api=1&query=29.4492,-98.3446",
        "status": "verified",
        "geocode_method": "source",
        "notes": "",
        "community_source": "",
        "community_link_or_notes": ""
      }
    },
    {
      "type": "Feature",
      "geometry": {
        "type": "Point",
        "coordinates": [
          -98.053009,
          29.65243
        ]
      },
      "properties": {
        "sale_id": "2026-08-22_144-ellen-st-near-center-st-san-antonio-tx",
        "title": "Miller Bobcat and more.",
        "sale_type": "garage",
        "date_start": "2026-08-22",
        "date_end": "2026-08-24",
        "start_time": "",
        "end_time": "",
        "address": "144 Ellen St. near Center St., San Antonio, TX",
        "city": "San Antonio",
        "state": "TX",
        "zip": "",
        "latitude": 29.65243,
        "longitude": -98.053009,
        "description": "QR Code Link to This Post 15' by 30' agriculture cover (tarp) for $80. Brand new and still in the unopened bag. 4 shock absorbing turnbuckles plus turnbuckles, used to tie down a motorcycle on a trailer. $80 8. US &amp; Metric marked socket organizers for $30. Hang on a pegboard or lay in a drawer. Fitted for 1/4\" , 3/8\", 1/2\" drives. Calibrated from 1 1/4\" to 3/16\". Designed to fit standard and d",
        "highlights": [],
        "source_urls": [
          "https://www.craigslist.org/view/d/mc-queeney-miller-bobcat-and-more/4iEjvPgge84jUhgN8uveWV"
        ],
        "original_url": "https://www.craigslist.org/view/d/mc-queeney-miller-bobcat-and-more/4iEjvPgge84jUhgN8uveWV",
        "source_names": [
          "Craigslist"
        ],
        "photos": [],
        "confidence": 92,
        "verified_at": "2026-08-22T02:33:05-05:00",
        "street_view_url": "https://www.google.com/maps/@?api=1&map_action=pano&viewpoint=29.65243,-98.053009",
        "google_maps_url": "https://www.google.com/maps/search/?api=1&query=29.65243,-98.053009",
        "status": "verified",
        "geocode_method": "source",
        "notes": "",
        "community_source": "",
        "community_link_or_notes": ""
      }
    },
    {
      "type": "Feature",
      "geometry": {
        "type": "Point",
        "coordinates": [
          -98.4071,
          29.5855
        ]
      },
      "properties": {
        "sale_id": "2026-08-22_15242-moonlit-grove-san-antonio-tx",
        "title": "Multi Family Garage Sale",
        "sale_type": "garage",
        "date_start": "2026-08-22",
        "date_end": "2026-08-24",
        "start_time": "",
        "end_time": "",
        "address": "15242 Moonlit Grove, San Antonio, TX",
        "city": "San Antonio",
        "state": "TX",
        "zip": "",
        "latitude": 29.5855,
        "longitude": -98.4071,
        "description": "QR Code Link to This Post Multi Family garage sale with jewelry furniture, clothes, shoes, some tools, antiques, sports, animal crates, golf clubs and lots more",
        "highlights": [],
        "source_urls": [
          "https://www.craigslist.org/view/d/san-antonio-multi-family-garage-sale/x9w5LX3fhemJ9TWrBXTg2X"
        ],
        "original_url": "https://www.craigslist.org/view/d/san-antonio-multi-family-garage-sale/x9w5LX3fhemJ9TWrBXTg2X",
        "source_names": [
          "Craigslist"
        ],
        "photos": [],
        "confidence": 92,
        "verified_at": "2026-08-22T02:33:05-05:00",
        "street_view_url": "https://www.google.com/maps/@?api=1&map_action=pano&viewpoint=29.5855,-98.4071",
        "google_maps_url": "https://www.google.com/maps/search/?api=1&query=29.5855,-98.4071",
        "status": "verified",
        "geocode_method": "source",
        "notes": "",
        "community_source": "",
        "community_link_or_notes": ""
      }
    },
    {
      "type": "Feature",
      "geometry": {
        "type": "Point",
        "coordinates": [
          -98.4071,
          29.5855
        ]
      },
      "properties": {
        "sale_id": "2026-08-22_15238-moonlit-grove-san-antonio-tx",
        "title": "Multiple Family Garage Sale",
        "sale_type": "garage",
        "date_start": "2026-08-22",
        "date_end": "2026-08-24",
        "start_time": "",
        "end_time": "",
        "address": "15238 moonlit grove, San Antonio, TX",
        "city": "San Antonio",
        "state": "TX",
        "zip": "",
        "latitude": 29.5855,
        "longitude": -98.4071,
        "description": "QR Code Link to This Post Tons of Stuff. Multiple families... tools, baskets, chairs, table, smoker oven, mirrors, camp cot, kids books, kids and men's clothes, kitchen ware...",
        "highlights": [],
        "source_urls": [
          "https://www.craigslist.org/view/d/san-antonio-multiple-family-garage-sale/wACJ6Y7pAyoCsWxaC3Y2TY"
        ],
        "original_url": "https://www.craigslist.org/view/d/san-antonio-multiple-family-garage-sale/wACJ6Y7pAyoCsWxaC3Y2TY",
        "source_names": [
          "Craigslist"
        ],
        "photos": [],
        "confidence": 92,
        "verified_at": "2026-08-22T02:33:05-05:00",
        "street_view_url": "https://www.google.com/maps/@?api=1&map_action=pano&viewpoint=29.5855,-98.4071",
        "google_maps_url": "https://www.google.com/maps/search/?api=1&query=29.5855,-98.4071",
        "status": "verified",
        "geocode_method": "source",
        "notes": "",
        "community_source": "",
        "community_link_or_notes": ""
      }
    }
  ]
}