{
  "type": "FeatureCollection",
  "properties": {
    "target_date": "2026-08-28",
    "generated_at": "2026-08-28T16:21:31-05:00",
    "count": 31,
    "project": "Chicas-Map"
  },
  "features": [
    {
      "type": "Feature",
      "geometry": {
        "type": "Point",
        "coordinates": [
          -98.427915,
          29.580824
        ]
      },
      "properties": {
        "sale_id": "2026-08-28_3537-green-spring-drive-san-antonio-tx",
        "title": "Estate sale/moving sale -antiques too (Green spring Valley)",
        "sale_type": "estate",
        "date_start": "2026-08-28",
        "date_end": "2026-08-30",
        "start_time": "9:00 AM- 4:00 PM",
        "end_time": "",
        "address": "3537 Green Spring Drive, San Antonio, TX",
        "city": "San Antonio",
        "state": "TX",
        "zip": "",
        "latitude": 29.580824,
        "longitude": -98.427915,
        "description": "QR Code Link to This Post Selling only at dates 29,30th of August at estate sale from 7 am-3pm. Sorry too busy to reply to emails. Seeking to sale furniture in home. CASH ONLY. I have a TV, two area rugs, two couches ( one vintage) , three vintage armchairs , massage table, hutch, dresser, coffee table All must go! As well as some home apppliances, mirrors, sports equipment, e-bike (just needs minor work), lamps….Only adults, children will not be allowed in home. My house is not being put up for",
        "highlights": [],
        "source_urls": [
          "https://www.craigslist.org/view/d/san-antonio-estate-sale-moving-sale/iyLKr45DRf81Ty7rAjR8d2"
        ],
        "original_url": "https://www.craigslist.org/view/d/san-antonio-estate-sale-moving-sale/iyLKr45DRf81Ty7rAjR8d2",
        "source_names": [
          "Craigslist"
        ],
        "photos": [
          "https://images.craigslist.org/00O0O_h7ljnddzsjW_0t20CI_600x450.jpg",
          "https://images.craigslist.org/00O0O_h7ljnddzsjW_0t20CI_50x50c.jpg",
          "https://images.craigslist.org/00f0f_dA6WXF92xSH_0t20CI_50x50c.jpg",
          "https://images.craigslist.org/00P0P_2ad87O90FYn_0t20CI_50x50c.jpg",
          "https://images.craigslist.org/00D0D_1zT6L5DT2Rh_0t20CI_50x50c.jpg",
          "https://images.craigslist.org/00n0n_kYRbKdLmZ3f_0t20CI_50x50c.jpg"
        ],
        "confidence": 100,
        "verified_at": "2026-08-28T16:20:39-05:00",
        "street_view_url": "https://www.google.com/maps/@?api=1&map_action=pano&viewpoint=29.580824,-98.427915",
        "google_maps_url": "https://www.google.com/maps/search/?api=1&query=29.580824,-98.427915",
        "status": "verified",
        "geocode_method": "source",
        "notes": "",
        "community_source": "",
        "community_link_or_notes": ""
      }
    },
    {
      "type": "Feature",
      "geometry": {
        "type": "Point",
        "coordinates": [
          -98.5421089,
          29.4840857
        ]
      },
      "properties": {
        "sale_id": "2026-08-27_hidden-san-antonio-tx-78201",
        "title": "MASSIVE 4-DAY WAREHOUSE ESTATE SALE 30% MARKDOWNS START TODAY!",
        "sale_type": "estate",
        "date_start": "2026-08-27",
        "date_end": "2026-08-30",
        "start_time": "10:00AM - 3:00PM",
        "end_time": "",
        "address": "hidden, San Antonio, TX 78201",
        "city": "San Antonio",
        "state": "TX",
        "zip": "",
        "latitude": 29.4840857,
        "longitude": -98.5421089,
        "description": "Caring Transitions of San Antonio Central. Caring Transitions of San Antonio Central is opening the doors to a massive 6,000–7,000 square-foot warehouse for FOUR DAYS ONLY! This isn't your typical estate sale. We're talking about thousands of items filling an entire warehouse — furniture, off...",
        "highlights": [],
        "source_urls": [
          "https://estatesales.org/estate-sales/tx/san-antonio/78201/massive-4day-warehouse-estate-sale-2457373"
        ],
        "original_url": "https://estatesales.org/estate-sales/tx/san-antonio/78201/massive-4day-warehouse-estate-sale-2457373",
        "source_names": [
          "EstateSales.org"
        ],
        "photos": [
          "https://estatesales.org/2036244653/css/images/nophoto_company_400x400.png",
          "https://estatesales.org/2036244653/css/images/social/facebook.png",
          "https://eso-cdn.tlcdn.workers.dev/s-2457373-xmuicah8zjpyq309-t.webp",
          "https://eso-cdn.tlcdn.workers.dev/s-2457373-9c5hkw9525r635jb-t.webp",
          "https://eso-cdn.tlcdn.workers.dev/s-2457373-dpga4aohw1lgvvy3-t.webp",
          "https://eso-cdn.tlcdn.workers.dev/s-2457373-ky3ek2dkwm054hon-t.webp"
        ],
        "confidence": 100,
        "verified_at": "2026-08-28T16:20:39-05:00",
        "street_view_url": "https://www.google.com/maps/@?api=1&map_action=pano&viewpoint=29.4840857,-98.5421089",
        "google_maps_url": "https://www.google.com/maps/search/?api=1&query=29.4840857,-98.5421089",
        "status": "verified",
        "geocode_method": "source",
        "notes": "",
        "community_source": "",
        "community_link_or_notes": ""
      }
    },
    {
      "type": "Feature",
      "geometry": {
        "type": "Point",
        "coordinates": [
          -98.6094,
          29.556
        ]
      },
      "properties": {
        "sale_id": "2026-08-28_6151-nw-loop-410-san-antonio-tx",
        "title": "Alamo Craft Co. Antiques & More (San Antonio)",
        "sale_type": "garage",
        "date_start": "2026-08-28",
        "date_end": "2026-08-30",
        "start_time": "",
        "end_time": "",
        "address": "6151 NW Loop 410, San Antonio, TX",
        "city": "San Antonio",
        "state": "TX",
        "zip": "",
        "latitude": 29.556,
        "longitude": -98.6094,
        "description": "QR Code Link to This Post OPEN TUES - SAT 10AM-6PM 6151 NW Loop 410, #302 SATX 78238 A hidden gem in San Antonio! Here you'll find unique antiques, vintage items, collectibles, hand-crafted items &amp; so much more. Come by &amp; see all the fun stuff! Ask for your frequent buyer card &amp; get punches with every purchase.",
        "highlights": [],
        "source_urls": [
          "https://www.craigslist.org/view/d/san-antonio-alamo-craft-co-antiques-more/mj6FcRd4ZDr7zwAwc4pwWa"
        ],
        "original_url": "https://www.craigslist.org/view/d/san-antonio-alamo-craft-co-antiques-more/mj6FcRd4ZDr7zwAwc4pwWa",
        "source_names": [
          "Craigslist"
        ],
        "photos": [
          "https://images.craigslist.org/01515_1Xh2ogBe0sZ_0CI0pq_600x450.jpg"
        ],
        "confidence": 96,
        "verified_at": "2026-08-28T16:20:39-05:00",
        "street_view_url": "https://www.google.com/maps/@?api=1&map_action=pano&viewpoint=29.556,-98.6094",
        "google_maps_url": "https://www.google.com/maps/search/?api=1&query=29.556,-98.6094",
        "status": "verified",
        "geocode_method": "source",
        "notes": "",
        "community_source": "",
        "community_link_or_notes": ""
      }
    },
    {
      "type": "Feature",
      "geometry": {
        "type": "Point",
        "coordinates": [
          -97.988084,
          29.580842
        ]
      },
      "properties": {
        "sale_id": "2026-08-28_1331-ch-matthies-jr-san-antonio-tx",
        "title": "Craft Fair Vendor Market Handmade Market (Seguin, TX)",
        "sale_type": "garage",
        "date_start": "2026-08-28",
        "date_end": "2026-08-30",
        "start_time": "",
        "end_time": "",
        "address": "1331 CH Matthies JR, San Antonio, TX",
        "city": "San Antonio",
        "state": "TX",
        "zip": "",
        "latitude": 29.580842,
        "longitude": -97.988084,
        "description": "QR Code Link to This Post Come support local at our craft Fair with homemade crafts, honey, jewelry, hats, clothes, handbags and so much more. You will find things here you do not see at every craft fair, local artists, help local businesses. Over 20 Vendors Seguin Elks Lodge 1331 CH Matthies JR, Seguin, TX (Off of 46, behind RBFCU & Cosmic Carwash) August 29th 10am to 3pm this is all indoor and air-conditioned so you don't need to worry about melting in the August Heat.",
        "highlights": [],
        "source_urls": [
          "https://www.craigslist.org/view/d/seguin-craft-fair-vendor-market/k1bY7s7RUgQPtTxZgRDwqo"
        ],
        "original_url": "https://www.craigslist.org/view/d/seguin-craft-fair-vendor-market/k1bY7s7RUgQPtTxZgRDwqo",
        "source_names": [
          "Craigslist"
        ],
        "photos": [
          "https://images.craigslist.org/00Q0Q_cV2mIP7bcs8_0gV0ob_600x450.jpg"
        ],
        "confidence": 96,
        "verified_at": "2026-08-28T16:20:39-05:00",
        "street_view_url": "https://www.google.com/maps/@?api=1&map_action=pano&viewpoint=29.580842,-97.988084",
        "google_maps_url": "https://www.google.com/maps/search/?api=1&query=29.580842,-97.988084",
        "status": "verified",
        "geocode_method": "source",
        "notes": "",
        "community_source": "",
        "community_link_or_notes": ""
      }
    },
    {
      "type": "Feature",
      "geometry": {
        "type": "Point",
        "coordinates": [
          -98.7319703,
          29.7946641
        ]
      },
      "properties": {
        "sale_id": "2026-08-22_boerne-tx-78006",
        "title": "Design Warehouse Liquidation in Boerne, TX. Bidding ends 8/31",
        "sale_type": "estate",
        "date_start": "2026-08-22",
        "date_end": "2026-08-31",
        "start_time": "",
        "end_time": "",
        "address": "Boerne, TX 78006",
        "city": "San Antonio",
        "state": "TX",
        "zip": "",
        "latitude": 29.7946641,
        "longitude": -98.7319703,
        "description": "Caring Transitions of Boerne, Fredericksburg, and Kerrville. Welcome Home to CTBids! We put together an excellent selection of items for you! Start exploring and discover the deals for yourself! Bidding on ALL items starts at $1! Explore a unique Boerne interior design firm warehouse liquidation sale offe...",
        "highlights": [],
        "source_urls": [
          "https://estatesales.org/estate-sales/tx/boerne/78006/design-warehouse-liquidation-in-boerne-2458946"
        ],
        "original_url": "https://estatesales.org/estate-sales/tx/boerne/78006/design-warehouse-liquidation-in-boerne-2458946",
        "source_names": [
          "EstateSales.org"
        ],
        "photos": [
          "https://estatesales.org/uploads/2024/02/04/m/7/5/2392475/4PGu6-1.jpeg",
          "https://estatesales.org/2036244653/css/images/social/facebook.png",
          "https://eso-cdn.tlcdn.workers.dev/s-2458946-1zgzxqhxr2ceprrb-t.webp",
          "https://eso-cdn.tlcdn.workers.dev/s-2458946-6p0pvt8z4u9kaiak-t.webp",
          "https://eso-cdn.tlcdn.workers.dev/s-2458946-68s3mzh4syoq1xyt-t.webp",
          "https://eso-cdn.tlcdn.workers.dev/s-2458946-u5whbmawbcui3yio-t.webp"
        ],
        "confidence": 96,
        "verified_at": "2026-08-28T16:20:39-05:00",
        "street_view_url": "https://www.google.com/maps/@?api=1&map_action=pano&viewpoint=29.7946641,-98.7319703",
        "google_maps_url": "https://www.google.com/maps/search/?api=1&query=29.7946641,-98.7319703",
        "status": "verified",
        "geocode_method": "source",
        "notes": "",
        "community_source": "",
        "community_link_or_notes": ""
      }
    },
    {
      "type": "Feature",
      "geometry": {
        "type": "Point",
        "coordinates": [
          -98.053009,
          29.65243
        ]
      },
      "properties": {
        "sale_id": "2026-08-28_144-ellen-st-near-center-st-san-antonio-tx",
        "title": "Miller Bobcat and more. (New Braunfels)",
        "sale_type": "garage",
        "date_start": "2026-08-28",
        "date_end": "2026-08-30",
        "start_time": "",
        "end_time": "",
        "address": "144 Ellen St. near Center St., San Antonio, TX",
        "city": "San Antonio",
        "state": "TX",
        "zip": "",
        "latitude": 29.65243,
        "longitude": -98.053009,
        "description": "QR Code Link to This Post Must sale! 15' by 30' agriculture cover (tarp) for $80. Brand new and still in the unopened bag. 4 shock absorbing turnbuckles plus turnbuckles, used to tie down a motorcycle on a trailer. $80 8. US & Metric marked socket organizers for $30. Hang on a pegboard or lay in a drawer. Fitted for 1/4\" , 3/8\", 1/2\" drives. Calibrated from 1 1/4\" to 3/16\". Designed to fit standard and deep sockets. $30 A fully equipped oxy- acetylene cutting system for $800. Includes hand truck",
        "highlights": [],
        "source_urls": [
          "https://www.craigslist.org/view/d/mc-queeney-miller-bobcat-and-more/4iEjvPgge84jUhgN8uveWV"
        ],
        "original_url": "https://www.craigslist.org/view/d/mc-queeney-miller-bobcat-and-more/4iEjvPgge84jUhgN8uveWV",
        "source_names": [
          "Craigslist"
        ],
        "photos": [
          "https://images.craigslist.org/00L0L_8dtjTklYatA_0CI0t2_600x450.jpg",
          "https://images.craigslist.org/00L0L_8dtjTklYatA_0CI0t2_50x50c.jpg",
          "https://images.craigslist.org/00D0D_2ccqJOpcs4D_0t20CI_50x50c.jpg",
          "https://images.craigslist.org/00p0p_a2HvuIcZOsr_0CI0t2_50x50c.jpg",
          "https://images.craigslist.org/00k0k_AfYyJ28Lfj_0t20CI_50x50c.jpg",
          "https://images.craigslist.org/00j0j_cQU5I8pAwHc_0t20CI_50x50c.jpg"
        ],
        "confidence": 96,
        "verified_at": "2026-08-28T16:20:39-05:00",
        "street_view_url": "https://www.google.com/maps/@?api=1&map_action=pano&viewpoint=29.65243,-98.053009",
        "google_maps_url": "https://www.google.com/maps/search/?api=1&query=29.65243,-98.053009",
        "status": "verified",
        "geocode_method": "source",
        "notes": "",
        "community_source": "",
        "community_link_or_notes": ""
      }
    },
    {
      "type": "Feature",
      "geometry": {
        "type": "Point",
        "coordinates": [
          -98.54203,
          29.48422
        ]
      },
      "properties": {
        "sale_id": "2026-08-27_san-antonio-tx-78201",
        "title": "Massive 4-Day Warehouse Estate Sale 30% Markdowns Start Today!",
        "sale_type": "estate",
        "date_start": "2026-08-27",
        "date_end": "2026-08-30",
        "start_time": "10:00 AM - 3:00 PM",
        "end_time": "",
        "address": "San Antonio, TX 78201",
        "city": "San Antonio",
        "state": "TX",
        "zip": "",
        "latitude": 29.48422,
        "longitude": -98.54203,
        "description": "Find all the garage sales, yard sales, and estate sales on a map! Or place a free ad for your upcoming sale on yardsalesearch.com",
        "highlights": [],
        "source_urls": [
          "https://www.yardsalesearch.com/yss-garage-sale.jsp?id=196350877"
        ],
        "original_url": "https://www.yardsalesearch.com/yss-garage-sale.jsp?id=196350877",
        "source_names": [
          "YardSaleSearch"
        ],
        "photos": [
          "https://d82cz7nyq77ak.cloudfront.net/images/social/Facebook.png",
          "https://d82cz7nyq77ak.cloudfront.net/images/social/Pinterest.png",
          "https://d82cz7nyq77ak.cloudfront.net/images/social/Reddit.png",
          "https://d82cz7nyq77ak.cloudfront.net/images/social/Twitter.png",
          "https://d82cz7nyq77ak.cloudfront.net/images/social/Email.png",
          "https://eso-cdn.tlcdn.workers.dev/s-2457373-xmuicah8zjpyq309-t.webp"
        ],
        "confidence": 100,
        "verified_at": "2026-08-28T16:20:39-05:00",
        "street_view_url": "https://www.google.com/maps/@?api=1&map_action=pano&viewpoint=29.48422,-98.54203",
        "google_maps_url": "https://www.google.com/maps/search/?api=1&query=29.48422,-98.54203",
        "status": "verified",
        "geocode_method": "source",
        "notes": "",
        "community_source": "",
        "community_link_or_notes": ""
      }
    },
    {
      "type": "Feature",
      "geometry": {
        "type": "Point",
        "coordinates": [
          -98.76704444,
          29.37000548
        ]
      },
      "properties": {
        "sale_id": "2026-08-28_6226-fallow-cv-san-antonio-tx-78252",
        "title": "Huge Sale Of Various Items",
        "sale_type": "garage",
        "date_start": "2026-08-28",
        "date_end": "2026-08-30",
        "start_time": "3:00 PM - 8:00 PM",
        "end_time": "",
        "address": "6226 Fallow Cv, San Antonio, TX 78252",
        "city": "San Antonio",
        "state": "TX",
        "zip": "",
        "latitude": 29.37000548,
        "longitude": -98.76704444,
        "description": "Find all the garage sales, yard sales, and estate sales on a map! Or place a free ad for your upcoming sale on yardsalesearch.com",
        "highlights": [],
        "source_urls": [
          "https://www.yardsalesearch.com/yss-garage-sale.jsp?id=196359837"
        ],
        "original_url": "https://www.yardsalesearch.com/yss-garage-sale.jsp?id=196359837",
        "source_names": [
          "YardSaleSearch"
        ],
        "photos": [
          "https://d82cz7nyq77ak.cloudfront.net/images/social/Facebook.png",
          "https://d82cz7nyq77ak.cloudfront.net/images/social/Pinterest.png",
          "https://d82cz7nyq77ak.cloudfront.net/images/social/Reddit.png",
          "https://d82cz7nyq77ak.cloudfront.net/images/social/Twitter.png",
          "https://d82cz7nyq77ak.cloudfront.net/images/social/Email.png"
        ],
        "confidence": 100,
        "verified_at": "2026-08-28T16:20:39-05:00",
        "street_view_url": "https://www.google.com/maps/@?api=1&map_action=pano&viewpoint=29.37000548,-98.76704444",
        "google_maps_url": "https://www.google.com/maps/search/?api=1&query=29.37000548,-98.76704444",
        "status": "verified",
        "geocode_method": "source",
        "notes": "",
        "community_source": "",
        "community_link_or_notes": ""
      }
    },
    {
      "type": "Feature",
      "geometry": {
        "type": "Point",
        "coordinates": [
          -98.5103,
          29.3535
        ]
      },
      "properties": {
        "sale_id": "2026-08-26_431-sharmain-pl-san-antonio-tx",
        "title": "Parrot garage sale (San Antonio)",
        "sale_type": "garage",
        "date_start": "2026-08-26",
        "date_end": "2026-08-28",
        "start_time": "",
        "end_time": "",
        "address": "431 sharmain pl, San Antonio, TX",
        "city": "San Antonio",
        "state": "TX",
        "zip": "",
        "latitude": 29.3535,
        "longitude": -98.5103,
        "description": "QR Code Link to This Post First to ask about the Mexicans get a half price on the second Mexican they buy, if they buy both it would be 600 full price is 800 show contact info",
        "highlights": [],
        "source_urls": [
          "https://www.craigslist.org/view/d/san-antonio-parrot-garage-sale/6ikkLo1TFjenJKfT9Xhdtw"
        ],
        "original_url": "https://www.craigslist.org/view/d/san-antonio-parrot-garage-sale/6ikkLo1TFjenJKfT9Xhdtw",
        "source_names": [
          "Craigslist"
        ],
        "photos": [
          "https://images.craigslist.org/00P0P_61Ay6VwXjwa_0CI0t2_600x450.jpg",
          "https://images.craigslist.org/00P0P_61Ay6VwXjwa_0CI0t2_50x50c.jpg",
          "https://images.craigslist.org/00g0g_70J5kLYd8Vv_0t20CI_50x50c.jpg",
          "https://images.craigslist.org/00B0B_ltZS7LXbcyz_0t20CI_50x50c.jpg",
          "https://images.craigslist.org/01717_hSeGH36Kqea_0CI0t2_50x50c.jpg",
          "https://images.craigslist.org/00m0m_9cdqEvqE58j_0t20CI_50x50c.jpg"
        ],
        "confidence": 96,
        "verified_at": "2026-08-28T16:20:39-05:00",
        "street_view_url": "https://www.google.com/maps/@?api=1&map_action=pano&viewpoint=29.3535,-98.5103",
        "google_maps_url": "https://www.google.com/maps/search/?api=1&query=29.3535,-98.5103",
        "status": "verified",
        "geocode_method": "source",
        "notes": "",
        "community_source": "",
        "community_link_or_notes": ""
      }
    },
    {
      "type": "Feature",
      "geometry": {
        "type": "Point",
        "coordinates": [
          -98.5421089,
          29.4840857
        ]
      },
      "properties": {
        "sale_id": "2026-08-27_314-spencer-ln-san-antonio-tx-78201",
        "title": "Massive 4-Day Warehouse Estate Sale 30% Markdowns Start Today!",
        "sale_type": "estate",
        "date_start": "2026-08-27",
        "date_end": "2026-08-30",
        "start_time": "10:00 AM - 3:00 PM",
        "end_time": "",
        "address": "314 Spencer Ln, San Antonio, TX 78201",
        "city": "San Antonio",
        "state": "TX",
        "zip": "",
        "latitude": 29.4840857,
        "longitude": -98.5421089,
        "description": "Find all the garage sales, yard sales, and estate sales on a map! Or place a free ad for your upcoming sale on yardsalesearch.com",
        "highlights": [],
        "source_urls": [
          "https://www.yardsalesearch.com/yss-garage-sale.jsp?id=196350877"
        ],
        "original_url": "https://www.yardsalesearch.com/yss-garage-sale.jsp?id=196350877",
        "source_names": [
          "YardSaleSearch"
        ],
        "photos": [
          "https://d82cz7nyq77ak.cloudfront.net/images/social/Facebook.png",
          "https://d82cz7nyq77ak.cloudfront.net/images/social/Pinterest.png",
          "https://d82cz7nyq77ak.cloudfront.net/images/social/Reddit.png",
          "https://d82cz7nyq77ak.cloudfront.net/images/social/Twitter.png",
          "https://d82cz7nyq77ak.cloudfront.net/images/social/Email.png",
          "https://eso-cdn.tlcdn.workers.dev/s-2457373-xmuicah8zjpyq309-t.webp"
        ],
        "confidence": 100,
        "verified_at": "2026-08-28T16:20:39-05:00",
        "street_view_url": "https://www.google.com/maps/@?api=1&map_action=pano&viewpoint=29.4840857,-98.5421089",
        "google_maps_url": "https://www.google.com/maps/search/?api=1&query=29.4840857,-98.5421089",
        "status": "verified",
        "geocode_method": "source",
        "notes": "",
        "community_source": "",
        "community_link_or_notes": ""
      }
    },
    {
      "type": "Feature",
      "geometry": {
        "type": "Point",
        "coordinates": [
          -98.55219,
          29.47768
        ]
      },
      "properties": {
        "sale_id": "2026-08-28_san-antonio-tx-78228",
        "title": "A Lifetime Of Treasures In Nw Sunshine Estates",
        "sale_type": "estate",
        "date_start": "2026-08-28",
        "date_end": "2026-08-30",
        "start_time": "9:00 AM - 4:00 PM",
        "end_time": "",
        "address": "San Antonio, TX 78228",
        "city": "San Antonio",
        "state": "TX",
        "zip": "",
        "latitude": 29.47768,
        "longitude": -98.55219,
        "description": "Find all the garage sales, yard sales, and estate sales on a map! Or place a free ad for your upcoming sale on yardsalesearch.com",
        "highlights": [],
        "source_urls": [
          "https://www.yardsalesearch.com/yss-garage-sale.jsp?id=196361705"
        ],
        "original_url": "https://www.yardsalesearch.com/yss-garage-sale.jsp?id=196361705",
        "source_names": [
          "YardSaleSearch"
        ],
        "photos": [
          "https://d82cz7nyq77ak.cloudfront.net/images/social/Facebook.png",
          "https://d82cz7nyq77ak.cloudfront.net/images/social/Pinterest.png",
          "https://d82cz7nyq77ak.cloudfront.net/images/social/Reddit.png",
          "https://d82cz7nyq77ak.cloudfront.net/images/social/Twitter.png",
          "https://d82cz7nyq77ak.cloudfront.net/images/social/Email.png",
          "https://eso-cdn.tlcdn.workers.dev/s-2459269-pmibp8up6oimb8yj-t.webp"
        ],
        "confidence": 100,
        "verified_at": "2026-08-28T16:20:39-05:00",
        "street_view_url": "https://www.google.com/maps/@?api=1&map_action=pano&viewpoint=29.47768,-98.55219",
        "google_maps_url": "https://www.google.com/maps/search/?api=1&query=29.47768,-98.55219",
        "status": "verified",
        "geocode_method": "source",
        "notes": "",
        "community_source": "",
        "community_link_or_notes": ""
      }
    },
    {
      "type": "Feature",
      "geometry": {
        "type": "Point",
        "coordinates": [
          -98.5529864,
          29.4770323
        ]
      },
      "properties": {
        "sale_id": "2026-08-28_hidden-san-antonio-tx-78228",
        "title": "A Lifetime of Treasures in NW Sunshine Estates",
        "sale_type": "estate",
        "date_start": "2026-08-28",
        "date_end": "2026-08-30",
        "start_time": "9:00AM - 4:00PM",
        "end_time": "",
        "address": "hidden, San Antonio, TX 78228",
        "city": "San Antonio",
        "state": "TX",
        "zip": "",
        "latitude": 29.4770323,
        "longitude": -98.5529864,
        "description": "Mom & Dad's lifetime of treasures. The old-fashioned way - everything cherished and well taken care of. A wonderful, eclectic variety! Vintage cookware, serving ware, crystal & glass , copper & brass, porcelain & china, collectible and decorative ite...",
        "highlights": [],
        "source_urls": [
          "https://estatesales.org/estate-sales/tx/san-antonio/78228/a-lifetime-of-treasures-in-2459269"
        ],
        "original_url": "https://estatesales.org/estate-sales/tx/san-antonio/78228/a-lifetime-of-treasures-in-2459269",
        "source_names": [
          "EstateSales.org"
        ],
        "photos": [
          "https://estatesales.org/uploads/2026/08/24/m/1/5/2823315/4AMuh-1.jpeg",
          "https://estatesales.org/2036244653/css/images/social/facebook.png",
          "https://eso-cdn.tlcdn.workers.dev/s-2459269-pmibp8up6oimb8yj-t.webp",
          "https://eso-cdn.tlcdn.workers.dev/s-2459269-72levvgm8y0j612o-t.webp",
          "https://eso-cdn.tlcdn.workers.dev/s-2459269-n99novj5np257cg2-t.webp",
          "https://eso-cdn.tlcdn.workers.dev/s-2459269-clb4zkfsqu2ayr2g-t.webp"
        ],
        "confidence": 100,
        "verified_at": "2026-08-28T16:20:39-05:00",
        "street_view_url": "https://www.google.com/maps/@?api=1&map_action=pano&viewpoint=29.4770323,-98.5529864",
        "google_maps_url": "https://www.google.com/maps/search/?api=1&query=29.4770323,-98.5529864",
        "status": "verified",
        "geocode_method": "source",
        "notes": "",
        "community_source": "",
        "community_link_or_notes": ""
      }
    },
    {
      "type": "Feature",
      "geometry": {
        "type": "Point",
        "coordinates": [
          -98.3486,
          29.4688
        ]
      },
      "properties": {
        "sale_id": "2026-08-28_5006-pine-lake-drive-near-woodlake-parkway-san-a",
        "title": "Big Yard Sale #9 1/2 RAIN DELAY!! (San Antonio)",
        "sale_type": "garage",
        "date_start": "2026-08-28",
        "date_end": "2026-08-30",
        "start_time": "",
        "end_time": "",
        "address": "5006 Pine Lake Drive near Woodlake Parkway, San Antonio, TX",
        "city": "San Antonio",
        "state": "TX",
        "zip": "",
        "latitude": 29.4688,
        "longitude": -98.3486,
        "description": "QR Code Link to This Post RAIN DELAY!! RAIN DELAY!! WE ARE OPEN SATURDAY AND SUNDAY ONLY DUE TO RAINSYORMS IN AREA!! Tools, Ladders, Garden Gear, Antique Clocks, Antique Dulcimer, Antique and Unique Furnishings, Motorcycle Gear, Costumes for Adults & Dogs, Terra Cotta pots, Brand New Building Materials, Roller Skates, Unicycle, Decor Items, Kitchen Gear, Fine China sets, Collectibles and more! **WILL UPDATE PHOTOS AS WE PULL STUFF OUT FOR THE SALE** Please no early birds! 10am to 3pm Cash only S",
        "highlights": [],
        "source_urls": [
          "https://www.craigslist.org/view/d/san-antonio-big-yard-sale-rain-delay/aWvs3P7pSFay4vunqyFvbB"
        ],
        "original_url": "https://www.craigslist.org/view/d/san-antonio-big-yard-sale-rain-delay/aWvs3P7pSFay4vunqyFvbB",
        "source_names": [
          "Craigslist"
        ],
        "photos": [
          "https://images.craigslist.org/00L0L_hPrvrILy1q_0t20CI_600x450.jpg",
          "https://images.craigslist.org/00L0L_hPrvrILy1q_0t20CI_50x50c.jpg",
          "https://images.craigslist.org/00202_6NY31pvJxgS_0t20CI_50x50c.jpg",
          "https://images.craigslist.org/00202_2yW1sR75NE7_0t20CI_50x50c.jpg",
          "https://images.craigslist.org/01212_9FORk7AJ6Do_0t20CI_50x50c.jpg",
          "https://images.craigslist.org/00L0L_9ulmzVYFhk6_0CI0t2_50x50c.jpg"
        ],
        "confidence": 96,
        "verified_at": "2026-08-28T16:20:39-05:00",
        "street_view_url": "https://www.google.com/maps/@?api=1&map_action=pano&viewpoint=29.4688,-98.3486",
        "google_maps_url": "https://www.google.com/maps/search/?api=1&query=29.4688,-98.3486",
        "status": "verified",
        "geocode_method": "source",
        "notes": "",
        "community_source": "",
        "community_link_or_notes": ""
      }
    },
    {
      "type": "Feature",
      "geometry": {
        "type": "Point",
        "coordinates": [
          -98.506036,
          29.6021
        ]
      },
      "properties": {
        "sale_id": "2026-08-28_111-country-club-ln-san-antonio-tx",
        "title": "Yard Sale w/ Vintage, Kids Items & MORE (San Antonio)",
        "sale_type": "garage",
        "date_start": "2026-08-28",
        "date_end": "2026-08-30",
        "start_time": "",
        "end_time": "",
        "address": "111 Country Club Ln, San Antonio, TX",
        "city": "San Antonio",
        "state": "TX",
        "zip": "",
        "latitude": 29.6021,
        "longitude": -98.506036,
        "description": "QR Code Link to This Post We’re having a garage sale this Saturday! 🛍️ There will be a little bit of everything: furniture, vintage finds, kids’ toys, puzzles, kitchen items, sports equipment, home decor and more! If you’re in the area, come by and say hi, browse around, and hopefully find a few treasures. 😊 📍 111 Country Club Ln, San Antonio, TX 78232 📅 Saturday, August 29th ⏰ 8 AM - 2 PM Here are a few of the items we will be selling. Feel free to share with anyone who loves a good garage sale",
        "highlights": [],
        "source_urls": [
          "https://www.craigslist.org/view/d/san-antonio-yard-sale-vintage-kids/hCMUnAYCEH5hJBseHcHtrV"
        ],
        "original_url": "https://www.craigslist.org/view/d/san-antonio-yard-sale-vintage-kids/hCMUnAYCEH5hJBseHcHtrV",
        "source_names": [
          "Craigslist"
        ],
        "photos": [
          "https://images.craigslist.org/00r0r_3RSnXFDdpjQ_0t20CI_600x450.jpg",
          "https://images.craigslist.org/00r0r_3RSnXFDdpjQ_0t20CI_50x50c.jpg",
          "https://images.craigslist.org/00808_5H5oWQRtFy7_0mr0t2_50x50c.jpg",
          "https://images.craigslist.org/00I0I_fKEnjy2JQvH_0t20CI_50x50c.jpg",
          "https://images.craigslist.org/01717_2aJlHkLWvJm_0t20CI_50x50c.jpg",
          "https://images.craigslist.org/00000_gazHp5VjCKb_0t20CI_50x50c.jpg"
        ],
        "confidence": 96,
        "verified_at": "2026-08-28T16:20:39-05:00",
        "street_view_url": "https://www.google.com/maps/@?api=1&map_action=pano&viewpoint=29.6021,-98.506036",
        "google_maps_url": "https://www.google.com/maps/search/?api=1&query=29.6021,-98.506036",
        "status": "verified",
        "geocode_method": "source",
        "notes": "",
        "community_source": "",
        "community_link_or_notes": ""
      }
    },
    {
      "type": "Feature",
      "geometry": {
        "type": "Point",
        "coordinates": [
          -98.672008,
          29.425239
        ]
      },
      "properties": {
        "sale_id": "2026-08-28_1006-hickory-trl-san-antonio-tx-78245",
        "title": "$1 Items",
        "sale_type": "garage",
        "date_start": "2026-08-28",
        "date_end": "2026-08-28",
        "start_time": "8:00 AM - 2:00 PM",
        "end_time": "",
        "address": "1006 Hickory Trl, San Antonio, TX 78245",
        "city": "San Antonio",
        "state": "TX",
        "zip": "",
        "latitude": 29.425239,
        "longitude": -98.672008,
        "description": "Find all the garage sales, yard sales, and estate sales on a map! Or place a free ad for your upcoming sale on yardsalesearch.com",
        "highlights": [],
        "source_urls": [
          "https://www.yardsalesearch.com/yss-garage-sale.jsp?id=196363205"
        ],
        "original_url": "https://www.yardsalesearch.com/yss-garage-sale.jsp?id=196363205",
        "source_names": [
          "YardSaleSearch"
        ],
        "photos": [
          "https://d82cz7nyq77ak.cloudfront.net/images/social/Facebook.png",
          "https://d82cz7nyq77ak.cloudfront.net/images/social/Pinterest.png",
          "https://d82cz7nyq77ak.cloudfront.net/images/social/Reddit.png",
          "https://d82cz7nyq77ak.cloudfront.net/images/social/Twitter.png",
          "https://d82cz7nyq77ak.cloudfront.net/images/social/Email.png",
          "https://d3sp8ubbhnru9d.cloudfront.net/image/w300-c300:250/2026/08/27/s/4/5/38898845/7GL5V-0.jpeg"
        ],
        "confidence": 100,
        "verified_at": "2026-08-28T16:20:39-05:00",
        "street_view_url": "https://www.google.com/maps/@?api=1&map_action=pano&viewpoint=29.425239,-98.672008",
        "google_maps_url": "https://www.google.com/maps/search/?api=1&query=29.425239,-98.672008",
        "status": "verified",
        "geocode_method": "source",
        "notes": "",
        "community_source": "",
        "community_link_or_notes": ""
      }
    },
    {
      "type": "Feature",
      "geometry": {
        "type": "Point",
        "coordinates": [
          -98.691751,
          29.405115
        ]
      },
      "properties": {
        "sale_id": "2026-08-27_2522-booker-basin-san-antonio-tx-78245",
        "title": "Garage Sale",
        "sale_type": "garage",
        "date_start": "2026-08-27",
        "date_end": "2026-08-28",
        "start_time": "8:30 AM - 1:30 PM",
        "end_time": "",
        "address": "2522 Booker Basin, San Antonio, TX 78245",
        "city": "San Antonio",
        "state": "TX",
        "zip": "",
        "latitude": 29.405115,
        "longitude": -98.691751,
        "description": "Find all the garage sales, yard sales, and estate sales on a map! Or place a free ad for your upcoming sale on yardsalesearch.com",
        "highlights": [],
        "source_urls": [
          "https://www.yardsalesearch.com/yss-garage-sale.jsp?id=196362213"
        ],
        "original_url": "https://www.yardsalesearch.com/yss-garage-sale.jsp?id=196362213",
        "source_names": [
          "YardSaleSearch"
        ],
        "photos": [
          "https://d82cz7nyq77ak.cloudfront.net/images/social/Facebook.png",
          "https://d82cz7nyq77ak.cloudfront.net/images/social/Pinterest.png",
          "https://d82cz7nyq77ak.cloudfront.net/images/social/Reddit.png",
          "https://d82cz7nyq77ak.cloudfront.net/images/social/Twitter.png",
          "https://d82cz7nyq77ak.cloudfront.net/images/social/Email.png",
          "https://gsf.tlstatic.com/image/w300-c300:250/2026/08/26/s/6/1/21727761/gNuG-0.jpeg"
        ],
        "confidence": 100,
        "verified_at": "2026-08-28T16:20:39-05:00",
        "street_view_url": "https://www.google.com/maps/@?api=1&map_action=pano&viewpoint=29.405115,-98.691751",
        "google_maps_url": "https://www.google.com/maps/search/?api=1&query=29.405115,-98.691751",
        "status": "verified",
        "geocode_method": "source",
        "notes": "",
        "community_source": "",
        "community_link_or_notes": ""
      }
    },
    {
      "type": "Feature",
      "geometry": {
        "type": "Point",
        "coordinates": [
          -98.781186,
          29.742369
        ]
      },
      "properties": {
        "sale_id": "2026-08-27_108-cedar-pl-boerne-tx-78006",
        "title": "Moving Sale",
        "sale_type": "garage",
        "date_start": "2026-08-27",
        "date_end": "2026-08-29",
        "start_time": "9:00 AM - 5:00 PM",
        "end_time": "",
        "address": "108 Cedar Pl, Boerne, TX 78006",
        "city": "San Antonio",
        "state": "TX",
        "zip": "",
        "latitude": 29.742369,
        "longitude": -98.781186,
        "description": "Find all the garage sales, yard sales, and estate sales on a map! Or place a free ad for your upcoming sale on yardsalesearch.com",
        "highlights": [],
        "source_urls": [
          "https://www.yardsalesearch.com/yss-garage-sale.jsp?id=196363143"
        ],
        "original_url": "https://www.yardsalesearch.com/yss-garage-sale.jsp?id=196363143",
        "source_names": [
          "YardSaleSearch"
        ],
        "photos": [
          "https://d82cz7nyq77ak.cloudfront.net/images/social/Facebook.png",
          "https://d82cz7nyq77ak.cloudfront.net/images/social/Pinterest.png",
          "https://d82cz7nyq77ak.cloudfront.net/images/social/Reddit.png",
          "https://d82cz7nyq77ak.cloudfront.net/images/social/Twitter.png",
          "https://d82cz7nyq77ak.cloudfront.net/images/social/Email.png",
          "https://gsf.tlstatic.com/image/w300-c300:250/2026/08/26/s/8/9/21728689/Xj2FC-0.jpeg"
        ],
        "confidence": 100,
        "verified_at": "2026-08-28T16:20:39-05:00",
        "street_view_url": "https://www.google.com/maps/@?api=1&map_action=pano&viewpoint=29.742369,-98.781186",
        "google_maps_url": "https://www.google.com/maps/search/?api=1&query=29.742369,-98.781186",
        "status": "verified",
        "geocode_method": "source",
        "notes": "",
        "community_source": "",
        "community_link_or_notes": ""
      }
    },
    {
      "type": "Feature",
      "geometry": {
        "type": "Point",
        "coordinates": [
          -98.466528,
          29.591295
        ]
      },
      "properties": {
        "sale_id": "2026-08-28_1602-thousand-oaks-dr-san-antonio-tx",
        "title": "Treasures and Trash Sale - St. Mark Women's Guild (San Antonio)",
        "sale_type": "garage",
        "date_start": "2026-08-28",
        "date_end": "2026-08-30",
        "start_time": "",
        "end_time": "",
        "address": "1602 Thousand Oaks Dr., San Antonio, TX",
        "city": "San Antonio",
        "state": "TX",
        "zip": "",
        "latitude": 29.591295,
        "longitude": -98.466528,
        "description": "QR Code Link to This Post Collectibles, China, Glassware, Small Appliances, selected Furniture, Kitchenware, Purses, Novelties, Holiday items, Jewelry, Home Decor, and More Aug. 28, Friday 8am-3:30pm Aug. 29, Saturday 8am - 4:00pm Aug. 30, Sunday 8am - 2:30pm **Sunday is 1/2 price** St. Mark the Evangelist Catholic Church Sponsored by St. Mark Women's Guild Event Center-West Campus Bldg. 14 1602 Thousand Oaks Drive, San Antonio, Tx 78232",
        "highlights": [],
        "source_urls": [
          "https://www.craigslist.org/view/d/san-antonio-treasures-and-trash-sale-st/viebHeDsddKHawHmT2JNZt"
        ],
        "original_url": "https://www.craigslist.org/view/d/san-antonio-treasures-and-trash-sale-st/viebHeDsddKHawHmT2JNZt",
        "source_names": [
          "Craigslist"
        ],
        "photos": [
          "https://images.craigslist.org/00I0I_9TjQ16PSIS9_0fa0cI_600x450.jpg"
        ],
        "confidence": 96,
        "verified_at": "2026-08-28T16:20:39-05:00",
        "street_view_url": "https://www.google.com/maps/@?api=1&map_action=pano&viewpoint=29.591295,-98.466528",
        "google_maps_url": "https://www.google.com/maps/search/?api=1&query=29.591295,-98.466528",
        "status": "verified",
        "geocode_method": "source",
        "notes": "",
        "community_source": "",
        "community_link_or_notes": ""
      }
    },
    {
      "type": "Feature",
      "geometry": {
        "type": "Point",
        "coordinates": [
          -98.3788,
          29.9238
        ]
      },
      "properties": {
        "sale_id": "2026-08-28_1541-green-meadow-lane-san-antonio-tx",
        "title": "HUGE GARAGE SALE: TOOLS LOTS OF TOOLS",
        "sale_type": "garage",
        "date_start": "2026-08-28",
        "date_end": "2026-08-30",
        "start_time": "",
        "end_time": "",
        "address": "1541 Green Meadow Lane, San Antonio, TX",
        "city": "San Antonio",
        "state": "TX",
        "zip": "",
        "latitude": 29.9238,
        "longitude": -98.3788,
        "description": "QR Code Link to This Post We have a full house full of so much stuff, but the highlight is that there’s definitely tons of tools! Come out this weekend referring to this post And we will give you 10% off your purchase!",
        "highlights": [],
        "source_urls": [
          "https://www.craigslist.org/view/d/spring-branch-huge-garage-sale-tools/4BkGCNx8nSqtnRenmg2zk6"
        ],
        "original_url": "https://www.craigslist.org/view/d/spring-branch-huge-garage-sale-tools/4BkGCNx8nSqtnRenmg2zk6",
        "source_names": [
          "Craigslist"
        ],
        "photos": [
          "https://images.craigslist.org/00C0C_svOwJiukOF_0lM0t2_600x450.jpg",
          "https://images.craigslist.org/00C0C_svOwJiukOF_0lM0t2_50x50c.jpg",
          "https://images.craigslist.org/00F0F_g6VGGSzbMfy_0lM0t2_50x50c.jpg",
          "https://images.craigslist.org/01010_1zMIp1zxpDE_0lM0t2_50x50c.jpg",
          "https://images.craigslist.org/00i0i_aORMJK6mWwR_0CI0t2_50x50c.jpg",
          "https://images.craigslist.org/00o0o_6QKg1h1FMhZ_0lM0t2_50x50c.jpg"
        ],
        "confidence": 96,
        "verified_at": "2026-08-28T16:20:39-05:00",
        "street_view_url": "https://www.google.com/maps/@?api=1&map_action=pano&viewpoint=29.9238,-98.3788",
        "google_maps_url": "https://www.google.com/maps/search/?api=1&query=29.9238,-98.3788",
        "status": "verified",
        "geocode_method": "source",
        "notes": "",
        "community_source": "",
        "community_link_or_notes": ""
      }
    },
    {
      "type": "Feature",
      "geometry": {
        "type": "Point",
        "coordinates": [
          -98.316487,
          29.570348
        ]
      },
      "properties": {
        "sale_id": "2026-08-28_8531-marathon-near-olympia-parkway-or-universal-",
        "title": "Multi-Family Yard and Garage Sale (Universal City)",
        "sale_type": "garage",
        "date_start": "2026-08-28",
        "date_end": "2026-08-30",
        "start_time": "",
        "end_time": "",
        "address": "8531 Marathon near Olympia Parkway or Universal City Blvd, San Antonio, TX",
        "city": "San Antonio",
        "state": "TX",
        "zip": "",
        "latitude": 29.570348,
        "longitude": -98.316487,
        "description": "QR Code Link to This Post TOOLS -----DEWALT DRILL with Batteries ------TOOL CHEST--- Multi-draw with wheels (several for sale) Lawn Mower German Beer Mugs Vacuums Life Jacket --- Child FIRE EXTINGUISHERS Blood Pressure Monitors Women’s CLOTHING ---Pants, Blouses Women’s Purses Boots 45 Records Military Items BOOKS!!! Fiction and Non-Fiction, HISTORY Household Items ---- BLACK AND DECKER EDGER Garden Instruments Plumbing Ladders Electrical Wicker Baskets Kitchen and Cooking and Baking Fondue Set ",
        "highlights": [],
        "source_urls": [
          "https://www.craigslist.org/view/d/universal-city-multi-family-yard-and/dfXdmTLgzMeZnXePVTmRpm"
        ],
        "original_url": "https://www.craigslist.org/view/d/universal-city-multi-family-yard-and/dfXdmTLgzMeZnXePVTmRpm",
        "source_names": [
          "Craigslist"
        ],
        "photos": [
          "https://images.craigslist.org/00f0f_72oQGfcpEdp_0x20oM_600x450.jpg",
          "https://images.craigslist.org/00f0f_72oQGfcpEdp_0x20oM_50x50c.jpg",
          "https://images.craigslist.org/00g0g_afAZMGqv71f_0x20oM_50x50c.jpg",
          "https://images.craigslist.org/00h0h_4gkYHie1Lxa_0x20oM_50x50c.jpg",
          "https://images.craigslist.org/00g0g_3HjbhPPmZAJ_0oM0iA_50x50c.jpg",
          "https://images.craigslist.org/00606_6ZUR1dJo4lB_0vZ0gd_50x50c.jpg"
        ],
        "confidence": 96,
        "verified_at": "2026-08-28T16:20:39-05:00",
        "street_view_url": "https://www.google.com/maps/@?api=1&map_action=pano&viewpoint=29.570348,-98.316487",
        "google_maps_url": "https://www.google.com/maps/search/?api=1&query=29.570348,-98.316487",
        "status": "verified",
        "geocode_method": "source",
        "notes": "",
        "community_source": "",
        "community_link_or_notes": ""
      }
    },
    {
      "type": "Feature",
      "geometry": {
        "type": "Point",
        "coordinates": [
          -98.6946,
          29.5386
        ]
      },
      "properties": {
        "sale_id": "2026-08-28_10326-briar-rose-near-mustang-ranch-san-antonio-",
        "title": "Mulit families Yard sale (10326 Briar Rose SATX 78254)",
        "sale_type": "garage",
        "date_start": "2026-08-28",
        "date_end": "2026-08-30",
        "start_time": "",
        "end_time": "",
        "address": "10326 Briar Rose near MUSTANG RANCH, San Antonio, TX",
        "city": "San Antonio",
        "state": "TX",
        "zip": "",
        "latitude": 29.5386,
        "longitude": -98.6946,
        "description": "QR Code Link to This Post HELLO HOSTING another yard sale. More golf equipment and clothes and house hold items . And whatever the other families and neighbors bring. Come join us were starting early 8am to 130. I remember you who came late. COME ON BY ANS COME ON ALL",
        "highlights": [],
        "source_urls": [
          "https://www.craigslist.org/view/d/san-antonio-mulit-families-yard-sale/2cJLqPS33d9v5ku1284qUm"
        ],
        "original_url": "https://www.craigslist.org/view/d/san-antonio-mulit-families-yard-sale/2cJLqPS33d9v5ku1284qUm",
        "source_names": [
          "Craigslist"
        ],
        "photos": [
          "https://images.craigslist.org/00r0r_4723mqKsTdl_0CI0rg_600x450.jpg"
        ],
        "confidence": 96,
        "verified_at": "2026-08-28T16:20:39-05:00",
        "street_view_url": "https://www.google.com/maps/@?api=1&map_action=pano&viewpoint=29.5386,-98.6946",
        "google_maps_url": "https://www.google.com/maps/search/?api=1&query=29.5386,-98.6946",
        "status": "verified",
        "geocode_method": "source",
        "notes": "",
        "community_source": "",
        "community_link_or_notes": ""
      }
    },
    {
      "type": "Feature",
      "geometry": {
        "type": "Point",
        "coordinates": [
          -98.5529864,
          29.4770323
        ]
      },
      "properties": {
        "sale_id": "2026-08-28_115-epler-dr-san-antonio-tx-78228",
        "title": "A Lifetime Of Treasures In Nw Sunshine Estates",
        "sale_type": "estate",
        "date_start": "2026-08-28",
        "date_end": "2026-08-30",
        "start_time": "9:00 AM - 4:00 PM",
        "end_time": "",
        "address": "115 Epler Dr, San Antonio, TX 78228",
        "city": "San Antonio",
        "state": "TX",
        "zip": "",
        "latitude": 29.4770323,
        "longitude": -98.5529864,
        "description": "Find all the garage sales, yard sales, and estate sales on a map! Or place a free ad for your upcoming sale on yardsalesearch.com",
        "highlights": [],
        "source_urls": [
          "https://www.yardsalesearch.com/yss-garage-sale.jsp?id=196361705"
        ],
        "original_url": "https://www.yardsalesearch.com/yss-garage-sale.jsp?id=196361705",
        "source_names": [
          "YardSaleSearch"
        ],
        "photos": [
          "https://d82cz7nyq77ak.cloudfront.net/images/social/Facebook.png",
          "https://d82cz7nyq77ak.cloudfront.net/images/social/Pinterest.png",
          "https://d82cz7nyq77ak.cloudfront.net/images/social/Reddit.png",
          "https://d82cz7nyq77ak.cloudfront.net/images/social/Twitter.png",
          "https://d82cz7nyq77ak.cloudfront.net/images/social/Email.png",
          "https://eso-cdn.tlcdn.workers.dev/s-2459269-pmibp8up6oimb8yj-t.webp"
        ],
        "confidence": 100,
        "verified_at": "2026-08-28T16:20:39-05:00",
        "street_view_url": "https://www.google.com/maps/@?api=1&map_action=pano&viewpoint=29.4770323,-98.5529864",
        "google_maps_url": "https://www.google.com/maps/search/?api=1&query=29.4770323,-98.5529864",
        "status": "verified",
        "geocode_method": "source",
        "notes": "",
        "community_source": "",
        "community_link_or_notes": ""
      }
    },
    {
      "type": "Feature",
      "geometry": {
        "type": "Point",
        "coordinates": [
          -98.680193,
          29.404344
        ]
      },
      "properties": {
        "sale_id": "2026-08-28_9735-misty-plain-dr-san-antonio-tx-78245",
        "title": "Yard Sale",
        "sale_type": "garage",
        "date_start": "2026-08-28",
        "date_end": "2026-08-28",
        "start_time": "9:00 AM - 5:00 PM",
        "end_time": "",
        "address": "9735 Misty Plain Dr, San Antonio, TX 78245",
        "city": "San Antonio",
        "state": "TX",
        "zip": "",
        "latitude": 29.404344,
        "longitude": -98.680193,
        "description": "Find all the garage sales, yard sales, and estate sales on a map! Or place a free ad for your upcoming sale on yardsalesearch.com",
        "highlights": [],
        "source_urls": [
          "https://www.yardsalesearch.com/yss-garage-sale.jsp?id=196364749"
        ],
        "original_url": "https://www.yardsalesearch.com/yss-garage-sale.jsp?id=196364749",
        "source_names": [
          "YardSaleSearch"
        ],
        "photos": [
          "https://d82cz7nyq77ak.cloudfront.net/images/social/Facebook.png",
          "https://d82cz7nyq77ak.cloudfront.net/images/social/Pinterest.png",
          "https://d82cz7nyq77ak.cloudfront.net/images/social/Reddit.png",
          "https://d82cz7nyq77ak.cloudfront.net/images/social/Twitter.png",
          "https://d82cz7nyq77ak.cloudfront.net/images/social/Email.png"
        ],
        "confidence": 100,
        "verified_at": "2026-08-28T16:20:39-05:00",
        "street_view_url": "https://www.google.com/maps/@?api=1&map_action=pano&viewpoint=29.404344,-98.680193",
        "google_maps_url": "https://www.google.com/maps/search/?api=1&query=29.404344,-98.680193",
        "status": "verified",
        "geocode_method": "source",
        "notes": "",
        "community_source": "",
        "community_link_or_notes": ""
      }
    },
    {
      "type": "Feature",
      "geometry": {
        "type": "Point",
        "coordinates": [
          -98.344862,
          29.258911
        ]
      },
      "properties": {
        "sale_id": "2026-08-28_16411-old-corpus-christi-rd-san-antonio-tx",
        "title": "BIG COUNTRY YARD SALE",
        "sale_type": "garage",
        "date_start": "2026-08-28",
        "date_end": "2026-08-30",
        "start_time": "",
        "end_time": "",
        "address": "16411 old corpus christi rd, San Antonio, TX",
        "city": "San Antonio",
        "state": "TX",
        "zip": "",
        "latitude": 29.258911,
        "longitude": -98.344862,
        "description": "QR Code Link to This Post Cheap Plants!!!!!! Fishing Gear Antiques Old tools Loads of hardware and parts Rustic iron Oddities and much more!",
        "highlights": [],
        "source_urls": [
          "https://www.craigslist.org/view/d/san-antonio-big-country-yard-sale/5FkUUwhsRpkjdZNQuEZ5sD"
        ],
        "original_url": "https://www.craigslist.org/view/d/san-antonio-big-country-yard-sale/5FkUUwhsRpkjdZNQuEZ5sD",
        "source_names": [
          "Craigslist"
        ],
        "photos": [
          "https://images.craigslist.org/00Z0Z_fZByXFdjrtn_0fu0kE_600x450.jpg",
          "https://images.craigslist.org/00Z0Z_fZByXFdjrtn_0fu0kE_50x50c.jpg",
          "https://images.craigslist.org/01313_b0YAG9pPGGP_0t20CI_50x50c.jpg",
          "https://images.craigslist.org/00H0H_c8A04FREVWa_0t20CI_50x50c.jpg",
          "https://images.craigslist.org/00E0E_lpjPLSm0hv6_0t20CI_50x50c.jpg",
          "https://images.craigslist.org/00H0H_8dclM6d2fz8_0t20CI_50x50c.jpg"
        ],
        "confidence": 96,
        "verified_at": "2026-08-28T16:20:39-05:00",
        "street_view_url": "https://www.google.com/maps/@?api=1&map_action=pano&viewpoint=29.258911,-98.344862",
        "google_maps_url": "https://www.google.com/maps/search/?api=1&query=29.258911,-98.344862",
        "status": "verified",
        "geocode_method": "source",
        "notes": "",
        "community_source": "",
        "community_link_or_notes": ""
      }
    },
    {
      "type": "Feature",
      "geometry": {
        "type": "Point",
        "coordinates": [
          -98.4485846,
          29.4135826
        ]
      },
      "properties": {
        "sale_id": "2026-08-22_san-antonio-tx-78203",
        "title": "Chicago Style Meets San Antonio - Bidding ends 8/30",
        "sale_type": "estate",
        "date_start": "2026-08-22",
        "date_end": "2026-08-30",
        "start_time": "",
        "end_time": "",
        "address": "San Antonio, TX 78203",
        "city": "San Antonio",
        "state": "TX",
        "zip": "",
        "latitude": 29.4135826,
        "longitude": -98.4485846,
        "description": "Caring Transitions of San Antonio Central. Welcome Home to CTBids! We put together an excellent selection of items for you! Start exploring and discover the deals for yourself! Bidding on ALL items starts at $1! From Chicago to San Antonio, this beautifully furnished condo was our client'...",
        "highlights": [],
        "source_urls": [
          "https://estatesales.org/estate-sales/tx/san-antonio/78203/chicago-style-meets-san-antonio-2458919"
        ],
        "original_url": "https://estatesales.org/estate-sales/tx/san-antonio/78203/chicago-style-meets-san-antonio-2458919",
        "source_names": [
          "EstateSales.org"
        ],
        "photos": [
          "https://estatesales.org/2036244653/css/images/nophoto_company_400x400.png",
          "https://estatesales.org/2036244653/css/images/social/facebook.png",
          "https://eso-cdn.tlcdn.workers.dev/s-2458919-uvcwnf5u9fc9qraw-t.webp",
          "https://eso-cdn.tlcdn.workers.dev/s-2458919-2hdjkxbu2kvlym4g-t.webp",
          "https://eso-cdn.tlcdn.workers.dev/s-2458919-5rym510y74orcbit-t.webp",
          "https://eso-cdn.tlcdn.workers.dev/s-2458919-naci7k81w9mxddt6-t.webp"
        ],
        "confidence": 96,
        "verified_at": "2026-08-28T16:20:39-05:00",
        "street_view_url": "https://www.google.com/maps/@?api=1&map_action=pano&viewpoint=29.4135826,-98.4485846",
        "google_maps_url": "https://www.google.com/maps/search/?api=1&query=29.4135826,-98.4485846",
        "status": "verified",
        "geocode_method": "source",
        "notes": "",
        "community_source": "",
        "community_link_or_notes": ""
      }
    },
    {
      "type": "Feature",
      "geometry": {
        "type": "Point",
        "coordinates": [
          -98.560011,
          29.352186
        ]
      },
      "properties": {
        "sale_id": "2026-08-28_3206-la-violeta-st-san-antonio-tx-78211",
        "title": "Huge Yard Sale!!",
        "sale_type": "garage",
        "date_start": "2026-08-28",
        "date_end": "2026-08-29",
        "start_time": "8:00 AM - 5:00 PM",
        "end_time": "",
        "address": "3206 La Violeta St, San Antonio, TX 78211",
        "city": "San Antonio",
        "state": "TX",
        "zip": "",
        "latitude": 29.352186,
        "longitude": -98.560011,
        "description": "Find all the garage sales, yard sales, and estate sales on a map! Or place a free ad for your upcoming sale on yardsalesearch.com",
        "highlights": [],
        "source_urls": [
          "https://www.yardsalesearch.com/yss-garage-sale.jsp?id=196365219"
        ],
        "original_url": "https://www.yardsalesearch.com/yss-garage-sale.jsp?id=196365219",
        "source_names": [
          "YardSaleSearch"
        ],
        "photos": [
          "https://d82cz7nyq77ak.cloudfront.net/images/social/Facebook.png",
          "https://d82cz7nyq77ak.cloudfront.net/images/social/Pinterest.png",
          "https://d82cz7nyq77ak.cloudfront.net/images/social/Reddit.png",
          "https://d82cz7nyq77ak.cloudfront.net/images/social/Twitter.png",
          "https://d82cz7nyq77ak.cloudfront.net/images/social/Email.png",
          "https://gsf.tlstatic.com/image/w300-c300:250/2026/08/28/s/6/3/21730763/Xjs3S-0.jpeg"
        ],
        "confidence": 100,
        "verified_at": "2026-08-28T16:20:39-05:00",
        "street_view_url": "https://www.google.com/maps/@?api=1&map_action=pano&viewpoint=29.352186,-98.560011",
        "google_maps_url": "https://www.google.com/maps/search/?api=1&query=29.352186,-98.560011",
        "status": "verified",
        "geocode_method": "source",
        "notes": "",
        "community_source": "",
        "community_link_or_notes": ""
      }
    },
    {
      "type": "Feature",
      "geometry": {
        "type": "Point",
        "coordinates": [
          -98.4936,
          29.4241
        ]
      },
      "properties": {
        "sale_id": "2026-08-27_2485-tx-46-seguin-tx-78155",
        "title": "GUNSMITHING SHOP CLOSING ( ESTATE SALE LIQUIDATION )",
        "sale_type": "estate",
        "date_start": "2026-08-27",
        "date_end": "2026-08-29",
        "start_time": "10:00 am - 5:00 pm",
        "end_time": "",
        "address": "2485 TX-46, Seguin, TX 78155",
        "city": "San Antonio",
        "state": "TX",
        "zip": "",
        "latitude": 29.4241,
        "longitude": -98.4936,
        "description": "Dates and Times: Thursday, August 27, 2026 10:00 am - 5:00 pm",
        "highlights": [],
        "source_urls": [
          "https://garagesalefinder.com/s/N9gl2/2485-tx46-seguin-tx-78155"
        ],
        "original_url": "https://garagesalefinder.com/s/N9gl2/2485-tx46-seguin-tx-78155",
        "source_names": [
          "GarageSaleFinder"
        ],
        "photos": [
          "https://eso-cdn.tlcdn.workers.dev/s-2458267-6nq1rsc96mni1d72-t.webp",
          "https://eso-cdn.tlcdn.workers.dev/s-2458267-exys0o13s4sslx9p-t.webp",
          "https://eso-cdn.tlcdn.workers.dev/s-2458267-pzffacxxq9e6jz0d-t.webp",
          "https://eso-cdn.tlcdn.workers.dev/s-2458267-sbvfj6l1jbp5i4bb-t.webp",
          "https://eso-cdn.tlcdn.workers.dev/s-2458267-y4sezv0oi1wsfpql-t.webp",
          "https://eso-cdn.tlcdn.workers.dev/s-2458267-wfvrkkk9i9zdb9zg-t.webp"
        ],
        "confidence": 100,
        "verified_at": "2026-08-28T16:20:39-05:00",
        "street_view_url": "https://www.google.com/maps/@?api=1&map_action=pano&viewpoint=29.4241,-98.4936",
        "google_maps_url": "https://www.google.com/maps/search/?api=1&query=29.4241,-98.4936",
        "status": "verified",
        "geocode_method": "city-center",
        "notes": "",
        "community_source": "",
        "community_link_or_notes": ""
      }
    },
    {
      "type": "Feature",
      "geometry": {
        "type": "Point",
        "coordinates": [
          -98.4936,
          29.4241
        ]
      },
      "properties": {
        "sale_id": "2026-08-28_405-deertrail-dr-san-marcos-tx-78666",
        "title": "405 Deertrail Dr, San Marcos, TX 78666",
        "sale_type": "garage",
        "date_start": "2026-08-28",
        "date_end": "2026-08-29",
        "start_time": "9:00 am - 4:00 pm",
        "end_time": "",
        "address": "405 Deertrail Dr, San Marcos, TX 78666",
        "city": "San Antonio",
        "state": "TX",
        "zip": "",
        "latitude": 29.4241,
        "longitude": -98.4936,
        "description": "Dates and Times: Friday, August 28, 2026 9:00 am - 4:00 pm",
        "highlights": [],
        "source_urls": [
          "https://garagesalefinder.com/s/N9g9F/405-deertrail-dr-san-marcos-tx-78666"
        ],
        "original_url": "https://garagesalefinder.com/s/N9g9F/405-deertrail-dr-san-marcos-tx-78666",
        "source_names": [
          "GarageSaleFinder"
        ],
        "photos": [
          "https://eso-cdn.tlcdn.workers.dev/s-2458434-fzz5qcnv4ql4csk6-t.webp",
          "https://eso-cdn.tlcdn.workers.dev/s-2458434-iu2ja2nnaw2tv70w-t.webp",
          "https://eso-cdn.tlcdn.workers.dev/s-2458434-2i57308rxhslx9un-t.webp",
          "https://eso-cdn.tlcdn.workers.dev/s-2458434-ms8xat3ybeiifk4m-t.webp",
          "https://eso-cdn.tlcdn.workers.dev/s-2458434-4o1fp8zrda1loedx-t.webp",
          "https://eso-cdn.tlcdn.workers.dev/s-2458434-mumx7k2lr9cvzzo4-t.webp"
        ],
        "confidence": 100,
        "verified_at": "2026-08-28T16:20:39-05:00",
        "street_view_url": "https://www.google.com/maps/@?api=1&map_action=pano&viewpoint=29.4241,-98.4936",
        "google_maps_url": "https://www.google.com/maps/search/?api=1&query=29.4241,-98.4936",
        "status": "verified",
        "geocode_method": "city-center",
        "notes": "",
        "community_source": "",
        "community_link_or_notes": ""
      }
    },
    {
      "type": "Feature",
      "geometry": {
        "type": "Point",
        "coordinates": [
          -98.681542,
          29.435764
        ]
      },
      "properties": {
        "sale_id": "2026-08-28_619-cypresscliff-dr-san-antonio-tx",
        "title": "Estate Sale - Art and collectibles (By Seaworld)",
        "sale_type": "estate",
        "date_start": "2026-08-28",
        "date_end": "2026-08-30",
        "start_time": "",
        "end_time": "",
        "address": "619 cypresscliff dr, San Antonio, TX",
        "city": "San Antonio",
        "state": "TX",
        "zip": "",
        "latitude": 29.435764,
        "longitude": -98.681542,
        "description": "QR Code Link to This Post Estate sale. Owner has collection of fine Artwork, furniture, appliances, collectibles, miter saw and drill press. Everything must go. Great prices Come inside home to check out!",
        "highlights": [],
        "source_urls": [
          "https://www.craigslist.org/view/d/san-antonio-estate-sale-art-and/sJWRPFbGKUHuWD4P9UFP67"
        ],
        "original_url": "https://www.craigslist.org/view/d/san-antonio-estate-sale-art-and/sJWRPFbGKUHuWD4P9UFP67",
        "source_names": [
          "Craigslist"
        ],
        "photos": [
          "https://images.craigslist.org/00s0s_eQcHJG2dAzg_0CI0lN_600x450.jpg",
          "https://images.craigslist.org/00s0s_eQcHJG2dAzg_0CI0lN_50x50c.jpg",
          "https://images.craigslist.org/00101_blEMPQEoZTr_0CI0lN_50x50c.jpg",
          "https://images.craigslist.org/00Q0Q_e68U7htOcfd_0CI0lN_50x50c.jpg"
        ],
        "confidence": 96,
        "verified_at": "2026-08-28T16:20:39-05:00",
        "street_view_url": "https://www.google.com/maps/@?api=1&map_action=pano&viewpoint=29.435764,-98.681542",
        "google_maps_url": "https://www.google.com/maps/search/?api=1&query=29.435764,-98.681542",
        "status": "verified",
        "geocode_method": "source",
        "notes": "",
        "community_source": "",
        "community_link_or_notes": ""
      }
    },
    {
      "type": "Feature",
      "geometry": {
        "type": "Point",
        "coordinates": [
          -98.6144,
          29.3745
        ]
      },
      "properties": {
        "sale_id": "2026-08-28_122-lelani-st-near-five-palms-san-antonio-tx",
        "title": "Five Palms area yard sale (Jbsa Lackland)",
        "sale_type": "garage",
        "date_start": "2026-08-28",
        "date_end": "2026-08-30",
        "start_time": "",
        "end_time": "",
        "address": "122 Lelani St near Five palms, San Antonio, TX",
        "city": "San Antonio",
        "state": "TX",
        "zip": "",
        "latitude": 29.3745,
        "longitude": -98.6144,
        "description": "QR Code Link to This Post Address 122 Lelani 78242 Yard sale from 9am - 5pm Friday and Saturday. Tons or items for sale Knickknacks clothes purses shoes and more.",
        "highlights": [],
        "source_urls": [
          "https://www.craigslist.org/view/d/jbsa-lackland-five-palms-area-yard-sale/j2jWreLZrEnGkBDLagimMY"
        ],
        "original_url": "https://www.craigslist.org/view/d/jbsa-lackland-five-palms-area-yard-sale/j2jWreLZrEnGkBDLagimMY",
        "source_names": [
          "Craigslist"
        ],
        "photos": [],
        "confidence": 96,
        "verified_at": "2026-08-28T16:20:39-05:00",
        "street_view_url": "https://www.google.com/maps/@?api=1&map_action=pano&viewpoint=29.3745,-98.6144",
        "google_maps_url": "https://www.google.com/maps/search/?api=1&query=29.3745,-98.6144",
        "status": "verified",
        "geocode_method": "source",
        "notes": "",
        "community_source": "",
        "community_link_or_notes": ""
      }
    },
    {
      "type": "Feature",
      "geometry": {
        "type": "Point",
        "coordinates": [
          -98.34598,
          29.546427
        ]
      },
      "properties": {
        "sale_id": "2026-08-28_7714-avery-rd-san-antonio-tx",
        "title": "Vintage to new curated items (Live Oak)",
        "sale_type": "garage",
        "date_start": "2026-08-28",
        "date_end": "2026-08-30",
        "start_time": "",
        "end_time": "",
        "address": "7714 Avery Rd, San Antonio, TX",
        "city": "San Antonio",
        "state": "TX",
        "zip": "",
        "latitude": 29.546427,
        "longitude": -98.34598,
        "description": "QR Code Link to This Post Come discover a carefully curated collection of vintage treasures &amp; new finds, including: 🖼️ Art &amp; unique décor 🏡 Household &amp; entertaining items 👗 Clothing &amp; accessories 💎 Jewelry 🎶 Vinyl records Small furniture and outdoor stuff 🛍️ Collectibles &amp; so much more! Unique finds, great prices, and something for everyone! Come browse, shop, and find your nex",
        "highlights": [],
        "source_urls": [
          "https://www.craigslist.org/view/d/san-antonio-vintage-to-new-curated-items/85G2WW3eKLgxGZJZGKv4dp"
        ],
        "original_url": "https://www.craigslist.org/view/d/san-antonio-vintage-to-new-curated-items/85G2WW3eKLgxGZJZGKv4dp",
        "source_names": [
          "Craigslist"
        ],
        "photos": [
          "https://images.craigslist.org/00Q0Q_fKZKv9ovHG_0CI0t2_600x450.jpg",
          "https://images.craigslist.org/00Q0Q_fKZKv9ovHG_0CI0t2_50x50c.jpg",
          "https://images.craigslist.org/00101_6vqJntD7LA1_0t20CI_50x50c.jpg",
          "https://images.craigslist.org/00r0r_37mE7FIPTeG_0t20CI_50x50c.jpg",
          "https://images.craigslist.org/00b0b_iBL8i0Ed2PC_0t20CI_50x50c.jpg",
          "https://images.craigslist.org/01111_6gr4F5EHXOp_0t20CI_50x50c.jpg"
        ],
        "confidence": 96,
        "verified_at": "2026-08-28T16:20:39-05:00",
        "street_view_url": "https://www.google.com/maps/@?api=1&map_action=pano&viewpoint=29.546427,-98.34598",
        "google_maps_url": "https://www.google.com/maps/search/?api=1&query=29.546427,-98.34598",
        "status": "verified",
        "geocode_method": "source",
        "notes": "",
        "community_source": "",
        "community_link_or_notes": ""
      }
    }
  ]
}