{
  "type": "FeatureCollection",
  "properties": {
    "target_date": "2026-09-18",
    "generated_at": "2026-09-18T09:50:09-05:00",
    "count": 22,
    "project": "Chicas-Map"
  },
  "features": [
    {
      "type": "Feature",
      "geometry": {
        "type": "Point",
        "coordinates": [
          -98.573882,
          29.579425
        ]
      },
      "properties": {
        "sale_id": "2026-09-18_4423-black-walnut-woods-st-san-antonio-tx-78249",
        "title": "Multi Family Yard Sale",
        "sale_type": "garage",
        "date_start": "2026-09-18",
        "date_end": "2026-09-19",
        "start_time": "8:00 AM - 5:00 PM",
        "end_time": "",
        "address": "4423 Black Walnut Woods St, San Antonio, TX 78249",
        "city": "San Antonio",
        "state": "TX",
        "zip": "",
        "latitude": 29.579425,
        "longitude": -98.573882,
        "description": "Find all the garage sales, yard sales, and estate sales on a map! Or place a free ad for your upcoming sale on yardsalesearch.com",
        "highlights": [],
        "source_urls": [
          "https://www.yardsalesearch.com/yss-garage-sale.jsp?id=196392531"
        ],
        "original_url": "https://www.yardsalesearch.com/yss-garage-sale.jsp?id=196392531",
        "source_names": [
          "YardSaleSearch"
        ],
        "photos": [
          "https://d82cz7nyq77ak.cloudfront.net/images/social/Facebook.png",
          "https://d82cz7nyq77ak.cloudfront.net/images/social/Pinterest.png",
          "https://d82cz7nyq77ak.cloudfront.net/images/social/Reddit.png",
          "https://d82cz7nyq77ak.cloudfront.net/images/social/Twitter.png",
          "https://d82cz7nyq77ak.cloudfront.net/images/social/Email.png",
          "https://gsf.tlstatic.com/image/w300-c300:250/2026/09/18/s/1/1/21758011/nBkJ-0.jpeg"
        ],
        "confidence": 100,
        "verified_at": "2026-09-18T09:49:34-05:00",
        "street_view_url": "https://www.google.com/maps/@?api=1&map_action=pano&viewpoint=29.579425,-98.573882",
        "google_maps_url": "https://www.google.com/maps/search/?api=1&query=29.579425,-98.573882",
        "status": "verified",
        "geocode_method": "source",
        "notes": "",
        "community_source": "",
        "community_link_or_notes": ""
      }
    },
    {
      "type": "Feature",
      "geometry": {
        "type": "Point",
        "coordinates": [
          -98.7319703,
          29.7946641
        ]
      },
      "properties": {
        "sale_id": "2026-09-12_boerne-tx-78006",
        "title": "Collected Elegance in Boerne, TX. Bidding Ends 9/20",
        "sale_type": "estate",
        "date_start": "2026-09-12",
        "date_end": "2026-09-20",
        "start_time": "",
        "end_time": "",
        "address": "Boerne, TX 78006",
        "city": "San Antonio",
        "state": "TX",
        "zip": "",
        "latitude": 29.7946641,
        "longitude": -98.7319703,
        "description": "Caring Transitions of Boerne, Fredericksburg, and Kerrville. Welcome Home to CTBids! We put together an excellent selection of items for you! Start exploring and discover the deals for yourself! Bidding on ALL items starts at $1! Step into an online estate sale filled with timeless style and beautifully c...",
        "highlights": [],
        "source_urls": [
          "https://estatesales.org/estate-sales/tx/boerne/78006/collected-elegance-in-boerne-tx-2462675"
        ],
        "original_url": "https://estatesales.org/estate-sales/tx/boerne/78006/collected-elegance-in-boerne-tx-2462675",
        "source_names": [
          "EstateSales.org"
        ],
        "photos": [
          "https://estatesales.org/uploads/2024/02/04/m/7/5/2392475/4PGu6-1.jpeg",
          "https://estatesales.org/2036244653/css/images/social/facebook.png",
          "https://eso-cdn.tlcdn.workers.dev/s-2462675-bjize4mb0gp0pmyr-t.webp",
          "https://eso-cdn.tlcdn.workers.dev/s-2462675-ava18jngz1jafiqv-t.webp",
          "https://eso-cdn.tlcdn.workers.dev/s-2462675-p4c2540py9sy7e28-t.webp",
          "https://eso-cdn.tlcdn.workers.dev/s-2462675-l0kyujwqmy7htoii-t.webp"
        ],
        "confidence": 96,
        "verified_at": "2026-09-18T09:49:34-05:00",
        "street_view_url": "https://www.google.com/maps/@?api=1&map_action=pano&viewpoint=29.7946641,-98.7319703",
        "google_maps_url": "https://www.google.com/maps/search/?api=1&query=29.7946641,-98.7319703",
        "status": "verified",
        "geocode_method": "source",
        "notes": "",
        "community_source": "",
        "community_link_or_notes": ""
      }
    },
    {
      "type": "Feature",
      "geometry": {
        "type": "Point",
        "coordinates": [
          -98.650194,
          29.504372
        ]
      },
      "properties": {
        "sale_id": "2026-09-18_8651-quail-whisper-san-antonio-tx-78250",
        "title": "Estate Sale",
        "sale_type": "estate",
        "date_start": "2026-09-18",
        "date_end": "2026-09-20",
        "start_time": "9:00 AM - 4:00 PM",
        "end_time": "",
        "address": "8651 Quail Whisper, San Antonio, TX 78250",
        "city": "San Antonio",
        "state": "TX",
        "zip": "",
        "latitude": 29.504372,
        "longitude": -98.650194,
        "description": "Find all the garage sales, yard sales, and estate sales on a map! Or place a free ad for your upcoming sale on yardsalesearch.com",
        "highlights": [],
        "source_urls": [
          "https://www.yardsalesearch.com/yss-garage-sale.jsp?id=196388277"
        ],
        "original_url": "https://www.yardsalesearch.com/yss-garage-sale.jsp?id=196388277",
        "source_names": [
          "YardSaleSearch"
        ],
        "photos": [
          "https://d82cz7nyq77ak.cloudfront.net/images/social/Facebook.png",
          "https://d82cz7nyq77ak.cloudfront.net/images/social/Pinterest.png",
          "https://d82cz7nyq77ak.cloudfront.net/images/social/Reddit.png",
          "https://d82cz7nyq77ak.cloudfront.net/images/social/Twitter.png",
          "https://d82cz7nyq77ak.cloudfront.net/images/social/Email.png",
          "https://d3sp8ubbhnru9d.cloudfront.net/image/w300-c300:250/2026/09/15/s/0/7/38924007/by4l-0.jpeg"
        ],
        "confidence": 100,
        "verified_at": "2026-09-18T09:49:34-05:00",
        "street_view_url": "https://www.google.com/maps/@?api=1&map_action=pano&viewpoint=29.504372,-98.650194",
        "google_maps_url": "https://www.google.com/maps/search/?api=1&query=29.504372,-98.650194",
        "status": "verified",
        "geocode_method": "source",
        "notes": "",
        "community_source": "",
        "community_link_or_notes": ""
      }
    },
    {
      "type": "Feature",
      "geometry": {
        "type": "Point",
        "coordinates": [
          -98.672969,
          29.503378
        ]
      },
      "properties": {
        "sale_id": "2026-09-17_9558-cantura-crst-san-antonio-tx-78250",
        "title": "Yard Sale Thursday And Friday",
        "sale_type": "garage",
        "date_start": "2026-09-17",
        "date_end": "2026-09-18",
        "start_time": "9:00 AM - 6:00 PM",
        "end_time": "",
        "address": "9558 Cantura Crst, San Antonio, TX 78250",
        "city": "San Antonio",
        "state": "TX",
        "zip": "",
        "latitude": 29.503378,
        "longitude": -98.672969,
        "description": "Find all the garage sales, yard sales, and estate sales on a map! Or place a free ad for your upcoming sale on yardsalesearch.com",
        "highlights": [],
        "source_urls": [
          "https://www.yardsalesearch.com/yss-garage-sale.jsp?id=196389315"
        ],
        "original_url": "https://www.yardsalesearch.com/yss-garage-sale.jsp?id=196389315",
        "source_names": [
          "YardSaleSearch"
        ],
        "photos": [
          "https://d82cz7nyq77ak.cloudfront.net/images/social/Facebook.png",
          "https://d82cz7nyq77ak.cloudfront.net/images/social/Pinterest.png",
          "https://d82cz7nyq77ak.cloudfront.net/images/social/Reddit.png",
          "https://d82cz7nyq77ak.cloudfront.net/images/social/Twitter.png",
          "https://d82cz7nyq77ak.cloudfront.net/images/social/Email.png"
        ],
        "confidence": 100,
        "verified_at": "2026-09-18T09:49:34-05:00",
        "street_view_url": "https://www.google.com/maps/@?api=1&map_action=pano&viewpoint=29.503378,-98.672969",
        "google_maps_url": "https://www.google.com/maps/search/?api=1&query=29.503378,-98.672969",
        "status": "verified",
        "geocode_method": "source",
        "notes": "",
        "community_source": "",
        "community_link_or_notes": ""
      }
    },
    {
      "type": "Feature",
      "geometry": {
        "type": "Point",
        "coordinates": [
          -98.68018,
          29.518318
        ]
      },
      "properties": {
        "sale_id": "2026-09-18_9418-greens-pt-san-antonio-tx-78250",
        "title": "Multi Family Yard Sale",
        "sale_type": "garage",
        "date_start": "2026-09-18",
        "date_end": "2026-09-19",
        "start_time": "7:00 AM - 2:00 PM",
        "end_time": "",
        "address": "9418 Greens Pt, San Antonio, TX 78250",
        "city": "San Antonio",
        "state": "TX",
        "zip": "",
        "latitude": 29.518318,
        "longitude": -98.68018,
        "description": "Find all the garage sales, yard sales, and estate sales on a map! Or place a free ad for your upcoming sale on yardsalesearch.com",
        "highlights": [],
        "source_urls": [
          "https://www.yardsalesearch.com/yss-garage-sale.jsp?id=196391905"
        ],
        "original_url": "https://www.yardsalesearch.com/yss-garage-sale.jsp?id=196391905",
        "source_names": [
          "YardSaleSearch"
        ],
        "photos": [
          "https://d82cz7nyq77ak.cloudfront.net/images/social/Facebook.png",
          "https://d82cz7nyq77ak.cloudfront.net/images/social/Pinterest.png",
          "https://d82cz7nyq77ak.cloudfront.net/images/social/Reddit.png",
          "https://d82cz7nyq77ak.cloudfront.net/images/social/Twitter.png",
          "https://d82cz7nyq77ak.cloudfront.net/images/social/Email.png",
          "https://gsf.tlstatic.com/image/w300-c300:250/2026/09/17/s/8/5/21757385/XrIOW-0.jpeg"
        ],
        "confidence": 100,
        "verified_at": "2026-09-18T09:49:34-05:00",
        "street_view_url": "https://www.google.com/maps/@?api=1&map_action=pano&viewpoint=29.518318,-98.68018",
        "google_maps_url": "https://www.google.com/maps/search/?api=1&query=29.518318,-98.68018",
        "status": "verified",
        "geocode_method": "source",
        "notes": "",
        "community_source": "",
        "community_link_or_notes": ""
      }
    },
    {
      "type": "Feature",
      "geometry": {
        "type": "Point",
        "coordinates": [
          -98.4936,
          29.4241
        ]
      },
      "properties": {
        "sale_id": "2026-09-18_134-pin-oak-trl-new-braunfels-tx-78132",
        "title": "134 Pin Oak Trl, New Braunfels, TX 78132",
        "sale_type": "garage",
        "date_start": "2026-09-18",
        "date_end": "2026-09-19",
        "start_time": "8:00 am - 6:00 pm",
        "end_time": "",
        "address": "134 Pin Oak Trl, New Braunfels, TX 78132",
        "city": "San Antonio",
        "state": "TX",
        "zip": "",
        "latitude": 29.4241,
        "longitude": -98.4936,
        "description": "Dates and Times: Friday, September 18, 2026 8:00 am - 6:00 pm",
        "highlights": [],
        "source_urls": [
          "https://garagesalefinder.com/s/N9S10/134-pin-oak-trl-new-braunfels-tx-78132"
        ],
        "original_url": "https://garagesalefinder.com/s/N9S10/134-pin-oak-trl-new-braunfels-tx-78132",
        "source_names": [
          "GarageSaleFinder"
        ],
        "photos": [
          "https://gsf.tlstatic.com/images/social/Facebook.png",
          "https://gsf.tlstatic.com/images/social/Reddit.png",
          "https://gsf.tlstatic.com/images/social/Twitter.png",
          "https://gsf.tlstatic.com/images/social/Email.png"
        ],
        "confidence": 100,
        "verified_at": "2026-09-18T09:49:34-05:00",
        "street_view_url": "https://www.google.com/maps/@?api=1&map_action=pano&viewpoint=29.4241,-98.4936",
        "google_maps_url": "https://www.google.com/maps/search/?api=1&query=29.4241,-98.4936",
        "status": "verified",
        "geocode_method": "city-center",
        "notes": "",
        "community_source": "",
        "community_link_or_notes": ""
      }
    },
    {
      "type": "Feature",
      "geometry": {
        "type": "Point",
        "coordinates": [
          -98.0984595,
          29.8198653
        ]
      },
      "properties": {
        "sale_id": "2026-09-18_319-hidden-pointe-new-braunfels-tx-78132",
        "title": "River Chase Sale",
        "sale_type": "garage",
        "date_start": "2026-09-18",
        "date_end": "2026-09-19",
        "start_time": "9:00 AM - 5:00 PM",
        "end_time": "",
        "address": "319 Hidden Pointe, New Braunfels, TX 78132",
        "city": "San Antonio",
        "state": "TX",
        "zip": "",
        "latitude": 29.8198653,
        "longitude": -98.0984595,
        "description": "Find all the garage sales, yard sales, and estate sales on a map! Or place a free ad for your upcoming sale on yardsalesearch.com",
        "highlights": [],
        "source_urls": [
          "https://www.yardsalesearch.com/yss-garage-sale.jsp?id=196387773"
        ],
        "original_url": "https://www.yardsalesearch.com/yss-garage-sale.jsp?id=196387773",
        "source_names": [
          "YardSaleSearch"
        ],
        "photos": [
          "https://d82cz7nyq77ak.cloudfront.net/images/social/Facebook.png",
          "https://d82cz7nyq77ak.cloudfront.net/images/social/Pinterest.png",
          "https://d82cz7nyq77ak.cloudfront.net/images/social/Reddit.png",
          "https://d82cz7nyq77ak.cloudfront.net/images/social/Twitter.png",
          "https://d82cz7nyq77ak.cloudfront.net/images/social/Email.png",
          "https://eso-cdn.tlcdn.workers.dev/s-2463022-76daplvsa1d6px85-t.jpg"
        ],
        "confidence": 100,
        "verified_at": "2026-09-18T09:49:34-05:00",
        "street_view_url": "https://www.google.com/maps/@?api=1&map_action=pano&viewpoint=29.8198653,-98.0984595",
        "google_maps_url": "https://www.google.com/maps/search/?api=1&query=29.8198653,-98.0984595",
        "status": "verified",
        "geocode_method": "source",
        "notes": "",
        "community_source": "",
        "community_link_or_notes": ""
      }
    },
    {
      "type": "Feature",
      "geometry": {
        "type": "Point",
        "coordinates": [
          -98.4936,
          29.4241
        ]
      },
      "properties": {
        "sale_id": "2026-09-18_3070-rr-32-blanco-tx-78606",
        "title": "Small Estate/garage sale",
        "sale_type": "estate",
        "date_start": "2026-09-18",
        "date_end": "2026-09-20",
        "start_time": "8:00 am - 2:00 pm",
        "end_time": "",
        "address": "3070 Rr 32, Blanco, TX 78606",
        "city": "San Antonio",
        "state": "TX",
        "zip": "",
        "latitude": 29.4241,
        "longitude": -98.4936,
        "description": "Dates and Times: Friday, September 18, 2026 8:00 am - 2:00 pm",
        "highlights": [],
        "source_urls": [
          "https://garagesalefinder.com/s/N9XzL/3070-rr-32-blanco-tx-78606"
        ],
        "original_url": "https://garagesalefinder.com/s/N9XzL/3070-rr-32-blanco-tx-78606",
        "source_names": [
          "GarageSaleFinder"
        ],
        "photos": [
          "https://gsalr.tlstatic.com/image/w150-h100/2026/09/13/s/8/7/38921187/0nMl-0.jpeg",
          "https://gsalr.tlstatic.com/image/w150-h100/2026/09/13/s/8/7/38921187/75dA7-0.jpeg",
          "https://gsalr.tlstatic.com/image/w150-h100/2026/09/13/s/8/7/38921187/77NNR-0.jpeg",
          "https://gsalr.tlstatic.com/image/w150-h100/2026/09/13/s/8/7/38921187/7AJHg-0.jpeg",
          "https://gsalr.tlstatic.com/image/w150-h100/2026/09/13/s/8/7/38921187/7eHMM-0.jpeg",
          "https://gsalr.tlstatic.com/image/w150-h100/2026/09/13/s/8/7/38921187/7pG4y-0.jpeg"
        ],
        "confidence": 100,
        "verified_at": "2026-09-18T09:49:34-05:00",
        "street_view_url": "https://www.google.com/maps/@?api=1&map_action=pano&viewpoint=29.4241,-98.4936",
        "google_maps_url": "https://www.google.com/maps/search/?api=1&query=29.4241,-98.4936",
        "status": "verified",
        "geocode_method": "city-center",
        "notes": "",
        "community_source": "",
        "community_link_or_notes": ""
      }
    },
    {
      "type": "Feature",
      "geometry": {
        "type": "Point",
        "coordinates": [
          -97.9628,
          29.5613
        ]
      },
      "properties": {
        "sale_id": "2026-09-18_631-heathers-way-san-antonio-tx",
        "title": "HUGE Moving Sale!! Everything must go! (Jordan's Creek)",
        "sale_type": "garage",
        "date_start": "2026-09-18",
        "date_end": "2026-09-20",
        "start_time": "",
        "end_time": "",
        "address": "631 Heathers Way, San Antonio, TX",
        "city": "San Antonio",
        "state": "TX",
        "zip": "",
        "latitude": 29.5613,
        "longitude": -97.9628,
        "description": "QR Code Link to This Post HUGE moving sale Saturday and Sunday 9/19-20! 7am-2pm at 631 Heathers Way, Seguin TX 78155. Accepting offers on all items, everything must go!!!! Lawn mower, TVs, CDs, DVDs, books, craft supplies, plus size women's clothes, men's clothes, shoes, holiday and home decor, small furniture, pet supplies, and more!!!!! Cash, Venmo, Cashapp, Zelle accepted.",
        "highlights": [],
        "source_urls": [
          "https://www.craigslist.org/view/d/seguin-huge-moving-sale-everything-must/rA7bY1S6ZjusoHpAwcChAZ"
        ],
        "original_url": "https://www.craigslist.org/view/d/seguin-huge-moving-sale-everything-must/rA7bY1S6ZjusoHpAwcChAZ",
        "source_names": [
          "Craigslist"
        ],
        "photos": [],
        "confidence": 96,
        "verified_at": "2026-09-18T09:49:34-05:00",
        "street_view_url": "https://www.google.com/maps/@?api=1&map_action=pano&viewpoint=29.5613,-97.9628",
        "google_maps_url": "https://www.google.com/maps/search/?api=1&query=29.5613,-97.9628",
        "status": "verified",
        "geocode_method": "source",
        "notes": "",
        "community_source": "",
        "community_link_or_notes": ""
      }
    },
    {
      "type": "Feature",
      "geometry": {
        "type": "Point",
        "coordinates": [
          -98.673011,
          29.504388
        ]
      },
      "properties": {
        "sale_id": "2026-09-18_9558-maidenstone-dr-san-antonio-tx",
        "title": "Huge Antique & Tool Estate Sale",
        "sale_type": "estate",
        "date_start": "2026-09-18",
        "date_end": "2026-09-20",
        "start_time": "",
        "end_time": "",
        "address": "9558 Maidenstone Dr., San Antonio, TX",
        "city": "San Antonio",
        "state": "TX",
        "zip": "",
        "latitude": 29.504388,
        "longitude": -98.673011,
        "description": "QR Code Link to This Post 🔥 VINTAGE TREASURE HUNTERS — THIS IS THE SALE YOU’VE BEEN WAITING FOR! 🔥 Get ready to dig, discover, and treasure hunt through an incredible estate packed with vintage finds, unique pieces, collectibles, and one-of-a-kind treasures! This is the kind of sale where you never know what you’re going to uncover around the next corner. 🏆 Expect to find: • Vintage & antique treasures • Unique collectibles • Furniture & home décor • Artwork & decorative pieces • Kitchenware & h",
        "highlights": [],
        "source_urls": [
          "https://www.craigslist.org/view/d/san-antonio-huge-antique-tool-estate/ovCZwUdoGeWZkkxuSfUgZA"
        ],
        "original_url": "https://www.craigslist.org/view/d/san-antonio-huge-antique-tool-estate/ovCZwUdoGeWZkkxuSfUgZA",
        "source_names": [
          "Craigslist"
        ],
        "photos": [
          "https://images.craigslist.org/00O0O_noMhLcQ9aB_0lM0t2_600x450.jpg",
          "https://images.craigslist.org/00O0O_noMhLcQ9aB_0lM0t2_50x50c.jpg",
          "https://images.craigslist.org/01313_iBbM0SsWlqV_0lM0t2_50x50c.jpg",
          "https://images.craigslist.org/00f0f_dUmRDwth6yM_0lM0t2_50x50c.jpg",
          "https://images.craigslist.org/01616_jDHACAUaric_0lM0t2_50x50c.jpg",
          "https://images.craigslist.org/00e0e_bQ3tSKys5us_0lM0t2_50x50c.jpg"
        ],
        "confidence": 96,
        "verified_at": "2026-09-18T09:49:34-05:00",
        "street_view_url": "https://www.google.com/maps/@?api=1&map_action=pano&viewpoint=29.504388,-98.673011",
        "google_maps_url": "https://www.google.com/maps/search/?api=1&query=29.504388,-98.673011",
        "status": "verified",
        "geocode_method": "source",
        "notes": "",
        "community_source": "",
        "community_link_or_notes": ""
      }
    },
    {
      "type": "Feature",
      "geometry": {
        "type": "Point",
        "coordinates": [
          -98.265,
          29.3805
        ]
      },
      "properties": {
        "sale_id": "2026-09-18_175-wood-valley-san-antonio-tx",
        "title": "Incredible Estate Sale in Adkins (Adkins)",
        "sale_type": "estate",
        "date_start": "2026-09-18",
        "date_end": "2026-09-20",
        "start_time": "",
        "end_time": "",
        "address": "175 Wood Valley, San Antonio, TX",
        "city": "San Antonio",
        "state": "TX",
        "zip": "",
        "latitude": 29.3805,
        "longitude": -98.265,
        "description": "QR Code Link to This Post Cash and all charge cards Bring your own muscle to load large items Not responsible for accidents No Pre Pricing and No Pre Sale No sign up sheets/Just show up and shop The private road to this property will open at 8:00 and we will have a parking plan. You do not want to miss this one. Hope to see ya there!",
        "highlights": [],
        "source_urls": [
          "https://www.craigslist.org/view/d/san-antonio-incredible-estate-sale-in/9jh9nqkVoYRTVmrd8qCK5r"
        ],
        "original_url": "https://www.craigslist.org/view/d/san-antonio-incredible-estate-sale-in/9jh9nqkVoYRTVmrd8qCK5r",
        "source_names": [
          "Craigslist"
        ],
        "photos": [
          "https://images.craigslist.org/00L0L_cKYZNUONpHy_0t20CI_600x450.jpg",
          "https://images.craigslist.org/00L0L_cKYZNUONpHy_0t20CI_50x50c.jpg",
          "https://images.craigslist.org/01616_42nw2B9FVRi_0t20CI_50x50c.jpg",
          "https://images.craigslist.org/00101_4NcGTFHYs3l_0t20CI_50x50c.jpg",
          "https://images.craigslist.org/00y0y_fOfdqfI9OMF_0t20CI_50x50c.jpg",
          "https://images.craigslist.org/00m0m_ilbJBRbjEJp_0t20CI_50x50c.jpg"
        ],
        "confidence": 96,
        "verified_at": "2026-09-18T09:49:34-05:00",
        "street_view_url": "https://www.google.com/maps/@?api=1&map_action=pano&viewpoint=29.3805,-98.265",
        "google_maps_url": "https://www.google.com/maps/search/?api=1&query=29.3805,-98.265",
        "status": "verified",
        "geocode_method": "source",
        "notes": "",
        "community_source": "",
        "community_link_or_notes": ""
      }
    },
    {
      "type": "Feature",
      "geometry": {
        "type": "Point",
        "coordinates": [
          -98.5201,
          29.5894
        ]
      },
      "properties": {
        "sale_id": "2026-09-18_1530-pheasant-ridge-san-antonio-tx",
        "title": "Moving out Garage SALE (San Antonio, Deerfield)",
        "sale_type": "garage",
        "date_start": "2026-09-18",
        "date_end": "2026-09-20",
        "start_time": "",
        "end_time": "",
        "address": "1530 Pheasant Ridge, San Antonio, TX",
        "city": "San Antonio",
        "state": "TX",
        "zip": "",
        "latitude": 29.5894,
        "longitude": -98.5201,
        "description": "QR Code Link to This Post We are moving and everything must go! We have several high-quality, clean, and fully functional major and minor appliances available at great prices. Perfect for students, renters, or anyone looking to upgrade on a budget. Refridgerator, Washer and Dryer, Tile and Grout Cleaner, mop buckets and more. Selling everything. Thursday September 17th to Sunday September 20th. Pickup: First come, first served. No holds unless paid in full. Hauling: You must bring your own truck",
        "highlights": [],
        "source_urls": [
          "https://www.craigslist.org/view/d/san-antonio-moving-out-garage-sale/vocXvPcD2ygxcmpNn9MUU8"
        ],
        "original_url": "https://www.craigslist.org/view/d/san-antonio-moving-out-garage-sale/vocXvPcD2ygxcmpNn9MUU8",
        "source_names": [
          "Craigslist"
        ],
        "photos": [],
        "confidence": 96,
        "verified_at": "2026-09-18T09:49:34-05:00",
        "street_view_url": "https://www.google.com/maps/@?api=1&map_action=pano&viewpoint=29.5894,-98.5201",
        "google_maps_url": "https://www.google.com/maps/search/?api=1&query=29.5894,-98.5201",
        "status": "verified",
        "geocode_method": "source",
        "notes": "",
        "community_source": "",
        "community_link_or_notes": ""
      }
    },
    {
      "type": "Feature",
      "geometry": {
        "type": "Point",
        "coordinates": [
          -98.6094,
          29.556
        ]
      },
      "properties": {
        "sale_id": "2026-09-18_6151-nw-loop-410-san-antonio-tx",
        "title": "Alamo Craft Co. Antiques & More (San Antonio)",
        "sale_type": "garage",
        "date_start": "2026-09-18",
        "date_end": "2026-09-20",
        "start_time": "",
        "end_time": "",
        "address": "6151 NW Loop 410, San Antonio, TX",
        "city": "San Antonio",
        "state": "TX",
        "zip": "",
        "latitude": 29.556,
        "longitude": -98.6094,
        "description": "QR Code Link to This Post OPEN TUES - SAT 10AM-6PM 6151 NW Loop 410, #302 SATX 78238 A hidden gem in San Antonio! Here you'll find unique antiques, vintage items, collectibles, hand-crafted items &amp; so much more. Come by &amp; see all the fun stuff! Ask for your frequent buyer card &amp; get punches with every purchase.",
        "highlights": [],
        "source_urls": [
          "https://www.craigslist.org/view/d/san-antonio-alamo-craft-co-antiques-more/mj6FcRd4ZDr7zwAwc4pwWa"
        ],
        "original_url": "https://www.craigslist.org/view/d/san-antonio-alamo-craft-co-antiques-more/mj6FcRd4ZDr7zwAwc4pwWa",
        "source_names": [
          "Craigslist"
        ],
        "photos": [
          "https://images.craigslist.org/01515_1Xh2ogBe0sZ_0CI0pq_600x450.jpg"
        ],
        "confidence": 96,
        "verified_at": "2026-09-18T09:49:34-05:00",
        "street_view_url": "https://www.google.com/maps/@?api=1&map_action=pano&viewpoint=29.556,-98.6094",
        "google_maps_url": "https://www.google.com/maps/search/?api=1&query=29.556,-98.6094",
        "status": "verified",
        "geocode_method": "source",
        "notes": "",
        "community_source": "",
        "community_link_or_notes": ""
      }
    },
    {
      "type": "Feature",
      "geometry": {
        "type": "Point",
        "coordinates": [
          -98.555367,
          29.411517
        ]
      },
      "properties": {
        "sale_id": "2026-09-18_500-chipinque-san-antonio-tx",
        "title": "Church Yard Sale (San Antonio)",
        "sale_type": "garage",
        "date_start": "2026-09-18",
        "date_end": "2026-09-20",
        "start_time": "",
        "end_time": "",
        "address": "500 Chipinque, San Antonio, TX",
        "city": "San Antonio",
        "state": "TX",
        "zip": "",
        "latitude": 29.411517,
        "longitude": -98.555367,
        "description": "QR Code Link to This Post Huge Church Yard Sale WHEN: Friday, 9/18 @ 9am-2pm AND Saturday, 9/19 @ 7am-2pm WHERE: 500 Chipinque, San Antonio, TX 78237 Church members will be offering a variety of items for sale such as Housewares, Toys, Books, Clothes.—come enjoy browsing through plenty of great finds.",
        "highlights": [],
        "source_urls": [
          "https://www.craigslist.org/view/d/san-antonio-church-yard-sale/dbrgRWPoqU5FQhiEv5gbGF"
        ],
        "original_url": "https://www.craigslist.org/view/d/san-antonio-church-yard-sale/dbrgRWPoqU5FQhiEv5gbGF",
        "source_names": [
          "Craigslist"
        ],
        "photos": [
          "https://images.craigslist.org/00303_lzqCC1DjMgv_0uY0hq_600x450.jpg"
        ],
        "confidence": 96,
        "verified_at": "2026-09-18T09:49:34-05:00",
        "street_view_url": "https://www.google.com/maps/@?api=1&map_action=pano&viewpoint=29.411517,-98.555367",
        "google_maps_url": "https://www.google.com/maps/search/?api=1&query=29.411517,-98.555367",
        "status": "verified",
        "geocode_method": "source",
        "notes": "",
        "community_source": "",
        "community_link_or_notes": ""
      }
    },
    {
      "type": "Feature",
      "geometry": {
        "type": "Point",
        "coordinates": [
          -98.511851,
          29.550033
        ]
      },
      "properties": {
        "sale_id": "2026-09-18_12049-blanco-road-san-antonio-tx",
        "title": "Churchill High School Band Rummage Sale & Car Show (San Antonio, TX)",
        "sale_type": "garage",
        "date_start": "2026-09-18",
        "date_end": "2026-09-20",
        "start_time": "",
        "end_time": "",
        "address": "12049 Blanco Road, San Antonio, TX",
        "city": "San Antonio",
        "state": "TX",
        "zip": "",
        "latitude": 29.550033,
        "longitude": -98.511851,
        "description": "QR Code Link to This Post Join us this Saturday, September 19th from 8 a.m. to 1 p.m. at Churchill High School for the Churchill Band Car Show & Rummage Sale! The Rummage Sale offers great deals on clothing, crafts, household goods, furniture, and more, with more than 25 booths available for browsing. The Car Show features classic cars with categories including Low and Slow, American Muscle, and Hottest Import. All proceeds benefit the Churchill Charger Marching Band. We'll have concessions wait",
        "highlights": [],
        "source_urls": [
          "https://www.craigslist.org/view/d/san-antonio-churchill-high-school-band/k2hi75bBcbNnV1WsJYCa4r"
        ],
        "original_url": "https://www.craigslist.org/view/d/san-antonio-churchill-high-school-band/k2hi75bBcbNnV1WsJYCa4r",
        "source_names": [
          "Craigslist"
        ],
        "photos": [
          "https://images.craigslist.org/00P0P_7Qe7LN7wwGK_0hq0lM_600x450.jpg",
          "https://images.craigslist.org/00P0P_7Qe7LN7wwGK_0hq0lM_50x50c.jpg",
          "https://images.craigslist.org/00000_7l2RuGrutWh_0hq0lM_50x50c.jpg"
        ],
        "confidence": 96,
        "verified_at": "2026-09-18T09:49:34-05:00",
        "street_view_url": "https://www.google.com/maps/@?api=1&map_action=pano&viewpoint=29.550033,-98.511851",
        "google_maps_url": "https://www.google.com/maps/search/?api=1&query=29.550033,-98.511851",
        "status": "verified",
        "geocode_method": "source",
        "notes": "",
        "community_source": "",
        "community_link_or_notes": ""
      }
    },
    {
      "type": "Feature",
      "geometry": {
        "type": "Point",
        "coordinates": [
          -98.4071,
          29.5855
        ]
      },
      "properties": {
        "sale_id": "2026-09-18_3527-green-spring-san-antonio-tx",
        "title": "Furniture for Sale ( please read post!!) (Green Spring Valley)",
        "sale_type": "garage",
        "date_start": "2026-09-18",
        "date_end": "2026-09-20",
        "start_time": "",
        "end_time": "",
        "address": "3527 Green Spring, San Antonio, TX",
        "city": "San Antonio",
        "state": "TX",
        "zip": "",
        "latitude": 29.5855,
        "longitude": -98.4071,
        "description": "QR Code Link to This Post Dresser, Rug, three chairs, a set of side tables, coffee tabls ( one marble) a vintage couch , two vintage lamps pre WW2, and a Flat screen RCA TV and queen bed- all for sale. You will have to send a message just with your name for me to let you in on the 19th or 20th of September from 12-4. I will also be having it from 12-3 on the 25th of Sept. All furniture will need to picked up during these hours as well. I only take cash. Nothing is more than 200 dollars, nothing ",
        "highlights": [],
        "source_urls": [
          "https://www.craigslist.org/view/d/san-antonio-furniture-for-sale-please/84LPLEmaFGUzdHuyK6dFdb"
        ],
        "original_url": "https://www.craigslist.org/view/d/san-antonio-furniture-for-sale-please/84LPLEmaFGUzdHuyK6dFdb",
        "source_names": [
          "Craigslist"
        ],
        "photos": [
          "https://images.craigslist.org/00Q0Q_hYc7ZomrAJa_0t20CI_600x450.jpg",
          "https://images.craigslist.org/00Q0Q_hYc7ZomrAJa_0t20CI_50x50c.jpg",
          "https://images.craigslist.org/00I0I_afhxbL7aFiz_0t20CI_50x50c.jpg",
          "https://images.craigslist.org/00i0i_9bVQyKNjNZD_0CI0t2_50x50c.jpg",
          "https://images.craigslist.org/00U0U_aG1hrrUytuz_0t20CI_50x50c.jpg",
          "https://images.craigslist.org/00404_jGLAxJTb1o_0t20CI_50x50c.jpg"
        ],
        "confidence": 96,
        "verified_at": "2026-09-18T09:49:34-05:00",
        "street_view_url": "https://www.google.com/maps/@?api=1&map_action=pano&viewpoint=29.5855,-98.4071",
        "google_maps_url": "https://www.google.com/maps/search/?api=1&query=29.5855,-98.4071",
        "status": "verified",
        "geocode_method": "source",
        "notes": "",
        "community_source": "",
        "community_link_or_notes": ""
      }
    },
    {
      "type": "Feature",
      "geometry": {
        "type": "Point",
        "coordinates": [
          -98.4477,
          29.3861
        ]
      },
      "properties": {
        "sale_id": "2026-09-18_3606-bremen-near-clark-san-antonio-tx",
        "title": "Garage Sale (San Antonio)",
        "sale_type": "garage",
        "date_start": "2026-09-18",
        "date_end": "2026-09-20",
        "start_time": "",
        "end_time": "",
        "address": "3606 Bremen near Clark, San Antonio, TX",
        "city": "San Antonio",
        "state": "TX",
        "zip": "",
        "latitude": 29.3861,
        "longitude": -98.4477,
        "description": "QR Code Link to This Post Multi Family Garage Sale! Lots of name brand clothing and shoes. JJill, Gap, JCrew, Nike, Lululemon, Polo and many more. Home decor, toys, jewelry, crafts, and lots of misc.",
        "highlights": [],
        "source_urls": [
          "https://www.craigslist.org/view/d/san-antonio-garage-sale/qY4uMaCLWSBhqsvhr7cwKF"
        ],
        "original_url": "https://www.craigslist.org/view/d/san-antonio-garage-sale/qY4uMaCLWSBhqsvhr7cwKF",
        "source_names": [
          "Craigslist"
        ],
        "photos": [
          "https://images.craigslist.org/00p0p_8flY2c31EIK_0CI0t2_600x450.jpg",
          "https://images.craigslist.org/00p0p_8flY2c31EIK_0CI0t2_50x50c.jpg",
          "https://images.craigslist.org/00T0T_ai6MeG2BSeL_0t20CI_50x50c.jpg",
          "https://images.craigslist.org/00C0C_6BW99bpMztM_0t20CI_50x50c.jpg",
          "https://images.craigslist.org/00H0H_3eP8dQkZl2P_0t20CI_50x50c.jpg",
          "https://images.craigslist.org/00Q0Q_8IUcxKzzM5r_0t20CI_50x50c.jpg"
        ],
        "confidence": 96,
        "verified_at": "2026-09-18T09:49:34-05:00",
        "street_view_url": "https://www.google.com/maps/@?api=1&map_action=pano&viewpoint=29.3861,-98.4477",
        "google_maps_url": "https://www.google.com/maps/search/?api=1&query=29.3861,-98.4477",
        "status": "verified",
        "geocode_method": "source",
        "notes": "",
        "community_source": "",
        "community_link_or_notes": ""
      }
    },
    {
      "type": "Feature",
      "geometry": {
        "type": "Point",
        "coordinates": [
          -98.585877,
          29.467521
        ]
      },
      "properties": {
        "sale_id": "2026-09-18_157-faith-drive-near-pearson-san-antonio-tx",
        "title": "Garage Sale - FRI+SAT (Ingram Hills, San Antonio, TX)",
        "sale_type": "garage",
        "date_start": "2026-09-18",
        "date_end": "2026-09-20",
        "start_time": "",
        "end_time": "",
        "address": "157 Faith Drive near Pearson, San Antonio, TX",
        "city": "San Antonio",
        "state": "TX",
        "zip": "",
        "latitude": 29.467521,
        "longitude": -98.585877,
        "description": "QR Code Link to This Post Transport Wheelchair, Furniture. Women's + Men's Clothes and Shoes. Housewares. Art. Decor. More on the way! Fri 8AM - 3PM. Sat 8AM-3PM. Se habla Español.",
        "highlights": [],
        "source_urls": [
          "https://www.craigslist.org/view/d/san-antonio-garage-sale-frisat/1QeFo1wecFo27nXG4D8CiD"
        ],
        "original_url": "https://www.craigslist.org/view/d/san-antonio-garage-sale-frisat/1QeFo1wecFo27nXG4D8CiD",
        "source_names": [
          "Craigslist"
        ],
        "photos": [
          "https://images.craigslist.org/01212_7TbX2p2S3w9_0t20CI_600x450.jpg",
          "https://images.craigslist.org/01212_7TbX2p2S3w9_0t20CI_50x50c.jpg",
          "https://images.craigslist.org/01414_kGyKNSRZOdP_0t20CI_50x50c.jpg",
          "https://images.craigslist.org/00B0B_3MpsNQD8B45_0t20CI_50x50c.jpg",
          "https://images.craigslist.org/01414_a7ov4Mq7CP8_0t20CI_50x50c.jpg",
          "https://images.craigslist.org/00c0c_j0UmZYoFi0Z_0t20CI_50x50c.jpg"
        ],
        "confidence": 96,
        "verified_at": "2026-09-18T09:49:34-05:00",
        "street_view_url": "https://www.google.com/maps/@?api=1&map_action=pano&viewpoint=29.467521,-98.585877",
        "google_maps_url": "https://www.google.com/maps/search/?api=1&query=29.467521,-98.585877",
        "status": "verified",
        "geocode_method": "source",
        "notes": "",
        "community_source": "",
        "community_link_or_notes": ""
      }
    },
    {
      "type": "Feature",
      "geometry": {
        "type": "Point",
        "coordinates": [
          -98.468363,
          29.581422
        ]
      },
      "properties": {
        "sale_id": "2026-09-18_122-rio-bravo-st-san-antonio-tx",
        "title": "Garage Sale in Shady Oaks (Shady Oaks)",
        "sale_type": "garage",
        "date_start": "2026-09-18",
        "date_end": "2026-09-20",
        "start_time": "",
        "end_time": "",
        "address": "122 Rio Bravo St, San Antonio, TX",
        "city": "San Antonio",
        "state": "TX",
        "zip": "",
        "latitude": 29.581422,
        "longitude": -98.468363,
        "description": "QR Code Link to This Post Garage Sale Friday 9/18 &amp; Saturday 9/19 9AM 122 Rio Bravo St San Antonio, Texas 78232 Men &amp; women's clothes Ice chests Housewares Kitchen items Home decor And much more!",
        "highlights": [],
        "source_urls": [
          "https://www.craigslist.org/view/d/san-antonio-garage-sale-in-shady-oaks/qvn1W1RLzZ7UdDcupnPftJ"
        ],
        "original_url": "https://www.craigslist.org/view/d/san-antonio-garage-sale-in-shady-oaks/qvn1W1RLzZ7UdDcupnPftJ",
        "source_names": [
          "Craigslist"
        ],
        "photos": [
          "https://images.craigslist.org/00z0z_g3BLz7w51GR_0t20CI_600x450.jpg"
        ],
        "confidence": 96,
        "verified_at": "2026-09-18T09:49:34-05:00",
        "street_view_url": "https://www.google.com/maps/@?api=1&map_action=pano&viewpoint=29.581422,-98.468363",
        "google_maps_url": "https://www.google.com/maps/search/?api=1&query=29.581422,-98.468363",
        "status": "verified",
        "geocode_method": "source",
        "notes": "",
        "community_source": "",
        "community_link_or_notes": ""
      }
    },
    {
      "type": "Feature",
      "geometry": {
        "type": "Point",
        "coordinates": [
          -98.265281,
          29.6011
        ]
      },
      "properties": {
        "sale_id": "2026-09-18_128-wistoria-ct-san-antonio-tx",
        "title": "Garage sale 9/18 Friday only (Cibolo)",
        "sale_type": "garage",
        "date_start": "2026-09-18",
        "date_end": "2026-09-20",
        "start_time": "",
        "end_time": "",
        "address": "128 Wistoria Ct, San Antonio, TX",
        "city": "San Antonio",
        "state": "TX",
        "zip": "",
        "latitude": 29.6011,
        "longitude": -98.265281,
        "description": "QR Code Link to This Post Tons of items from A to Z start time 0800 till 1230",
        "highlights": [],
        "source_urls": [
          "https://www.craigslist.org/view/d/schertz-garage-sale-18-friday-only/az2UchY6rWN9R4w8GG24eA"
        ],
        "original_url": "https://www.craigslist.org/view/d/schertz-garage-sale-18-friday-only/az2UchY6rWN9R4w8GG24eA",
        "source_names": [
          "Craigslist"
        ],
        "photos": [],
        "confidence": 96,
        "verified_at": "2026-09-18T09:49:34-05:00",
        "street_view_url": "https://www.google.com/maps/@?api=1&map_action=pano&viewpoint=29.6011,-98.265281",
        "google_maps_url": "https://www.google.com/maps/search/?api=1&query=29.6011,-98.265281",
        "status": "verified",
        "geocode_method": "source",
        "notes": "",
        "community_source": "",
        "community_link_or_notes": ""
      }
    },
    {
      "type": "Feature",
      "geometry": {
        "type": "Point",
        "coordinates": [
          -99.1407,
          29.3403
        ]
      },
      "properties": {
        "sale_id": "2026-09-18_1109-27th-street-near-ave-l-san-antonio-tx",
        "title": "Huge Garage Sale!! (Hondo)",
        "sale_type": "garage",
        "date_start": "2026-09-18",
        "date_end": "2026-09-20",
        "start_time": "",
        "end_time": "",
        "address": "1109 27th Street near Ave L, San Antonio, TX",
        "city": "San Antonio",
        "state": "TX",
        "zip": "",
        "latitude": 29.3403,
        "longitude": -99.1407,
        "description": "QR Code Link to This Post We have lots of furniture. Dressers, bunk beds, kitchen hutch, box springs, milking equipment for goats or cows, wench for the front of a truck, bikes, etc. come take a look. I am sure you can find something you need. Saturday September 12th 8am-4pm.",
        "highlights": [],
        "source_urls": [
          "https://www.craigslist.org/view/d/hondo-huge-garage-sale/anZGpjFWaZ8xJVFVyQhoU9"
        ],
        "original_url": "https://www.craigslist.org/view/d/hondo-huge-garage-sale/anZGpjFWaZ8xJVFVyQhoU9",
        "source_names": [
          "Craigslist"
        ],
        "photos": [
          "https://images.craigslist.org/00G0G_6OLTMnHyJfN_0t20CI_600x450.jpg",
          "https://images.craigslist.org/00G0G_6OLTMnHyJfN_0t20CI_50x50c.jpg",
          "https://images.craigslist.org/00505_7nSniECIuI9_0t20CI_50x50c.jpg",
          "https://images.craigslist.org/01111_k9oU10Flt84_0t20CI_50x50c.jpg",
          "https://images.craigslist.org/00u0u_gEQg3UlUR8U_0t20CI_50x50c.jpg",
          "https://images.craigslist.org/00z0z_jpP4DGcpomY_0t20CI_50x50c.jpg"
        ],
        "confidence": 96,
        "verified_at": "2026-09-18T09:49:34-05:00",
        "street_view_url": "https://www.google.com/maps/@?api=1&map_action=pano&viewpoint=29.3403,-99.1407",
        "google_maps_url": "https://www.google.com/maps/search/?api=1&query=29.3403,-99.1407",
        "status": "verified",
        "geocode_method": "source",
        "notes": "",
        "community_source": "",
        "community_link_or_notes": ""
      }
    },
    {
      "type": "Feature",
      "geometry": {
        "type": "Point",
        "coordinates": [
          -98.484342,
          29.452958
        ]
      },
      "properties": {
        "sale_id": "2026-09-18_3107-n-st-marys-st-near-e-mistelto-san-antonio-t",
        "title": "O L S Yard Sale (san antonio)",
        "sale_type": "garage",
        "date_start": "2026-09-18",
        "date_end": "2026-09-20",
        "start_time": "",
        "end_time": "",
        "address": "3107 N. St. Marys St near E. Mistelto, San Antonio, TX",
        "city": "San Antonio",
        "state": "TX",
        "zip": "",
        "latitude": 29.452958,
        "longitude": -98.484342,
        "description": "QR Code Link to This Post Our Lady Of Sorrows Yard Sale clothes, toys, jewlry, dishes, etc.",
        "highlights": [],
        "source_urls": [
          "https://www.craigslist.org/view/d/san-antonio-l-yard-sale/tMpWfrBCdFka9yRyyuiBEV"
        ],
        "original_url": "https://www.craigslist.org/view/d/san-antonio-l-yard-sale/tMpWfrBCdFka9yRyyuiBEV",
        "source_names": [
          "Craigslist"
        ],
        "photos": [
          "https://images.craigslist.org/00V0V_2tbpvLH1Q0K_0bT0ew_600x450.jpg"
        ],
        "confidence": 96,
        "verified_at": "2026-09-18T09:49:34-05:00",
        "street_view_url": "https://www.google.com/maps/@?api=1&map_action=pano&viewpoint=29.452958,-98.484342",
        "google_maps_url": "https://www.google.com/maps/search/?api=1&query=29.452958,-98.484342",
        "status": "verified",
        "geocode_method": "source",
        "notes": "",
        "community_source": "",
        "community_link_or_notes": ""
      }
    }
  ]
}