{
  "type": "FeatureCollection",
  "properties": {
    "target_date": "2026-09-23",
    "generated_at": "2026-09-23T10:22:16-05:00",
    "count": 15,
    "project": "Chicas-Map"
  },
  "features": [
    {
      "type": "Feature",
      "geometry": {
        "type": "Point",
        "coordinates": [
          -98.6050736,
          29.5676137
        ]
      },
      "properties": {
        "sale_id": "2026-09-18_san-antonio-tx-78249",
        "title": "Hart Ranch Treasures & Traditions: Bidding ENDS 9/27/26 @ 7 PM!",
        "sale_type": "estate",
        "date_start": "2026-09-18",
        "date_end": "2026-09-27",
        "start_time": "",
        "end_time": "",
        "address": "San Antonio, TX 78249",
        "city": "San Antonio",
        "state": "TX",
        "zip": "",
        "latitude": 29.5676137,
        "longitude": -98.6050736,
        "description": "Caring Transitions of San Antonio Northwest. Welcome Home to CTBids! We put together an excellent selection of items for you! Start exploring and discover the deals for yourself! Bidding on ALL items starts at $1! This auction features treasures from the estate of a longtime beloved San An...",
        "highlights": [],
        "source_urls": [
          "https://estatesales.org/estate-sales/tx/san-antonio/78249/hart-ranch-treasures-traditions-bidding-2463911"
        ],
        "original_url": "https://estatesales.org/estate-sales/tx/san-antonio/78249/hart-ranch-treasures-traditions-bidding-2463911",
        "source_names": [
          "EstateSales.org"
        ],
        "photos": [
          "https://estatesales.org/uploads/2025/05/30/m/5/2/2632652/4qYyY-1.jpeg",
          "https://estatesales.org/2036244653/css/images/social/facebook.png",
          "https://eso-cdn.tlcdn.workers.dev/s-2463911-pgc4naom08968wi6-t.webp",
          "https://eso-cdn.tlcdn.workers.dev/s-2463911-coxmdut7i2k9kl9m-t.webp",
          "https://eso-cdn.tlcdn.workers.dev/s-2463911-nyu811yxx39mk0n5-t.webp",
          "https://eso-cdn.tlcdn.workers.dev/s-2463911-prgk52fo6vvirlan-t.webp"
        ],
        "confidence": 96,
        "verified_at": "2026-09-23T10:21:51-05:00",
        "street_view_url": "https://www.google.com/maps/@?api=1&map_action=pano&viewpoint=29.5676137,-98.6050736",
        "google_maps_url": "https://www.google.com/maps/search/?api=1&query=29.5676137,-98.6050736",
        "status": "verified",
        "geocode_method": "source",
        "notes": "",
        "community_source": "",
        "community_link_or_notes": ""
      }
    },
    {
      "type": "Feature",
      "geometry": {
        "type": "Point",
        "coordinates": [
          -98.4936,
          29.4241
        ]
      },
      "properties": {
        "sale_id": "2026-09-21_new-braunfels-tx-78130",
        "title": "Hidden Treasures: Pewter, Gold, Sterling Online Auction by Caring Transitions - Ends 9/29!",
        "sale_type": "estate",
        "date_start": "2026-09-21",
        "date_end": "2026-09-29",
        "start_time": "1:15 pm - 11:59 pm",
        "end_time": "",
        "address": "New Braunfels, TX 78130",
        "city": "San Antonio",
        "state": "TX",
        "zip": "",
        "latitude": 29.4241,
        "longitude": -98.4936,
        "description": "Dates and Times: Monday, September 21, 2026 1:15 pm - 11:59 pm",
        "highlights": [],
        "source_urls": [
          "https://garagesalefinder.com/s/N9mJr/new-braunfels-tx-78130"
        ],
        "original_url": "https://garagesalefinder.com/s/N9mJr/new-braunfels-tx-78130",
        "source_names": [
          "GarageSaleFinder"
        ],
        "photos": [
          "https://eso-cdn.tlcdn.workers.dev/s-2464083-jj60s5xydy2ytms8-t.webp",
          "https://eso-cdn.tlcdn.workers.dev/s-2464083-r5a25g9ptqn36qxp-t.webp",
          "https://eso-cdn.tlcdn.workers.dev/s-2464083-sctl2jx1iicjd1b6-t.webp",
          "https://eso-cdn.tlcdn.workers.dev/s-2464083-3eeeqecgk8iuccu0-t.webp",
          "https://eso-cdn.tlcdn.workers.dev/s-2464083-xq3m45u2y0ea1xf1-t.webp",
          "https://eso-cdn.tlcdn.workers.dev/s-2464083-dev9t3ktnae1nt2q-t.webp"
        ],
        "confidence": 100,
        "verified_at": "2026-09-23T10:21:51-05:00",
        "street_view_url": "https://www.google.com/maps/@?api=1&map_action=pano&viewpoint=29.4241,-98.4936",
        "google_maps_url": "https://www.google.com/maps/search/?api=1&query=29.4241,-98.4936",
        "status": "verified",
        "geocode_method": "city-center",
        "notes": "",
        "community_source": "",
        "community_link_or_notes": ""
      }
    },
    {
      "type": "Feature",
      "geometry": {
        "type": "Point",
        "coordinates": [
          -98.1672,
          29.6636
        ]
      },
      "properties": {
        "sale_id": "2026-09-23_us-35n-near-cibilo-valley-exit-san-antonio-tx",
        "title": "Unbelievable collection liquidation (Schertz)",
        "sale_type": "estate",
        "date_start": "2026-09-23",
        "date_end": "2026-09-25",
        "start_time": "",
        "end_time": "",
        "address": "US 35n near Cibilo Valley exit, San Antonio, TX",
        "city": "San Antonio",
        "state": "TX",
        "zip": "",
        "latitude": 29.6636,
        "longitude": -98.1672,
        "description": "QR Code Link to This Post Attention Resellers!!! Huge sell off liquidation of decades of collecting!!! Starting Saturday-Sunday oct 3rd and 4th Booths 383 and 306 at Busseys flea market Front aisle right of the parking lot. See pics. More and more new inventory every weekend until December.",
        "highlights": [],
        "source_urls": [
          "https://www.craigslist.org/view/d/new-braunfels-unbelievable-collection/6mxMeJuTorrrK9csPPdpLv"
        ],
        "original_url": "https://www.craigslist.org/view/d/new-braunfels-unbelievable-collection/6mxMeJuTorrrK9csPPdpLv",
        "source_names": [
          "Craigslist"
        ],
        "photos": [
          "https://images.craigslist.org/00d0d_aB3U1uqnde5_0t20CI_600x450.jpg",
          "https://images.craigslist.org/00d0d_aB3U1uqnde5_0t20CI_50x50c.jpg",
          "https://images.craigslist.org/00J0J_ifHhBWwTJbp_0t20CI_50x50c.jpg",
          "https://images.craigslist.org/00c0c_3xG8m02OOSm_0t20CI_50x50c.jpg",
          "https://images.craigslist.org/00j0j_6Ih1vy3d1X_0t20CI_50x50c.jpg",
          "https://images.craigslist.org/00q0q_4rTQI2Bx814_0t20CI_50x50c.jpg"
        ],
        "confidence": 96,
        "verified_at": "2026-09-23T10:21:51-05:00",
        "street_view_url": "https://www.google.com/maps/@?api=1&map_action=pano&viewpoint=29.6636,-98.1672",
        "google_maps_url": "https://www.google.com/maps/search/?api=1&query=29.6636,-98.1672",
        "status": "verified",
        "geocode_method": "source",
        "notes": "",
        "community_source": "",
        "community_link_or_notes": ""
      }
    },
    {
      "type": "Feature",
      "geometry": {
        "type": "Point",
        "coordinates": [
          -98.6094,
          29.556
        ]
      },
      "properties": {
        "sale_id": "2026-09-23_6151-nw-loop-410-san-antonio-tx",
        "title": "Alamo Craft Co. Antiques & More (San Antonio)",
        "sale_type": "garage",
        "date_start": "2026-09-23",
        "date_end": "2026-09-25",
        "start_time": "",
        "end_time": "",
        "address": "6151 NW Loop 410, San Antonio, TX",
        "city": "San Antonio",
        "state": "TX",
        "zip": "",
        "latitude": 29.556,
        "longitude": -98.6094,
        "description": "QR Code Link to This Post OPEN TUES - SAT 10AM-6PM 6151 NW Loop 410, #302 SATX 78238 A hidden gem in San Antonio! Here you'll find unique antiques, vintage items, collectibles, hand-crafted items &amp; so much more. Come by &amp; see all the fun stuff! Ask for your frequent buyer card &amp; get punches with every purchase.",
        "highlights": [],
        "source_urls": [
          "https://www.craigslist.org/view/d/san-antonio-alamo-craft-co-antiques-more/mj6FcRd4ZDr7zwAwc4pwWa"
        ],
        "original_url": "https://www.craigslist.org/view/d/san-antonio-alamo-craft-co-antiques-more/mj6FcRd4ZDr7zwAwc4pwWa",
        "source_names": [
          "Craigslist"
        ],
        "photos": [
          "https://images.craigslist.org/01515_1Xh2ogBe0sZ_0CI0pq_600x450.jpg"
        ],
        "confidence": 96,
        "verified_at": "2026-09-23T10:21:51-05:00",
        "street_view_url": "https://www.google.com/maps/@?api=1&map_action=pano&viewpoint=29.556,-98.6094",
        "google_maps_url": "https://www.google.com/maps/search/?api=1&query=29.556,-98.6094",
        "status": "verified",
        "geocode_method": "source",
        "notes": "",
        "community_source": "",
        "community_link_or_notes": ""
      }
    },
    {
      "type": "Feature",
      "geometry": {
        "type": "Point",
        "coordinates": [
          -98.3446,
          29.4492
        ]
      },
      "properties": {
        "sale_id": "2026-09-23_i-35-near-splash-town-san-antonio-tx",
        "title": "Craftsman Band Saw & Radial Saw (SAN ANTONIO)",
        "sale_type": "garage",
        "date_start": "2026-09-23",
        "date_end": "2026-09-25",
        "start_time": "",
        "end_time": "",
        "address": "I-35 near SPLASH TOWN, San Antonio, TX",
        "city": "San Antonio",
        "state": "TX",
        "zip": "",
        "latitude": 29.4492,
        "longitude": -98.3446,
        "description": "QR Code Link to This Post CRAFTSMAN BAND SAW AND RADIAL SAW. FULLY FUNCTIONAL. $225.00 EACH $425.00 BOTH",
        "highlights": [],
        "source_urls": [
          "https://www.craigslist.org/view/d/san-antonio-craftsman-band-saw-radial/rcBAbp78KXim4TvGrxRsG9"
        ],
        "original_url": "https://www.craigslist.org/view/d/san-antonio-craftsman-band-saw-radial/rcBAbp78KXim4TvGrxRsG9",
        "source_names": [
          "Craigslist"
        ],
        "photos": [
          "https://images.craigslist.org/00l0l_cpnOJ2SDATg_0lR0t2_600x450.jpg",
          "https://images.craigslist.org/00l0l_cpnOJ2SDATg_0lR0t2_50x50c.jpg",
          "https://images.craigslist.org/00z0z_5NresRz7TCr_0lR0t2_50x50c.jpg",
          "https://images.craigslist.org/00o0o_gzpRqy4Mw9z_0Cz0t2_50x50c.jpg",
          "https://images.craigslist.org/00Y0Y_4VV5QkLII9R_0Cz0t2_50x50c.jpg"
        ],
        "confidence": 96,
        "verified_at": "2026-09-23T10:21:51-05:00",
        "street_view_url": "https://www.google.com/maps/@?api=1&map_action=pano&viewpoint=29.4492,-98.3446",
        "google_maps_url": "https://www.google.com/maps/search/?api=1&query=29.4492,-98.3446",
        "status": "verified",
        "geocode_method": "source",
        "notes": "",
        "community_source": "",
        "community_link_or_notes": ""
      }
    },
    {
      "type": "Feature",
      "geometry": {
        "type": "Point",
        "coordinates": [
          -98.4071,
          29.5855
        ]
      },
      "properties": {
        "sale_id": "2026-09-23_3527-green-spring-san-antonio-tx",
        "title": "Furniture for Sale ( please read post, ty) (Green Spring Valley)",
        "sale_type": "garage",
        "date_start": "2026-09-23",
        "date_end": "2026-09-25",
        "start_time": "",
        "end_time": "",
        "address": "3527 Green Spring, San Antonio, TX",
        "city": "San Antonio",
        "state": "TX",
        "zip": "",
        "latitude": 29.5855,
        "longitude": -98.4071,
        "description": "QR Code Link to This Post Dresser ($60)Rugs ($60) three chairs ($70 a piece) a set of side tables set ( $60) coffee table mirror ($75) ( one marble $200) , two vintage lamps pre WW2 ( set $70) and a Flat screen RCA TV with mount controls and manual ( $160) and queen bed ($225 - very clean, pretty iron and so comfy). You will have to send a message just with your name for me to let you in on 25th of September between 12-4. All furniture will need to picked up during these hours as well. I only ta",
        "highlights": [],
        "source_urls": [
          "https://www.craigslist.org/view/d/san-antonio-furniture-for-sale-please/84LPLEmaFGUzdHuyK6dFdb"
        ],
        "original_url": "https://www.craigslist.org/view/d/san-antonio-furniture-for-sale-please/84LPLEmaFGUzdHuyK6dFdb",
        "source_names": [
          "Craigslist"
        ],
        "photos": [
          "https://images.craigslist.org/00Q0Q_hYc7ZomrAJa_0t20CI_600x450.jpg",
          "https://images.craigslist.org/00Q0Q_hYc7ZomrAJa_0t20CI_50x50c.jpg",
          "https://images.craigslist.org/00I0I_afhxbL7aFiz_0t20CI_50x50c.jpg",
          "https://images.craigslist.org/00i0i_9bVQyKNjNZD_0CI0t2_50x50c.jpg",
          "https://images.craigslist.org/00U0U_aG1hrrUytuz_0t20CI_50x50c.jpg",
          "https://images.craigslist.org/00404_jGLAxJTb1o_0t20CI_50x50c.jpg"
        ],
        "confidence": 96,
        "verified_at": "2026-09-23T10:21:51-05:00",
        "street_view_url": "https://www.google.com/maps/@?api=1&map_action=pano&viewpoint=29.5855,-98.4071",
        "google_maps_url": "https://www.google.com/maps/search/?api=1&query=29.5855,-98.4071",
        "status": "verified",
        "geocode_method": "source",
        "notes": "",
        "community_source": "",
        "community_link_or_notes": ""
      }
    },
    {
      "type": "Feature",
      "geometry": {
        "type": "Point",
        "coordinates": [
          -98.726,
          29.4186
        ]
      },
      "properties": {
        "sale_id": "2026-09-23_11642-wayward-daisy-near-american-lotus-san-anto",
        "title": "Garage Sale (San Antonio)",
        "sale_type": "garage",
        "date_start": "2026-09-23",
        "date_end": "2026-09-25",
        "start_time": "",
        "end_time": "",
        "address": "11642 Wayward Daisy near American Lotus, San Antonio, TX",
        "city": "San Antonio",
        "state": "TX",
        "zip": "",
        "latitude": 29.4186,
        "longitude": -98.726,
        "description": "QR Code Link to This Post Garage Sale - Amhurst Subdivision Community Sale Exercise weights. Kirby Vacuum Cleaner Lularoe legging, tops, and dresses. Women’s clothing, Men’s clothing. IKEA patio tiles. Halloween lighted arch and decor and so much more. All items priced to move!",
        "highlights": [],
        "source_urls": [
          "https://www.craigslist.org/view/d/san-antonio-garage-sale/pxYNWRryiZ7XqvtUogrrih"
        ],
        "original_url": "https://www.craigslist.org/view/d/san-antonio-garage-sale/pxYNWRryiZ7XqvtUogrrih",
        "source_names": [
          "Craigslist"
        ],
        "photos": [],
        "confidence": 96,
        "verified_at": "2026-09-23T10:21:51-05:00",
        "street_view_url": "https://www.google.com/maps/@?api=1&map_action=pano&viewpoint=29.4186,-98.726",
        "google_maps_url": "https://www.google.com/maps/search/?api=1&query=29.4186,-98.726",
        "status": "verified",
        "geocode_method": "source",
        "notes": "",
        "community_source": "",
        "community_link_or_notes": ""
      }
    },
    {
      "type": "Feature",
      "geometry": {
        "type": "Point",
        "coordinates": [
          -98.4975,
          29.5334
        ]
      },
      "properties": {
        "sale_id": "2026-09-23_102-waxwood-lane-near-waring-san-antonio-tx",
        "title": "Garage Sale (airport) (San Antonio)",
        "sale_type": "garage",
        "date_start": "2026-09-23",
        "date_end": "2026-09-25",
        "start_time": "",
        "end_time": "",
        "address": "102 Waxwood Lane near Waring, San Antonio, TX",
        "city": "San Antonio",
        "state": "TX",
        "zip": "",
        "latitude": 29.5334,
        "longitude": -98.4975,
        "description": "QR Code Link to This Post Multi-family yard sale coming soon. Household items, clothing, shoes, holiday decor so much more. No cash apps!! Various vendors so various people to pay.. No large bills!!! 102 Waxwood Ln sale will be located at back of the house",
        "highlights": [],
        "source_urls": [
          "https://www.craigslist.org/view/d/san-antonio-garage-sale-airport/mWq6wFt17W8ffp4hNwi94W"
        ],
        "original_url": "https://www.craigslist.org/view/d/san-antonio-garage-sale-airport/mWq6wFt17W8ffp4hNwi94W",
        "source_names": [
          "Craigslist"
        ],
        "photos": [
          "https://images.craigslist.org/00e0e_kSDSX2LnQt7_02X04r_600x450.jpg",
          "https://images.craigslist.org/00e0e_kSDSX2LnQt7_02X04r_50x50c.jpg",
          "https://images.craigslist.org/00H0H_DyBY87jn6B_0t20CI_50x50c.jpg",
          "https://images.craigslist.org/00I0I_g4Jsj86YtNz_0gb0t2_50x50c.jpg",
          "https://images.craigslist.org/00Q0Q_atkH0j0Oi2t_04b038_50x50c.jpg",
          "https://images.craigslist.org/00n0n_gT1LzrTWQOH_0ao0an_50x50c.jpg"
        ],
        "confidence": 96,
        "verified_at": "2026-09-23T10:21:51-05:00",
        "street_view_url": "https://www.google.com/maps/@?api=1&map_action=pano&viewpoint=29.5334,-98.4975",
        "google_maps_url": "https://www.google.com/maps/search/?api=1&query=29.5334,-98.4975",
        "status": "verified",
        "geocode_method": "source",
        "notes": "",
        "community_source": "",
        "community_link_or_notes": ""
      }
    },
    {
      "type": "Feature",
      "geometry": {
        "type": "Point",
        "coordinates": [
          -98.443991,
          29.600465
        ]
      },
      "properties": {
        "sale_id": "2026-09-23_3118-sable-creek-near-bulverde-and-evans-rd-san-",
        "title": "Garage sale (San Antonio)",
        "sale_type": "garage",
        "date_start": "2026-09-23",
        "date_end": "2026-09-25",
        "start_time": "",
        "end_time": "",
        "address": "3118 Sable Creek near Bulverde and Evans Rd, San Antonio, TX",
        "city": "San Antonio",
        "state": "TX",
        "zip": "",
        "latitude": 29.600465,
        "longitude": -98.443991,
        "description": "QR Code Link to This Post Evans Ranch Community Sale…..visit us we have Furniture, cloths, Xmas decor, bikes and more",
        "highlights": [],
        "source_urls": [
          "https://www.craigslist.org/view/d/san-antonio-garage-sale/mbuJz7fN3a5Hosk6RzmBbR"
        ],
        "original_url": "https://www.craigslist.org/view/d/san-antonio-garage-sale/mbuJz7fN3a5Hosk6RzmBbR",
        "source_names": [
          "Craigslist"
        ],
        "photos": [
          "https://images.craigslist.org/00k0k_9ODUBOTHTLe_0t20CI_600x450.jpg",
          "https://images.craigslist.org/00k0k_9ODUBOTHTLe_0t20CI_50x50c.jpg",
          "https://images.craigslist.org/00F0F_kCY9T2VBUb8_0t20CI_50x50c.jpg",
          "https://images.craigslist.org/00V0V_RfNDtXwJnB_0t20CI_50x50c.jpg",
          "https://images.craigslist.org/00C0C_fzRgUqBS8Fa_0t20CI_50x50c.jpg"
        ],
        "confidence": 96,
        "verified_at": "2026-09-23T10:21:51-05:00",
        "street_view_url": "https://www.google.com/maps/@?api=1&map_action=pano&viewpoint=29.600465,-98.443991",
        "google_maps_url": "https://www.google.com/maps/search/?api=1&query=29.600465,-98.443991",
        "status": "verified",
        "geocode_method": "source",
        "notes": "",
        "community_source": "",
        "community_link_or_notes": ""
      }
    },
    {
      "type": "Feature",
      "geometry": {
        "type": "Point",
        "coordinates": [
          -98.532439,
          29.467858
        ]
      },
      "properties": {
        "sale_id": "2026-09-23_238-quentin-near-fredericksburg-rd-san-antonio-t",
        "title": "Multi Family Garage Sale",
        "sale_type": "garage",
        "date_start": "2026-09-23",
        "date_end": "2026-09-25",
        "start_time": "",
        "end_time": "",
        "address": "238 Quentin near Fredericksburg Rd, San Antonio, TX",
        "city": "San Antonio",
        "state": "TX",
        "zip": "",
        "latitude": 29.467858,
        "longitude": -98.532439,
        "description": "QR Code Link to This Post 2 GIRA Paseo Ozone bicycles, 1 weight bench set, 1 Singer 1950’s ArtDeco sewing machine, plants, Daniel Cremieux men’s clothing, 1950’s Christmas tree, Christmas items, 8 place setting of Royal Vienna Collection, BarcaLounger, plants and more.",
        "highlights": [],
        "source_urls": [
          "https://www.craigslist.org/view/d/san-antonio-multi-family-garage-sale/jToBGX3jMqpZ8SaZokwAc8"
        ],
        "original_url": "https://www.craigslist.org/view/d/san-antonio-multi-family-garage-sale/jToBGX3jMqpZ8SaZokwAc8",
        "source_names": [
          "Craigslist"
        ],
        "photos": [
          "https://images.craigslist.org/00Z0Z_6eUjxVG3LiC_0t20CI_600x450.jpg",
          "https://images.craigslist.org/00Z0Z_6eUjxVG3LiC_0t20CI_50x50c.jpg",
          "https://images.craigslist.org/00g0g_jRPLldRGZMy_0t20CI_50x50c.jpg",
          "https://images.craigslist.org/00q0q_SyfGrk4aNf_0t20CI_50x50c.jpg",
          "https://images.craigslist.org/00X0X_dR3WEdrcqSa_0t20CI_50x50c.jpg",
          "https://images.craigslist.org/00w0w_jJoMkSJMgfw_0t20CI_50x50c.jpg"
        ],
        "confidence": 96,
        "verified_at": "2026-09-23T10:21:51-05:00",
        "street_view_url": "https://www.google.com/maps/@?api=1&map_action=pano&viewpoint=29.467858,-98.532439",
        "google_maps_url": "https://www.google.com/maps/search/?api=1&query=29.467858,-98.532439",
        "status": "verified",
        "geocode_method": "source",
        "notes": "",
        "community_source": "",
        "community_link_or_notes": ""
      }
    },
    {
      "type": "Feature",
      "geometry": {
        "type": "Point",
        "coordinates": [
          -98.503,
          29.5183
        ]
      },
      "properties": {
        "sale_id": "2026-09-23_nw-loop-410-near-blanco-rd-san-antonio-tx",
        "title": "NOW OPEN! The Collective Boutiques (San Antonio)",
        "sale_type": "garage",
        "date_start": "2026-09-23",
        "date_end": "2026-09-25",
        "start_time": "",
        "end_time": "",
        "address": "NW Loop 410 near Blanco Rd., San Antonio, TX",
        "city": "San Antonio",
        "state": "TX",
        "zip": "",
        "latitude": 29.5183,
        "longitude": -98.503,
        "description": "QR Code Link to This Post Open Everyday. Mon- Sun 10am-8pm 522 NW Loop 410, SATX 78216 Newly opened indoor vendor market in San Antonio featuring unique apparel, home goods, gifts, vintage items, antiques &amp; so much more! Deli &amp; tea room located inside. Clean restrooms. Come stop by &amp; look &amp; shop!",
        "highlights": [],
        "source_urls": [
          "https://www.craigslist.org/view/d/san-antonio-now-open-the-collective/a9UPVs8b9XgmEsUh6iVZ1m"
        ],
        "original_url": "https://www.craigslist.org/view/d/san-antonio-now-open-the-collective/a9UPVs8b9XgmEsUh6iVZ1m",
        "source_names": [
          "Craigslist"
        ],
        "photos": [
          "https://images.craigslist.org/00303_fJujeiiUakX_0CI0eX_600x450.jpg"
        ],
        "confidence": 96,
        "verified_at": "2026-09-23T10:21:51-05:00",
        "street_view_url": "https://www.google.com/maps/@?api=1&map_action=pano&viewpoint=29.5183,-98.503",
        "google_maps_url": "https://www.google.com/maps/search/?api=1&query=29.5183,-98.503",
        "status": "verified",
        "geocode_method": "source",
        "notes": "",
        "community_source": "",
        "community_link_or_notes": ""
      }
    },
    {
      "type": "Feature",
      "geometry": {
        "type": "Point",
        "coordinates": [
          -98.229532,
          29.903514
        ]
      },
      "properties": {
        "sale_id": "2026-09-23_22333-fm-306-near-fm-484-san-antonio-tx",
        "title": "EPIC Estate Sale",
        "sale_type": "estate",
        "date_start": "2026-09-23",
        "date_end": "2026-09-25",
        "start_time": "8:00 AM to 5:00 PM",
        "end_time": "",
        "address": "22333 FM 306 near FM 484, San Antonio, TX",
        "city": "San Antonio",
        "state": "TX",
        "zip": "",
        "latitude": 29.903514,
        "longitude": -98.229532,
        "description": "QR Code Link to This Post Furniture. Antiques. Contractors Supplies. Tools. Patio. Kitchen goods. Decor. Auto. Farm. Recliners. Barber chairs. 1964 Mercury Park Lane. CASH ONLY. ALL SALES FINAL. Bring help to load.",
        "highlights": [],
        "source_urls": [
          "https://www.craigslist.org/view/d/canyon-lake-epic-estate-sale/ofF5mGiBJ1TNUJZ4yA976w"
        ],
        "original_url": "https://www.craigslist.org/view/d/canyon-lake-epic-estate-sale/ofF5mGiBJ1TNUJZ4yA976w",
        "source_names": [
          "Craigslist"
        ],
        "photos": [
          "https://images.craigslist.org/00606_iCQ7Ht12OhR_0iz0t2_600x450.jpg",
          "https://images.craigslist.org/00606_iCQ7Ht12OhR_0iz0t2_50x50c.jpg",
          "https://images.craigslist.org/00G0G_jBJkB7SEkSE_0pL0t2_50x50c.jpg",
          "https://images.craigslist.org/00x0x_1Qushl22LV2_0CI0pc_50x50c.jpg",
          "https://images.craigslist.org/00p0p_8ahysHIDGsy_0CI0qf_50x50c.jpg",
          "https://images.craigslist.org/00U0U_erroiOv0Beq_0iT0t2_50x50c.jpg"
        ],
        "confidence": 100,
        "verified_at": "2026-09-23T10:21:51-05:00",
        "street_view_url": "https://www.google.com/maps/@?api=1&map_action=pano&viewpoint=29.903514,-98.229532",
        "google_maps_url": "https://www.google.com/maps/search/?api=1&query=29.903514,-98.229532",
        "status": "verified",
        "geocode_method": "source",
        "notes": "",
        "community_source": "",
        "community_link_or_notes": ""
      }
    },
    {
      "type": "Feature",
      "geometry": {
        "type": "Point",
        "coordinates": [
          -98.684349,
          29.403957
        ]
      },
      "properties": {
        "sale_id": "2026-09-23_2822-fisher-field-dr-san-antonio-tx",
        "title": "Estate Sale",
        "sale_type": "estate",
        "date_start": "2026-09-23",
        "date_end": "2026-09-25",
        "start_time": "",
        "end_time": "",
        "address": "2822 Fisher Field dr, San Antonio, TX",
        "city": "San Antonio",
        "state": "TX",
        "zip": "",
        "latitude": 29.403957,
        "longitude": -98.684349,
        "description": "QR Code Link to This Post Ethan Allan chairs, hutch, coffee table,end table Pub table Vintage Crackle glass Bedroom suite More Priced to move 2822 Fisher Field dr San Antonio 78245",
        "highlights": [],
        "source_urls": [
          "https://www.craigslist.org/view/d/san-antonio-estate-sale/wNXYDStkCmf9vnK2Aa8D7T"
        ],
        "original_url": "https://www.craigslist.org/view/d/san-antonio-estate-sale/wNXYDStkCmf9vnK2Aa8D7T",
        "source_names": [
          "Craigslist"
        ],
        "photos": [
          "https://images.craigslist.org/00505_gTL88URs0RL_0t20CI_600x450.jpg",
          "https://images.craigslist.org/00505_gTL88URs0RL_0t20CI_50x50c.jpg",
          "https://images.craigslist.org/00y0y_lpBSH8Pgkhg_0t20CI_50x50c.jpg",
          "https://images.craigslist.org/00N0N_aW9uiO8832t_0CI0t2_50x50c.jpg",
          "https://images.craigslist.org/00v0v_gaggmYCmozY_0t20CI_50x50c.jpg",
          "https://images.craigslist.org/00808_2nSmHefqIkA_0t20CI_50x50c.jpg"
        ],
        "confidence": 96,
        "verified_at": "2026-09-23T10:21:51-05:00",
        "street_view_url": "https://www.google.com/maps/@?api=1&map_action=pano&viewpoint=29.403957,-98.684349",
        "google_maps_url": "https://www.google.com/maps/search/?api=1&query=29.403957,-98.684349",
        "status": "verified",
        "geocode_method": "source",
        "notes": "",
        "community_source": "",
        "community_link_or_notes": ""
      }
    },
    {
      "type": "Feature",
      "geometry": {
        "type": "Point",
        "coordinates": [
          -98.1123,
          30.0265
        ]
      },
      "properties": {
        "sale_id": "2026-09-23_22333-fm306-san-antonio-tx",
        "title": "HUGE GARAGE SALE",
        "sale_type": "garage",
        "date_start": "2026-09-23",
        "date_end": "2026-09-25",
        "start_time": "",
        "end_time": "",
        "address": "22333 FM306, San Antonio, TX",
        "city": "San Antonio",
        "state": "TX",
        "zip": "",
        "latitude": 30.0265,
        "longitude": -98.1123,
        "description": "QR Code Link to This Post Furniture and Antique Furniture. Tools. Builders Supplies. Automobile accessories. Kitchen and Decorative items. Patio furniture. Farm items. CASH ONLY. ALL SALES FINAL. Bring help to load.",
        "highlights": [],
        "source_urls": [
          "https://www.craigslist.org/view/d/wimberley-huge-garage-sale/ew9erGiotwcS6Wk8jNsYY1"
        ],
        "original_url": "https://www.craigslist.org/view/d/wimberley-huge-garage-sale/ew9erGiotwcS6Wk8jNsYY1",
        "source_names": [
          "Craigslist"
        ],
        "photos": [
          "https://images.craigslist.org/00606_iCQ7Ht12OhR_0iz0t2_600x450.jpg",
          "https://images.craigslist.org/00606_iCQ7Ht12OhR_0iz0t2_50x50c.jpg",
          "https://images.craigslist.org/00b0b_gfl6oFAgr5b_0s40t2_50x50c.jpg",
          "https://images.craigslist.org/01212_a3DleuGM65V_0AR0t2_50x50c.jpg",
          "https://images.craigslist.org/00a0a_j8QNXdhyRXQ_0h60t2_50x50c.jpg",
          "https://images.craigslist.org/00U0U_erroiOv0Beq_0iT0t2_50x50c.jpg"
        ],
        "confidence": 96,
        "verified_at": "2026-09-23T10:21:51-05:00",
        "street_view_url": "https://www.google.com/maps/@?api=1&map_action=pano&viewpoint=30.0265,-98.1123",
        "google_maps_url": "https://www.google.com/maps/search/?api=1&query=30.0265,-98.1123",
        "status": "verified",
        "geocode_method": "source",
        "notes": "",
        "community_source": "",
        "community_link_or_notes": ""
      }
    },
    {
      "type": "Feature",
      "geometry": {
        "type": "Point",
        "coordinates": [
          -98.4936,
          29.4241
        ]
      },
      "properties": {
        "sale_id": "2026-09-23_blanco-tx-78606",
        "title": "Blanco Heritage & Handiwork Online Auction by Caring Transitions - Ends 9/30!",
        "sale_type": "estate",
        "date_start": "2026-09-23",
        "date_end": "2026-09-30",
        "start_time": "10:45 am - 11:59 pm",
        "end_time": "",
        "address": "Blanco, TX 78606",
        "city": "San Antonio",
        "state": "TX",
        "zip": "",
        "latitude": 29.4241,
        "longitude": -98.4936,
        "description": "Dates and Times: Wednesday, September 23, 2026 10:45 am - 11:59 pm",
        "highlights": [],
        "source_urls": [
          "https://garagesalefinder.com/s/N9mK2/blanco-tx-78606"
        ],
        "original_url": "https://garagesalefinder.com/s/N9mK2/blanco-tx-78606",
        "source_names": [
          "GarageSaleFinder"
        ],
        "photos": [
          "https://eso-cdn.tlcdn.workers.dev/s-2464499-4bdel3778sa8uc9d-t.webp",
          "https://eso-cdn.tlcdn.workers.dev/s-2464499-psfbr47hbfi3ou3z-t.webp",
          "https://eso-cdn.tlcdn.workers.dev/s-2464499-o7qwrvloph90gp9e-t.webp",
          "https://eso-cdn.tlcdn.workers.dev/s-2464499-5b2j4vpstm02xp09-t.webp",
          "https://eso-cdn.tlcdn.workers.dev/s-2464499-nz7ktk5463n4gtjq-t.webp",
          "https://eso-cdn.tlcdn.workers.dev/s-2464499-czoqjg8gwz39ot42-t.webp"
        ],
        "confidence": 100,
        "verified_at": "2026-09-23T10:21:51-05:00",
        "street_view_url": "https://www.google.com/maps/@?api=1&map_action=pano&viewpoint=29.4241,-98.4936",
        "google_maps_url": "https://www.google.com/maps/search/?api=1&query=29.4241,-98.4936",
        "status": "verified",
        "geocode_method": "city-center",
        "notes": "",
        "community_source": "",
        "community_link_or_notes": ""
      }
    }
  ]
}