{
  "type": "FeatureCollection",
  "properties": {
    "target_date": "2026-10-02",
    "generated_at": "2026-10-02T05:15:24-05:00",
    "count": 18,
    "project": "Chicas-Map"
  },
  "features": [
    {
      "type": "Feature",
      "geometry": {
        "type": "Point",
        "coordinates": [
          -98.6094,
          29.556
        ]
      },
      "properties": {
        "sale_id": "2026-10-02_6151-nw-loop-410-san-antonio-tx",
        "title": "Alamo Craft Co. Antiques & More (San Antonio)",
        "sale_type": "garage",
        "date_start": "2026-10-02",
        "date_end": "2026-10-04",
        "start_time": "",
        "end_time": "",
        "address": "6151 NW Loop 410, San Antonio, TX",
        "city": "San Antonio",
        "state": "TX",
        "zip": "",
        "latitude": 29.556,
        "longitude": -98.6094,
        "description": "QR Code Link to This Post OPEN TUES - SAT 10AM-6PM 6151 NW Loop 410, #302 SATX 78238 A hidden gem in San Antonio! Here you'll find unique antiques, vintage items, collectibles, hand-crafted items &amp; so much more. Come by &amp; see all the fun stuff! Ask for your frequent buyer card &amp; get punches with every purchase.",
        "highlights": [],
        "source_urls": [
          "https://www.craigslist.org/view/d/san-antonio-alamo-craft-co-antiques-more/mj6FcRd4ZDr7zwAwc4pwWa"
        ],
        "original_url": "https://www.craigslist.org/view/d/san-antonio-alamo-craft-co-antiques-more/mj6FcRd4ZDr7zwAwc4pwWa",
        "source_names": [
          "Craigslist"
        ],
        "photos": [
          "https://images.craigslist.org/01515_1Xh2ogBe0sZ_0CI0pq_600x450.jpg"
        ],
        "confidence": 96,
        "verified_at": "2026-10-02T05:14:54-05:00",
        "street_view_url": "https://www.google.com/maps/@?api=1&map_action=pano&viewpoint=29.556,-98.6094",
        "google_maps_url": "https://www.google.com/maps/search/?api=1&query=29.556,-98.6094",
        "status": "verified",
        "geocode_method": "source",
        "notes": "",
        "community_source": "",
        "community_link_or_notes": ""
      }
    },
    {
      "type": "Feature",
      "geometry": {
        "type": "Point",
        "coordinates": [
          -98.5054,
          29.3309
        ]
      },
      "properties": {
        "sale_id": "2026-10-02_11319-par-one-san-antonio-tx",
        "title": "Closing Air BnB Garage Sale",
        "sale_type": "garage",
        "date_start": "2026-10-02",
        "date_end": "2026-10-04",
        "start_time": "",
        "end_time": "",
        "address": "11319 Par One, San Antonio, TX",
        "city": "San Antonio",
        "state": "TX",
        "zip": "",
        "latitude": 29.3309,
        "longitude": -98.5054,
        "description": "QR Code Link to This Post A fully furnished Airbnb is being emptied out, and everything must go this weekend. These are guest-ready, gently used pieces from a short-term rental that was styled to impress, and most of it is priced to move. What's inside: • Sofas, beds, dressers, nightstands, and dining sets • Smart TVs, lamps, mirrors, and wall art • Kitchen essentials: cookware, dishes, glassware, small appliances, coffee makers • Linens, towels, decor, patio furniture, and grills • Plus the lit",
        "highlights": [],
        "source_urls": [
          "https://www.craigslist.org/view/d/san-antonio-closing-air-bnb-garage-sale/f8hxA3nQp25ybDtpSJqDD5"
        ],
        "original_url": "https://www.craigslist.org/view/d/san-antonio-closing-air-bnb-garage-sale/f8hxA3nQp25ybDtpSJqDD5",
        "source_names": [
          "Craigslist"
        ],
        "photos": [
          "https://images.craigslist.org/01515_41nrgidOxlC_09T054_600x450.jpg",
          "https://images.craigslist.org/01515_41nrgidOxlC_09T054_50x50c.jpg",
          "https://images.craigslist.org/00w0w_2gyFvxa7EY9_0fu0ak_50x50c.jpg",
          "https://images.craigslist.org/00q0q_7UKEFejv9me_0fu0ak_50x50c.jpg",
          "https://images.craigslist.org/00j0j_2CEaYK2fWUc_0fu0ak_50x50c.jpg",
          "https://images.craigslist.org/00w0w_hqMoLlRzlgK_0aK0bj_50x50c.jpg"
        ],
        "confidence": 96,
        "verified_at": "2026-10-02T05:14:54-05:00",
        "street_view_url": "https://www.google.com/maps/@?api=1&map_action=pano&viewpoint=29.3309,-98.5054",
        "google_maps_url": "https://www.google.com/maps/search/?api=1&query=29.3309,-98.5054",
        "status": "verified",
        "geocode_method": "source",
        "notes": "",
        "community_source": "",
        "community_link_or_notes": ""
      }
    },
    {
      "type": "Feature",
      "geometry": {
        "type": "Point",
        "coordinates": [
          -98.655939,
          29.541176
        ]
      },
      "properties": {
        "sale_id": "2026-10-02_8811-braun-mesa-san-antonio-tx",
        "title": "MASSIVE MOVING SALE - High Quality Furniture, Appliances & Decor! (San Antonio / Braun Mesa)",
        "sale_type": "garage",
        "date_start": "2026-10-02",
        "date_end": "2026-10-04",
        "start_time": "",
        "end_time": "",
        "address": "8811 Braun Mesa, San Antonio, TX",
        "city": "San Antonio",
        "state": "TX",
        "zip": "",
        "latitude": 29.541176,
        "longitude": -98.655939,
        "description": "QR Code Link to This Post 🎉 MASSIVE MOVING SALE – EVERYTHING MUST GO! 🎉 We are moving and selling high-quality, extremely well-maintained furniture, top-tier appliances, home decor, and household essentials! 🛋️ FEATURED ITEMS INCLUDE: • Appliances: Samsung Washer & Dryer Set, Stainless Steel Refrigerator, Microwave • Living Room: L-Shaped Reclining Sectional Sofa, TV Console, Accent Chairs, Floor Lamps, Wall Art • Dining Room: Solid Wooden Dining Table with Chairs, Sideboards & Dressers • Bedroo",
        "highlights": [],
        "source_urls": [
          "https://www.craigslist.org/view/d/san-antonio-massive-moving-sale-high/9HuEatYfEUpN163kTddTPs"
        ],
        "original_url": "https://www.craigslist.org/view/d/san-antonio-massive-moving-sale-high/9HuEatYfEUpN163kTddTPs",
        "source_names": [
          "Craigslist"
        ],
        "photos": [],
        "confidence": 96,
        "verified_at": "2026-10-02T05:14:54-05:00",
        "street_view_url": "https://www.google.com/maps/@?api=1&map_action=pano&viewpoint=29.541176,-98.655939",
        "google_maps_url": "https://www.google.com/maps/search/?api=1&query=29.541176,-98.655939",
        "status": "verified",
        "geocode_method": "source",
        "notes": "",
        "community_source": "",
        "community_link_or_notes": ""
      }
    },
    {
      "type": "Feature",
      "geometry": {
        "type": "Point",
        "coordinates": [
          -98.994468,
          29.619598
        ]
      },
      "properties": {
        "sale_id": "2026-10-02_1025-private-road-1501-near-private-road-1515-sa",
        "title": "1025 private road 1501 Bandera HUGE community sale (Holiday Village)",
        "sale_type": "garage",
        "date_start": "2026-10-02",
        "date_end": "2026-10-04",
        "start_time": "",
        "end_time": "",
        "address": "1025 Private Road 1501 near Private road 1515, San Antonio, TX",
        "city": "San Antonio",
        "state": "TX",
        "zip": "",
        "latitude": 29.619598,
        "longitude": -98.994468,
        "description": "QR Code Link to This Post Stop by 1025 PR 1501 while you check out Holiday Village Community Sale Tools, New Pottery Wheel, Silver, Exercise eqpt, Metal Detectors, Crystal, Clothing, Dishware, Area Rugs, Furniture, Toys, Collectible Dolls, Lots of Miscellanious All has to go.. So DON'T BE AFRAID TO MAKE AN OFFER",
        "highlights": [],
        "source_urls": [
          "https://www.craigslist.org/view/d/mico-1025-private-road-1501-bandera/mp8MJTEYrNEjeKP8pd2uPV"
        ],
        "original_url": "https://www.craigslist.org/view/d/mico-1025-private-road-1501-bandera/mp8MJTEYrNEjeKP8pd2uPV",
        "source_names": [
          "Craigslist"
        ],
        "photos": [
          "https://images.craigslist.org/00A0A_4MBBz8r0baW_0CI0hT_600x450.jpg",
          "https://images.craigslist.org/00A0A_4MBBz8r0baW_0CI0hT_50x50c.jpg",
          "https://images.craigslist.org/00u0u_8GBgx1Wodck_0CI0hT_50x50c.jpg",
          "https://images.craigslist.org/00C0C_l9VhGIzUmOA_0CI0hT_50x50c.jpg",
          "https://images.craigslist.org/00H0H_btk3xFarn7m_0CI0hT_50x50c.jpg",
          "https://images.craigslist.org/00W0W_afLIaI35G7c_0CI0hT_50x50c.jpg"
        ],
        "confidence": 96,
        "verified_at": "2026-10-02T05:14:54-05:00",
        "street_view_url": "https://www.google.com/maps/@?api=1&map_action=pano&viewpoint=29.619598,-98.994468",
        "google_maps_url": "https://www.google.com/maps/search/?api=1&query=29.619598,-98.994468",
        "status": "verified",
        "geocode_method": "source",
        "notes": "",
        "community_source": "",
        "community_link_or_notes": ""
      }
    },
    {
      "type": "Feature",
      "geometry": {
        "type": "Point",
        "coordinates": [
          -98.4769,
          29.5863
        ]
      },
      "properties": {
        "sale_id": "2026-10-02_17611-diamond-canyon-san-antonio-tx",
        "title": "Community Garage Sale this weekend 10/03/26 - Saturday Only (Gold Canyon)",
        "sale_type": "garage",
        "date_start": "2026-10-02",
        "date_end": "2026-10-04",
        "start_time": "",
        "end_time": "",
        "address": "17611 Diamond Canyon, San Antonio, TX",
        "city": "San Antonio",
        "state": "TX",
        "zip": "",
        "latitude": 29.5863,
        "longitude": -98.4769,
        "description": "QR Code Link to This Post Gold Canyon Community Garage sale this Saturday Only. Many items available: washer, Housewares, women’s, men’s, kids clothes and shoes, chandeliers , and much more.",
        "highlights": [],
        "source_urls": [
          "https://www.craigslist.org/view/d/san-antonio-community-garage-sale-this/2c7NDqsVrRpfzyBcddW4U6"
        ],
        "original_url": "https://www.craigslist.org/view/d/san-antonio-community-garage-sale-this/2c7NDqsVrRpfzyBcddW4U6",
        "source_names": [
          "Craigslist"
        ],
        "photos": [],
        "confidence": 96,
        "verified_at": "2026-10-02T05:14:54-05:00",
        "street_view_url": "https://www.google.com/maps/@?api=1&map_action=pano&viewpoint=29.5863,-98.4769",
        "google_maps_url": "https://www.google.com/maps/search/?api=1&query=29.5863,-98.4769",
        "status": "verified",
        "geocode_method": "source",
        "notes": "",
        "community_source": "",
        "community_link_or_notes": ""
      }
    },
    {
      "type": "Feature",
      "geometry": {
        "type": "Point",
        "coordinates": [
          -98.4071,
          29.5855
        ]
      },
      "properties": {
        "sale_id": "2026-10-02_3527-green-spring-san-antonio-tx",
        "title": "Furniture for Sale ( please read post, ty) (Green Spring Valley)",
        "sale_type": "garage",
        "date_start": "2026-10-02",
        "date_end": "2026-10-04",
        "start_time": "",
        "end_time": "",
        "address": "3527 Green Spring, San Antonio, TX",
        "city": "San Antonio",
        "state": "TX",
        "zip": "",
        "latitude": 29.5855,
        "longitude": -98.4071,
        "description": "QR Code Link to This Post Dresser ($60)Rugs ($60) three chairs ($70 a piece) a set of side tables set ( $60) , mirrored coffee table ($75) , one marble coffee table ($200) , two vintage lamps pre WW2 ( set $70) and a Flat screen RCA TV with mount controls and manual ( $160) and queen bed ($225 - very clean, pretty iron and so comfy). Please let me know if you would like to come see it and possibly pick up on October 10th between12-4. Let me know on the 9th of October if still interested because ",
        "highlights": [],
        "source_urls": [
          "https://www.craigslist.org/view/d/san-antonio-furniture-for-sale-please/84LPLEmaFGUzdHuyK6dFdb"
        ],
        "original_url": "https://www.craigslist.org/view/d/san-antonio-furniture-for-sale-please/84LPLEmaFGUzdHuyK6dFdb",
        "source_names": [
          "Craigslist"
        ],
        "photos": [
          "https://images.craigslist.org/00Q0Q_hYc7ZomrAJa_0t20CI_600x450.jpg",
          "https://images.craigslist.org/00Q0Q_hYc7ZomrAJa_0t20CI_50x50c.jpg",
          "https://images.craigslist.org/00I0I_afhxbL7aFiz_0t20CI_50x50c.jpg",
          "https://images.craigslist.org/00i0i_9bVQyKNjNZD_0CI0t2_50x50c.jpg",
          "https://images.craigslist.org/00U0U_aG1hrrUytuz_0t20CI_50x50c.jpg",
          "https://images.craigslist.org/00404_jGLAxJTb1o_0t20CI_50x50c.jpg"
        ],
        "confidence": 96,
        "verified_at": "2026-10-02T05:14:54-05:00",
        "street_view_url": "https://www.google.com/maps/@?api=1&map_action=pano&viewpoint=29.5855,-98.4071",
        "google_maps_url": "https://www.google.com/maps/search/?api=1&query=29.5855,-98.4071",
        "status": "verified",
        "geocode_method": "source",
        "notes": "",
        "community_source": "",
        "community_link_or_notes": ""
      }
    },
    {
      "type": "Feature",
      "geometry": {
        "type": "Point",
        "coordinates": [
          -98.54499,
          29.565949
        ]
      },
      "properties": {
        "sale_id": "2026-10-02_13202-hunters-spring-st-near-hunters-glade-san-a",
        "title": "Garage Sale October Friday 2nd and Saturday 3rd 8am - 2pm (San Antonio Texas)",
        "sale_type": "garage",
        "date_start": "2026-10-02",
        "date_end": "2026-10-04",
        "start_time": "",
        "end_time": "",
        "address": "13202 Hunters Spring St near Hunters Glade, San Antonio, TX",
        "city": "San Antonio",
        "state": "TX",
        "zip": "",
        "latitude": 29.565949,
        "longitude": -98.54499,
        "description": "QR Code Link to This Post My kids don't want my stuff garage sale! I have several items in the following categories: women's and men's good quality clothing housewares some jewelry women's and men's shoes some electronics file cabinet 60/40 white porcelain sink toys decorative pillows pair of lamps and more",
        "highlights": [],
        "source_urls": [
          "https://www.craigslist.org/view/d/san-antonio-garage-sale-october-friday/4RaWZaYKWps29nSKi69CfW"
        ],
        "original_url": "https://www.craigslist.org/view/d/san-antonio-garage-sale-october-friday/4RaWZaYKWps29nSKi69CfW",
        "source_names": [
          "Craigslist"
        ],
        "photos": [],
        "confidence": 96,
        "verified_at": "2026-10-02T05:14:54-05:00",
        "street_view_url": "https://www.google.com/maps/@?api=1&map_action=pano&viewpoint=29.565949,-98.54499",
        "google_maps_url": "https://www.google.com/maps/search/?api=1&query=29.565949,-98.54499",
        "status": "verified",
        "geocode_method": "source",
        "notes": "",
        "community_source": "",
        "community_link_or_notes": ""
      }
    },
    {
      "type": "Feature",
      "geometry": {
        "type": "Point",
        "coordinates": [
          -98.7945,
          29.2366
        ]
      },
      "properties": {
        "sale_id": "2026-10-02_5717-fm-3175-san-antonio-tx",
        "title": "HUGE SALE (Lytle Tx)",
        "sale_type": "garage",
        "date_start": "2026-10-02",
        "date_end": "2026-10-04",
        "start_time": "",
        "end_time": "",
        "address": "5717 FM 3175, San Antonio, TX",
        "city": "San Antonio",
        "state": "TX",
        "zip": "",
        "latitude": 29.2366,
        "longitude": -98.7945,
        "description": "QR Code Link to This Post Many things to see! Come one Come all Friday... Saturday... Sunday... Cash &amp; Credit accepted Kitchen Items Metal Art Patio furniture Toys Clothes Model A parts Bikes Tires",
        "highlights": [],
        "source_urls": [
          "https://www.craigslist.org/view/d/lytle-huge-sale/fZTWSaZSQ72eK45TkHH4z1"
        ],
        "original_url": "https://www.craigslist.org/view/d/lytle-huge-sale/fZTWSaZSQ72eK45TkHH4z1",
        "source_names": [
          "Craigslist"
        ],
        "photos": [],
        "confidence": 96,
        "verified_at": "2026-10-02T05:14:54-05:00",
        "street_view_url": "https://www.google.com/maps/@?api=1&map_action=pano&viewpoint=29.2366,-98.7945",
        "google_maps_url": "https://www.google.com/maps/search/?api=1&query=29.2366,-98.7945",
        "status": "verified",
        "geocode_method": "source",
        "notes": "",
        "community_source": "",
        "community_link_or_notes": ""
      }
    },
    {
      "type": "Feature",
      "geometry": {
        "type": "Point",
        "coordinates": [
          -98.503,
          29.5183
        ]
      },
      "properties": {
        "sale_id": "2026-10-01_nw-loop-410-near-blanco-rd-san-antonio-tx",
        "title": "NOW OPEN! The Collective Boutiques (San Antonio)",
        "sale_type": "garage",
        "date_start": "2026-10-01",
        "date_end": "2026-10-03",
        "start_time": "",
        "end_time": "",
        "address": "NW Loop 410 near Blanco Rd., San Antonio, TX",
        "city": "San Antonio",
        "state": "TX",
        "zip": "",
        "latitude": 29.5183,
        "longitude": -98.503,
        "description": "QR Code Link to This Post Open Everyday. Mon- Sun 10am-8pm 522 NW Loop 410, SATX 78216 Newly opened indoor vendor market in San Antonio featuring unique apparel, home goods, gifts, vintage items, antiques &amp; so much more! Deli &amp; tea room located inside. Clean restrooms. Come stop by &amp; look &amp; shop!",
        "highlights": [],
        "source_urls": [
          "https://www.craigslist.org/view/d/san-antonio-now-open-the-collective/a9UPVs8b9XgmEsUh6iVZ1m"
        ],
        "original_url": "https://www.craigslist.org/view/d/san-antonio-now-open-the-collective/a9UPVs8b9XgmEsUh6iVZ1m",
        "source_names": [
          "Craigslist"
        ],
        "photos": [
          "https://images.craigslist.org/00303_fJujeiiUakX_0CI0eX_600x450.jpg"
        ],
        "confidence": 96,
        "verified_at": "2026-10-02T05:14:54-05:00",
        "street_view_url": "https://www.google.com/maps/@?api=1&map_action=pano&viewpoint=29.5183,-98.503",
        "google_maps_url": "https://www.google.com/maps/search/?api=1&query=29.5183,-98.503",
        "status": "verified",
        "geocode_method": "source",
        "notes": "",
        "community_source": "",
        "community_link_or_notes": ""
      }
    },
    {
      "type": "Feature",
      "geometry": {
        "type": "Point",
        "coordinates": [
          -98.4936,
          29.4241
        ]
      },
      "properties": {
        "sale_id": "2026-09-29_1005-haynes-st-san-marcos-tx-78666",
        "title": "1005 Haynes St, San Marcos, TX 78666",
        "sale_type": "garage",
        "date_start": "2026-09-29",
        "date_end": "2026-10-05",
        "start_time": "9:30 am - 7:00 pm",
        "end_time": "",
        "address": "1005 Haynes St, San Marcos, TX 78666",
        "city": "San Antonio",
        "state": "TX",
        "zip": "",
        "latitude": 29.4241,
        "longitude": -98.4936,
        "description": "Dates and Times: Tuesday, September 29, 2026 9:30 am - 7:00 pm",
        "highlights": [],
        "source_urls": [
          "https://garagesalefinder.com/s/N96wn/1005-haynes-st-san-marcos-tx-78666"
        ],
        "original_url": "https://garagesalefinder.com/s/N96wn/1005-haynes-st-san-marcos-tx-78666",
        "source_names": [
          "GarageSaleFinder"
        ],
        "photos": [
          "https://gsf.tlstatic.com/image/w150-h100/2026/09/29/s/7/5/21772775/XQUmb-0.jpeg",
          "https://gsf.tlstatic.com/image/w150-h100/2026/09/29/s/7/5/21772775/Xi5uo-0.jpeg",
          "https://gsf.tlstatic.com/image/w150-h100/2026/09/29/s/7/5/21772775/XXUTH-0.jpeg",
          "https://gsf.tlstatic.com/image/w150-h100/2026/09/29/s/7/5/21772775/ojWb-0.jpeg",
          "https://gsf.tlstatic.com/image/w150-h100/2026/09/29/s/7/5/21772775/X18hh-0.jpeg",
          "https://gsf.tlstatic.com/image/w150-h100/2026/09/29/s/7/5/21772775/XU6Ub-0.jpeg"
        ],
        "confidence": 100,
        "verified_at": "2026-10-02T05:14:54-05:00",
        "street_view_url": "https://www.google.com/maps/@?api=1&map_action=pano&viewpoint=29.4241,-98.4936",
        "google_maps_url": "https://www.google.com/maps/search/?api=1&query=29.4241,-98.4936",
        "status": "verified",
        "geocode_method": "city-center",
        "notes": "",
        "community_source": "",
        "community_link_or_notes": ""
      }
    },
    {
      "type": "Feature",
      "geometry": {
        "type": "Point",
        "coordinates": [
          -98.4936,
          29.4241
        ]
      },
      "properties": {
        "sale_id": "2026-10-02_420-pierce-ave-san-antonio-tx-78208",
        "title": "420 Pierce Ave, San Antonio, TX 78208",
        "sale_type": "garage",
        "date_start": "2026-10-02",
        "date_end": "2026-10-03",
        "start_time": "9:00 am - 5:00 pm",
        "end_time": "",
        "address": "420 Pierce Ave, San Antonio, TX 78208",
        "city": "San Antonio",
        "state": "TX",
        "zip": "",
        "latitude": 29.4241,
        "longitude": -98.4936,
        "description": "Dates and Times: Friday, October 2, 2026 9:00 am - 5:00 pm",
        "highlights": [],
        "source_urls": [
          "https://garagesalefinder.com/s/N9mPa/420-pierce-ave-san-antonio-tx-78208"
        ],
        "original_url": "https://garagesalefinder.com/s/N9mPa/420-pierce-ave-san-antonio-tx-78208",
        "source_names": [
          "GarageSaleFinder"
        ],
        "photos": [
          "https://gsf.tlstatic.com/images/social/Facebook.png",
          "https://gsf.tlstatic.com/images/social/Reddit.png",
          "https://gsf.tlstatic.com/images/social/Twitter.png",
          "https://gsf.tlstatic.com/images/social/Email.png"
        ],
        "confidence": 100,
        "verified_at": "2026-10-02T05:14:54-05:00",
        "street_view_url": "https://www.google.com/maps/@?api=1&map_action=pano&viewpoint=29.4241,-98.4936",
        "google_maps_url": "https://www.google.com/maps/search/?api=1&query=29.4241,-98.4936",
        "status": "verified",
        "geocode_method": "city-center",
        "notes": "",
        "community_source": "",
        "community_link_or_notes": ""
      }
    },
    {
      "type": "Feature",
      "geometry": {
        "type": "Point",
        "coordinates": [
          -98.53,
          29.47
        ]
      },
      "properties": {
        "sale_id": "2026-10-02_1518-mardell-st-san-antonio-tx-78201",
        "title": "1518 Mardell St, San Antonio, TX 78201",
        "sale_type": "garage",
        "date_start": "2026-10-02",
        "date_end": "2026-10-03",
        "start_time": "8:00 am - 5:00 pm",
        "end_time": "",
        "address": "1518 Mardell St, San Antonio, TX 78201",
        "city": "San Antonio",
        "state": "TX",
        "zip": "",
        "latitude": 29.47,
        "longitude": -98.53,
        "description": "Dates and Times: Friday, October 2, 2026 8:00 am - 5:00 pm",
        "highlights": [],
        "source_urls": [
          "https://garagesalefinder.com/s/N966C/1518-mardell-st-san-antonio-tx-78201"
        ],
        "original_url": "https://garagesalefinder.com/s/N966C/1518-mardell-st-san-antonio-tx-78201",
        "source_names": [
          "GarageSaleFinder"
        ],
        "photos": [
          "https://gsf.tlstatic.com/images/social/Facebook.png",
          "https://gsf.tlstatic.com/images/social/Reddit.png",
          "https://gsf.tlstatic.com/images/social/Twitter.png",
          "https://gsf.tlstatic.com/images/social/Email.png"
        ],
        "confidence": 100,
        "verified_at": "2026-10-02T05:14:54-05:00",
        "street_view_url": "https://www.google.com/maps/@?api=1&map_action=pano&viewpoint=29.47,-98.53",
        "google_maps_url": "https://www.google.com/maps/search/?api=1&query=29.47,-98.53",
        "status": "verified",
        "geocode_method": "zip-centroid",
        "notes": "",
        "community_source": "",
        "community_link_or_notes": ""
      }
    },
    {
      "type": "Feature",
      "geometry": {
        "type": "Point",
        "coordinates": [
          -98.58,
          29.55
        ]
      },
      "properties": {
        "sale_id": "2026-10-02_13202-hunters-spring-st-san-antonio-tx-78230",
        "title": "My kids don't want my stuff!! Garage Sale!",
        "sale_type": "garage",
        "date_start": "2026-10-02",
        "date_end": "2026-10-03",
        "start_time": "8:00 am - 2:00 pm",
        "end_time": "",
        "address": "13202 Hunters Spring St, San Antonio, TX 78230",
        "city": "San Antonio",
        "state": "TX",
        "zip": "",
        "latitude": 29.55,
        "longitude": -98.58,
        "description": "Dates and Times: Friday, October 2, 2026 8:00 am - 2:00 pm",
        "highlights": [],
        "source_urls": [
          "https://garagesalefinder.com/s/N96pw/13202-hunters-spring-st-san-antonio-tx-78230"
        ],
        "original_url": "https://garagesalefinder.com/s/N96pw/13202-hunters-spring-st-san-antonio-tx-78230",
        "source_names": [
          "GarageSaleFinder"
        ],
        "photos": [
          "https://gsf.tlstatic.com/images/social/Facebook.png",
          "https://gsf.tlstatic.com/images/social/Reddit.png",
          "https://gsf.tlstatic.com/images/social/Twitter.png",
          "https://gsf.tlstatic.com/images/social/Email.png"
        ],
        "confidence": 100,
        "verified_at": "2026-10-02T05:14:54-05:00",
        "street_view_url": "https://www.google.com/maps/@?api=1&map_action=pano&viewpoint=29.55,-98.58",
        "google_maps_url": "https://www.google.com/maps/search/?api=1&query=29.55,-98.58",
        "status": "verified",
        "geocode_method": "zip-centroid",
        "notes": "",
        "community_source": "",
        "community_link_or_notes": ""
      }
    },
    {
      "type": "Feature",
      "geometry": {
        "type": "Point",
        "coordinates": [
          -98.42,
          29.36
        ]
      },
      "properties": {
        "sale_id": "2026-10-02_5610-green-grv-san-antonio-tx-78223",
        "title": "5610 Green Grv, San Antonio, TX 78223",
        "sale_type": "garage",
        "date_start": "2026-10-02",
        "date_end": "2026-10-03",
        "start_time": "9:00 am - 3:00 pm",
        "end_time": "",
        "address": "5610 Green Grv, San Antonio, TX 78223",
        "city": "San Antonio",
        "state": "TX",
        "zip": "",
        "latitude": 29.36,
        "longitude": -98.42,
        "description": "Dates and Times: Friday, October 2, 2026 9:00 am - 3:00 pm",
        "highlights": [],
        "source_urls": [
          "https://garagesalefinder.com/s/N9Uae/5610-green-grv-san-antonio-tx-78223"
        ],
        "original_url": "https://garagesalefinder.com/s/N9Uae/5610-green-grv-san-antonio-tx-78223",
        "source_names": [
          "GarageSaleFinder"
        ],
        "photos": [
          "https://gsf.tlstatic.com/images/social/Facebook.png",
          "https://gsf.tlstatic.com/images/social/Reddit.png",
          "https://gsf.tlstatic.com/images/social/Twitter.png",
          "https://gsf.tlstatic.com/images/social/Email.png"
        ],
        "confidence": 100,
        "verified_at": "2026-10-02T05:14:54-05:00",
        "street_view_url": "https://www.google.com/maps/@?api=1&map_action=pano&viewpoint=29.36,-98.42",
        "google_maps_url": "https://www.google.com/maps/search/?api=1&query=29.36,-98.42",
        "status": "verified",
        "geocode_method": "zip-centroid",
        "notes": "",
        "community_source": "",
        "community_link_or_notes": ""
      }
    },
    {
      "type": "Feature",
      "geometry": {
        "type": "Point",
        "coordinates": [
          -98.42,
          29.58
        ]
      },
      "properties": {
        "sale_id": "2026-10-02_15730-lomita-creek-dr-san-antonio-tx-78247",
        "title": "15730 Lomita Creek Dr, San Antonio, TX 78247",
        "sale_type": "garage",
        "date_start": "2026-10-02",
        "date_end": "2026-10-03",
        "start_time": "9:00 am - 2:00 pm",
        "end_time": "",
        "address": "15730 Lomita Creek Dr, San Antonio, TX 78247",
        "city": "San Antonio",
        "state": "TX",
        "zip": "",
        "latitude": 29.58,
        "longitude": -98.42,
        "description": "Dates and Times: Friday, October 2, 2026 9:00 am - 2:00 pm",
        "highlights": [],
        "source_urls": [
          "https://garagesalefinder.com/s/N9ULu/15730-lomita-creek-dr-san-antonio-tx-78247"
        ],
        "original_url": "https://garagesalefinder.com/s/N9ULu/15730-lomita-creek-dr-san-antonio-tx-78247",
        "source_names": [
          "GarageSaleFinder"
        ],
        "photos": [
          "https://gsf.tlstatic.com/images/social/Facebook.png",
          "https://gsf.tlstatic.com/images/social/Reddit.png",
          "https://gsf.tlstatic.com/images/social/Twitter.png",
          "https://gsf.tlstatic.com/images/social/Email.png"
        ],
        "confidence": 100,
        "verified_at": "2026-10-02T05:14:54-05:00",
        "street_view_url": "https://www.google.com/maps/@?api=1&map_action=pano&viewpoint=29.58,-98.42",
        "google_maps_url": "https://www.google.com/maps/search/?api=1&query=29.58,-98.42",
        "status": "verified",
        "geocode_method": "zip-centroid",
        "notes": "",
        "community_source": "",
        "community_link_or_notes": ""
      }
    },
    {
      "type": "Feature",
      "geometry": {
        "type": "Point",
        "coordinates": [
          -98.44,
          29.63
        ]
      },
      "properties": {
        "sale_id": "2026-10-02_2302-encino-pt-san-antonio-tx-78259",
        "title": "Huge 2 Family Garage/Estate Sale",
        "sale_type": "estate",
        "date_start": "2026-10-02",
        "date_end": "2026-10-03",
        "start_time": "9:00 am - 2:00 pm",
        "end_time": "",
        "address": "2302 Encino Pt, San Antonio, TX 78259",
        "city": "San Antonio",
        "state": "TX",
        "zip": "",
        "latitude": 29.63,
        "longitude": -98.44,
        "description": "Dates and Times: Friday, October 2, 2026 9:00 am - 2:00 pm",
        "highlights": [],
        "source_urls": [
          "https://garagesalefinder.com/s/N9Uen/2302-encino-pt-san-antonio-tx-78259"
        ],
        "original_url": "https://garagesalefinder.com/s/N9Uen/2302-encino-pt-san-antonio-tx-78259",
        "source_names": [
          "GarageSaleFinder"
        ],
        "photos": [
          "https://gsf.tlstatic.com/images/social/Facebook.png",
          "https://gsf.tlstatic.com/images/social/Reddit.png",
          "https://gsf.tlstatic.com/images/social/Twitter.png",
          "https://gsf.tlstatic.com/images/social/Email.png"
        ],
        "confidence": 100,
        "verified_at": "2026-10-02T05:14:54-05:00",
        "street_view_url": "https://www.google.com/maps/@?api=1&map_action=pano&viewpoint=29.63,-98.44",
        "google_maps_url": "https://www.google.com/maps/search/?api=1&query=29.63,-98.44",
        "status": "verified",
        "geocode_method": "zip-centroid",
        "notes": "",
        "community_source": "",
        "community_link_or_notes": ""
      }
    },
    {
      "type": "Feature",
      "geometry": {
        "type": "Point",
        "coordinates": [
          -98.4194,
          29.5395
        ]
      },
      "properties": {
        "sale_id": "2026-10-02_4981-champlain-san-antonio-tx",
        "title": "Moving sale - Oct 2, 3 & 4 (El Chaparrel)",
        "sale_type": "garage",
        "date_start": "2026-10-02",
        "date_end": "2026-10-02",
        "start_time": "",
        "end_time": "",
        "address": "4981 Champlain, San Antonio, TX",
        "city": "San Antonio",
        "state": "TX",
        "zip": "",
        "latitude": 29.5395,
        "longitude": -98.4194,
        "description": "QR Code Link to This Post Everything must go! Come take a look and make an offer.",
        "highlights": [],
        "source_urls": [
          "https://www.craigslist.org/view/d/san-antonio-moving-sale-oct/gdbJekBjAbtMKCddD64pGG"
        ],
        "original_url": "https://www.craigslist.org/view/d/san-antonio-moving-sale-oct/gdbJekBjAbtMKCddD64pGG",
        "source_names": [
          "Craigslist"
        ],
        "photos": [
          "https://images.craigslist.org/00202_64g8GxkRImN_0t20CI_600x450.jpg",
          "https://images.craigslist.org/00202_64g8GxkRImN_0t20CI_50x50c.jpg",
          "https://images.craigslist.org/00u0u_ihdcaWTNvAQ_0CI0t2_50x50c.jpg",
          "https://images.craigslist.org/00k0k_7B7SpkzFowr_0t20CI_50x50c.jpg",
          "https://images.craigslist.org/00202_oAuu8AwmZ5_0t20CI_50x50c.jpg",
          "https://images.craigslist.org/00y0y_c4nlZWbXf6b_0t20CI_50x50c.jpg"
        ],
        "confidence": 96,
        "verified_at": "2026-10-02T05:14:54-05:00",
        "street_view_url": "https://www.google.com/maps/@?api=1&map_action=pano&viewpoint=29.5395,-98.4194",
        "google_maps_url": "https://www.google.com/maps/search/?api=1&query=29.5395,-98.4194",
        "status": "verified",
        "geocode_method": "source",
        "notes": "",
        "community_source": "",
        "community_link_or_notes": ""
      }
    },
    {
      "type": "Feature",
      "geometry": {
        "type": "Point",
        "coordinates": [
          -98.4022,
          29.5913
        ]
      },
      "properties": {
        "sale_id": "2026-10-02_15730-lomita-creek-san-antonio-tx-78247-san-anto",
        "title": "Garage sale (Longs creek subdivision) (San Antonio)",
        "sale_type": "garage",
        "date_start": "2026-10-02",
        "date_end": "2026-10-02",
        "start_time": "",
        "end_time": "",
        "address": "15730 Lomita Creek San Antonio TX 78247, San Antonio, TX",
        "city": "San Antonio",
        "state": "TX",
        "zip": "",
        "latitude": 29.5913,
        "longitude": -98.4022,
        "description": "QR Code Link to This Post October 2 &amp; 3, Friday and Saturday from 9-2pm 15730 Lomita Creek San Antonio TX 78247 (Longs creek subdivision) 2 households",
        "highlights": [],
        "source_urls": [
          "https://www.craigslist.org/view/d/san-antonio-garage-sale-longs-creek/99mwJgqd99kLAtqE4M6bFB"
        ],
        "original_url": "https://www.craigslist.org/view/d/san-antonio-garage-sale-longs-creek/99mwJgqd99kLAtqE4M6bFB",
        "source_names": [
          "Craigslist"
        ],
        "photos": [],
        "confidence": 96,
        "verified_at": "2026-10-02T05:14:54-05:00",
        "street_view_url": "https://www.google.com/maps/@?api=1&map_action=pano&viewpoint=29.5913,-98.4022",
        "google_maps_url": "https://www.google.com/maps/search/?api=1&query=29.5913,-98.4022",
        "status": "verified",
        "geocode_method": "source",
        "notes": "",
        "community_source": "",
        "community_link_or_notes": ""
      }
    }
  ]
}