{
  "type": "FeatureCollection",
  "properties": {
    "target_date": "2026-09-20",
    "generated_at": "2026-09-20T08:50:13-05:00",
    "count": 16,
    "project": "Chicas-Map"
  },
  "features": [
    {
      "type": "Feature",
      "geometry": {
        "type": "Point",
        "coordinates": [
          -98.693092,
          29.421366
        ]
      },
      "properties": {
        "sale_id": "2026-09-19_10586-bounty-dr-san-antonio-tx-78245",
        "title": "Multi-Family Yard Sale",
        "sale_type": "garage",
        "date_start": "2026-09-19",
        "date_end": "2026-09-20",
        "start_time": "9:00 AM - 2:00 PM",
        "end_time": "",
        "address": "10586 Bounty Dr, San Antonio, TX 78245",
        "city": "San Antonio",
        "state": "TX",
        "zip": "",
        "latitude": 29.421366,
        "longitude": -98.693092,
        "description": "Find all the garage sales, yard sales, and estate sales on a map! Or place a free ad for your upcoming sale on yardsalesearch.com",
        "highlights": [],
        "source_urls": [
          "https://www.yardsalesearch.com/yss-garage-sale.jsp?id=196392027"
        ],
        "original_url": "https://www.yardsalesearch.com/yss-garage-sale.jsp?id=196392027",
        "source_names": [
          "YardSaleSearch"
        ],
        "photos": [
          "https://d82cz7nyq77ak.cloudfront.net/images/social/Facebook.png",
          "https://d82cz7nyq77ak.cloudfront.net/images/social/Pinterest.png",
          "https://d82cz7nyq77ak.cloudfront.net/images/social/Reddit.png",
          "https://d82cz7nyq77ak.cloudfront.net/images/social/Twitter.png",
          "https://d82cz7nyq77ak.cloudfront.net/images/social/Email.png",
          "https://dop6twngijzdg.cloudfront.net/image/w300-c300:250/2026/09/17/s/U/i/7HtUi/XvZPw-0.jpeg"
        ],
        "confidence": 100,
        "verified_at": "2026-09-20T08:49:46-05:00",
        "street_view_url": "https://www.google.com/maps/@?api=1&map_action=pano&viewpoint=29.421366,-98.693092",
        "google_maps_url": "https://www.google.com/maps/search/?api=1&query=29.421366,-98.693092",
        "status": "verified",
        "geocode_method": "source",
        "notes": "",
        "community_source": "",
        "community_link_or_notes": ""
      }
    },
    {
      "type": "Feature",
      "geometry": {
        "type": "Point",
        "coordinates": [
          -98.5302431,
          29.597685
        ]
      },
      "properties": {
        "sale_id": "2026-09-19_2318-buroak-ridge-san-antonio-tx-78248",
        "title": "50% Sunday! Classically Stylish & Elegant",
        "sale_type": "garage",
        "date_start": "2026-09-19",
        "date_end": "2026-09-20",
        "start_time": "9:00 AM - 3:00 PM",
        "end_time": "",
        "address": "2318 Buroak Ridge, San Antonio, TX 78248",
        "city": "San Antonio",
        "state": "TX",
        "zip": "",
        "latitude": 29.597685,
        "longitude": -98.5302431,
        "description": "Find all the garage sales, yard sales, and estate sales on a map! Or place a free ad for your upcoming sale on yardsalesearch.com",
        "highlights": [],
        "source_urls": [
          "https://www.yardsalesearch.com/yss-garage-sale.jsp?id=196389485"
        ],
        "original_url": "https://www.yardsalesearch.com/yss-garage-sale.jsp?id=196389485",
        "source_names": [
          "YardSaleSearch"
        ],
        "photos": [
          "https://d82cz7nyq77ak.cloudfront.net/images/social/Facebook.png",
          "https://d82cz7nyq77ak.cloudfront.net/images/social/Pinterest.png",
          "https://d82cz7nyq77ak.cloudfront.net/images/social/Reddit.png",
          "https://d82cz7nyq77ak.cloudfront.net/images/social/Twitter.png",
          "https://d82cz7nyq77ak.cloudfront.net/images/social/Email.png",
          "https://eso-cdn.tlcdn.workers.dev/s-2463268-bnuuboexlzliqko4-t.webp"
        ],
        "confidence": 100,
        "verified_at": "2026-09-20T08:49:46-05:00",
        "street_view_url": "https://www.google.com/maps/@?api=1&map_action=pano&viewpoint=29.597685,-98.5302431",
        "google_maps_url": "https://www.google.com/maps/search/?api=1&query=29.597685,-98.5302431",
        "status": "verified",
        "geocode_method": "source",
        "notes": "",
        "community_source": "",
        "community_link_or_notes": ""
      }
    },
    {
      "type": "Feature",
      "geometry": {
        "type": "Point",
        "coordinates": [
          -98.472184,
          29.510052
        ]
      },
      "properties": {
        "sale_id": "2026-09-19_210-belfast-dr-san-antonio-tx-78209",
        "title": "Downsizing",
        "sale_type": "garage",
        "date_start": "2026-09-19",
        "date_end": "2026-09-20",
        "start_time": "10:00 AM - 4:00 PM",
        "end_time": "",
        "address": "210 Belfast Dr, San Antonio, TX 78209",
        "city": "San Antonio",
        "state": "TX",
        "zip": "",
        "latitude": 29.510052,
        "longitude": -98.472184,
        "description": "Find all the garage sales, yard sales, and estate sales on a map! Or place a free ad for your upcoming sale on yardsalesearch.com",
        "highlights": [],
        "source_urls": [
          "https://www.yardsalesearch.com/yss-garage-sale.jsp?id=196394357"
        ],
        "original_url": "https://www.yardsalesearch.com/yss-garage-sale.jsp?id=196394357",
        "source_names": [
          "YardSaleSearch"
        ],
        "photos": [
          "https://d82cz7nyq77ak.cloudfront.net/images/social/Facebook.png",
          "https://d82cz7nyq77ak.cloudfront.net/images/social/Pinterest.png",
          "https://d82cz7nyq77ak.cloudfront.net/images/social/Reddit.png",
          "https://d82cz7nyq77ak.cloudfront.net/images/social/Twitter.png",
          "https://d82cz7nyq77ak.cloudfront.net/images/social/Email.png"
        ],
        "confidence": 100,
        "verified_at": "2026-09-20T08:49:46-05:00",
        "street_view_url": "https://www.google.com/maps/@?api=1&map_action=pano&viewpoint=29.510052,-98.472184",
        "google_maps_url": "https://www.google.com/maps/search/?api=1&query=29.510052,-98.472184",
        "status": "verified",
        "geocode_method": "source",
        "notes": "",
        "community_source": "",
        "community_link_or_notes": ""
      }
    },
    {
      "type": "Feature",
      "geometry": {
        "type": "Point",
        "coordinates": [
          -98.650194,
          29.504372
        ]
      },
      "properties": {
        "sale_id": "2026-09-18_8651-quail-whisper-san-antonio-tx-78250",
        "title": "Estate Sale",
        "sale_type": "estate",
        "date_start": "2026-09-18",
        "date_end": "2026-09-20",
        "start_time": "9:00 AM - 4:00 PM",
        "end_time": "",
        "address": "8651 Quail Whisper, San Antonio, TX 78250",
        "city": "San Antonio",
        "state": "TX",
        "zip": "",
        "latitude": 29.504372,
        "longitude": -98.650194,
        "description": "Find all the garage sales, yard sales, and estate sales on a map! Or place a free ad for your upcoming sale on yardsalesearch.com",
        "highlights": [],
        "source_urls": [
          "https://www.yardsalesearch.com/yss-garage-sale.jsp?id=196388277"
        ],
        "original_url": "https://www.yardsalesearch.com/yss-garage-sale.jsp?id=196388277",
        "source_names": [
          "YardSaleSearch"
        ],
        "photos": [
          "https://d82cz7nyq77ak.cloudfront.net/images/social/Facebook.png",
          "https://d82cz7nyq77ak.cloudfront.net/images/social/Pinterest.png",
          "https://d82cz7nyq77ak.cloudfront.net/images/social/Reddit.png",
          "https://d82cz7nyq77ak.cloudfront.net/images/social/Twitter.png",
          "https://d82cz7nyq77ak.cloudfront.net/images/social/Email.png",
          "https://d3sp8ubbhnru9d.cloudfront.net/image/w300-c300:250/2026/09/15/s/0/7/38924007/by4l-0.jpeg"
        ],
        "confidence": 100,
        "verified_at": "2026-09-20T08:49:46-05:00",
        "street_view_url": "https://www.google.com/maps/@?api=1&map_action=pano&viewpoint=29.504372,-98.650194",
        "google_maps_url": "https://www.google.com/maps/search/?api=1&query=29.504372,-98.650194",
        "status": "verified",
        "geocode_method": "source",
        "notes": "",
        "community_source": "",
        "community_link_or_notes": ""
      }
    },
    {
      "type": "Feature",
      "geometry": {
        "type": "Point",
        "coordinates": [
          -98.706008,
          29.395764
        ]
      },
      "properties": {
        "sale_id": "2026-09-19_3443-altius-pass-san-antonio-tx-78245",
        "title": "Huge Multi-Family Yard Sale",
        "sale_type": "garage",
        "date_start": "2026-09-19",
        "date_end": "2026-09-20",
        "start_time": "8:00 AM - 1:00 PM",
        "end_time": "",
        "address": "3443 Altius Pass, San Antonio, TX 78245",
        "city": "San Antonio",
        "state": "TX",
        "zip": "",
        "latitude": 29.395764,
        "longitude": -98.706008,
        "description": "Find all the garage sales, yard sales, and estate sales on a map! Or place a free ad for your upcoming sale on yardsalesearch.com",
        "highlights": [],
        "source_urls": [
          "https://www.yardsalesearch.com/yss-garage-sale.jsp?id=196391073"
        ],
        "original_url": "https://www.yardsalesearch.com/yss-garage-sale.jsp?id=196391073",
        "source_names": [
          "YardSaleSearch"
        ],
        "photos": [
          "https://d82cz7nyq77ak.cloudfront.net/images/social/Facebook.png",
          "https://d82cz7nyq77ak.cloudfront.net/images/social/Pinterest.png",
          "https://d82cz7nyq77ak.cloudfront.net/images/social/Reddit.png",
          "https://d82cz7nyq77ak.cloudfront.net/images/social/Twitter.png",
          "https://d82cz7nyq77ak.cloudfront.net/images/social/Email.png"
        ],
        "confidence": 100,
        "verified_at": "2026-09-20T08:49:46-05:00",
        "street_view_url": "https://www.google.com/maps/@?api=1&map_action=pano&viewpoint=29.395764,-98.706008",
        "google_maps_url": "https://www.google.com/maps/search/?api=1&query=29.395764,-98.706008",
        "status": "verified",
        "geocode_method": "source",
        "notes": "",
        "community_source": "",
        "community_link_or_notes": ""
      }
    },
    {
      "type": "Feature",
      "geometry": {
        "type": "Point",
        "coordinates": [
          -98.334939,
          29.585665
        ]
      },
      "properties": {
        "sale_id": "2026-09-19_7642-derby-vis-schertz-tx-78154",
        "title": "2 Days Big Garage Sale",
        "sale_type": "garage",
        "date_start": "2026-09-19",
        "date_end": "2026-09-20",
        "start_time": "9:00 AM - 3:00 PM",
        "end_time": "",
        "address": "7642 Derby Vis, Schertz, TX 78154",
        "city": "San Antonio",
        "state": "TX",
        "zip": "",
        "latitude": 29.585665,
        "longitude": -98.334939,
        "description": "Find all the garage sales, yard sales, and estate sales on a map! Or place a free ad for your upcoming sale on yardsalesearch.com",
        "highlights": [],
        "source_urls": [
          "https://www.yardsalesearch.com/yss-garage-sale.jsp?id=196386687"
        ],
        "original_url": "https://www.yardsalesearch.com/yss-garage-sale.jsp?id=196386687",
        "source_names": [
          "YardSaleSearch"
        ],
        "photos": [
          "https://d82cz7nyq77ak.cloudfront.net/images/social/Facebook.png",
          "https://d82cz7nyq77ak.cloudfront.net/images/social/Pinterest.png",
          "https://d82cz7nyq77ak.cloudfront.net/images/social/Reddit.png",
          "https://d82cz7nyq77ak.cloudfront.net/images/social/Twitter.png",
          "https://d82cz7nyq77ak.cloudfront.net/images/social/Email.png"
        ],
        "confidence": 100,
        "verified_at": "2026-09-20T08:49:46-05:00",
        "street_view_url": "https://www.google.com/maps/@?api=1&map_action=pano&viewpoint=29.585665,-98.334939",
        "google_maps_url": "https://www.google.com/maps/search/?api=1&query=29.585665,-98.334939",
        "status": "verified",
        "geocode_method": "source",
        "notes": "",
        "community_source": "",
        "community_link_or_notes": ""
      }
    },
    {
      "type": "Feature",
      "geometry": {
        "type": "Point",
        "coordinates": [
          -98.246528,
          29.57998
        ]
      },
      "properties": {
        "sale_id": "2026-09-19_420-apache-ledge-cibolo-tx-78108",
        "title": "Family Garage Sale",
        "sale_type": "garage",
        "date_start": "2026-09-19",
        "date_end": "2026-09-20",
        "start_time": "8:00 AM - 5:00 PM",
        "end_time": "",
        "address": "420 Apache Ledge, Cibolo, TX 78108",
        "city": "San Antonio",
        "state": "TX",
        "zip": "",
        "latitude": 29.57998,
        "longitude": -98.246528,
        "description": "Find all the garage sales, yard sales, and estate sales on a map! Or place a free ad for your upcoming sale on yardsalesearch.com",
        "highlights": [],
        "source_urls": [
          "https://www.yardsalesearch.com/yss-garage-sale.jsp?id=196394039"
        ],
        "original_url": "https://www.yardsalesearch.com/yss-garage-sale.jsp?id=196394039",
        "source_names": [
          "YardSaleSearch"
        ],
        "photos": [
          "https://d82cz7nyq77ak.cloudfront.net/images/social/Facebook.png",
          "https://d82cz7nyq77ak.cloudfront.net/images/social/Pinterest.png",
          "https://d82cz7nyq77ak.cloudfront.net/images/social/Reddit.png",
          "https://d82cz7nyq77ak.cloudfront.net/images/social/Twitter.png",
          "https://d82cz7nyq77ak.cloudfront.net/images/social/Email.png"
        ],
        "confidence": 100,
        "verified_at": "2026-09-20T08:49:46-05:00",
        "street_view_url": "https://www.google.com/maps/@?api=1&map_action=pano&viewpoint=29.57998,-98.246528",
        "google_maps_url": "https://www.google.com/maps/search/?api=1&query=29.57998,-98.246528",
        "status": "verified",
        "geocode_method": "source",
        "notes": "",
        "community_source": "",
        "community_link_or_notes": ""
      }
    },
    {
      "type": "Feature",
      "geometry": {
        "type": "Point",
        "coordinates": [
          -98.4936,
          29.4241
        ]
      },
      "properties": {
        "sale_id": "2026-09-20_3070-rr-32-blanco-tx-78606",
        "title": "50% off Sunday after 1 pm estate sale",
        "sale_type": "estate",
        "date_start": "2026-09-20",
        "date_end": "2026-09-20",
        "start_time": "9:00 am - 2:00 pm",
        "end_time": "",
        "address": "3070 Rr 32, Blanco, TX 78606",
        "city": "San Antonio",
        "state": "TX",
        "zip": "",
        "latitude": 29.4241,
        "longitude": -98.4936,
        "description": "Date and Time: Sunday, September 20, 2026 9:00 am - 2:00 pm",
        "highlights": [],
        "source_urls": [
          "https://garagesalefinder.com/s/N9XzL/3070-rr-32-blanco-tx-78606"
        ],
        "original_url": "https://garagesalefinder.com/s/N9XzL/3070-rr-32-blanco-tx-78606",
        "source_names": [
          "GarageSaleFinder"
        ],
        "photos": [
          "https://gsalr.tlstatic.com/image/w150-h100/2026/09/13/s/8/7/38921187/0nMl-0.jpeg",
          "https://gsalr.tlstatic.com/image/w150-h100/2026/09/13/s/8/7/38921187/73szy-0.jpeg",
          "https://gsalr.tlstatic.com/image/w150-h100/2026/09/13/s/8/7/38921187/75dA7-0.jpeg",
          "https://gsalr.tlstatic.com/image/w150-h100/2026/09/13/s/8/7/38921187/766yl-0.jpeg",
          "https://gsalr.tlstatic.com/image/w150-h100/2026/09/13/s/8/7/38921187/776cu-0.jpeg",
          "https://gsalr.tlstatic.com/image/w150-h100/2026/09/13/s/8/7/38921187/77NNR-0.jpeg"
        ],
        "confidence": 100,
        "verified_at": "2026-09-20T08:49:46-05:00",
        "street_view_url": "https://www.google.com/maps/@?api=1&map_action=pano&viewpoint=29.4241,-98.4936",
        "google_maps_url": "https://www.google.com/maps/search/?api=1&query=29.4241,-98.4936",
        "status": "verified",
        "geocode_method": "city-center",
        "notes": "",
        "community_source": "",
        "community_link_or_notes": ""
      }
    },
    {
      "type": "Feature",
      "geometry": {
        "type": "Point",
        "coordinates": [
          -97.9628,
          29.5613
        ]
      },
      "properties": {
        "sale_id": "2026-09-20_631-heathers-way-san-antonio-tx",
        "title": "HUGE Moving Sale!! Everything must go! (Jordan's Creek)",
        "sale_type": "garage",
        "date_start": "2026-09-20",
        "date_end": "2026-09-22",
        "start_time": "",
        "end_time": "",
        "address": "631 Heathers Way, San Antonio, TX",
        "city": "San Antonio",
        "state": "TX",
        "zip": "",
        "latitude": 29.5613,
        "longitude": -97.9628,
        "description": "QR Code Link to This Post HUGE moving sale Saturday and Sunday 9/19-20! 7am-2pm at 631 Heathers Way, Seguin TX 78155. Accepting offers on all items, everything must go!!!! Lawn mower, TVs, CDs, DVDs, books, craft supplies, plus size women's clothes, men's clothes, shoes, holiday and home decor, small furniture, pet supplies, and more!!!!! Cash, Venmo, Cashapp, Zelle accepted.",
        "highlights": [],
        "source_urls": [
          "https://www.craigslist.org/view/d/seguin-huge-moving-sale-everything-must/rA7bY1S6ZjusoHpAwcChAZ"
        ],
        "original_url": "https://www.craigslist.org/view/d/seguin-huge-moving-sale-everything-must/rA7bY1S6ZjusoHpAwcChAZ",
        "source_names": [
          "Craigslist"
        ],
        "photos": [],
        "confidence": 96,
        "verified_at": "2026-09-20T08:49:46-05:00",
        "street_view_url": "https://www.google.com/maps/@?api=1&map_action=pano&viewpoint=29.5613,-97.9628",
        "google_maps_url": "https://www.google.com/maps/search/?api=1&query=29.5613,-97.9628",
        "status": "verified",
        "geocode_method": "source",
        "notes": "",
        "community_source": "",
        "community_link_or_notes": ""
      }
    },
    {
      "type": "Feature",
      "geometry": {
        "type": "Point",
        "coordinates": [
          -98.673011,
          29.504388
        ]
      },
      "properties": {
        "sale_id": "2026-09-20_9558-maidenstone-dr-san-antonio-tx",
        "title": "Huge Antique & Tool Estate Sale",
        "sale_type": "estate",
        "date_start": "2026-09-20",
        "date_end": "2026-09-22",
        "start_time": "",
        "end_time": "",
        "address": "9558 Maidenstone Dr., San Antonio, TX",
        "city": "San Antonio",
        "state": "TX",
        "zip": "",
        "latitude": 29.504388,
        "longitude": -98.673011,
        "description": "QR Code Link to This Post 🔥 VINTAGE TREASURE HUNTERS — THIS IS THE SALE YOU’VE BEEN WAITING FOR! 🔥 Get ready to dig, discover, and treasure hunt through an incredible estate packed with vintage finds, unique pieces, collectibles, and one-of-a-kind treasures! This is the kind of sale where you never know what you’re going to uncover around the next corner. 🏆 Expect to find: • Vintage & antique treasures • Unique collectibles • Furniture & home décor • Artwork & decorative pieces • Kitchenware & h",
        "highlights": [],
        "source_urls": [
          "https://www.craigslist.org/view/d/san-antonio-huge-antique-tool-estate/ovCZwUdoGeWZkkxuSfUgZA"
        ],
        "original_url": "https://www.craigslist.org/view/d/san-antonio-huge-antique-tool-estate/ovCZwUdoGeWZkkxuSfUgZA",
        "source_names": [
          "Craigslist"
        ],
        "photos": [
          "https://images.craigslist.org/00O0O_noMhLcQ9aB_0lM0t2_600x450.jpg",
          "https://images.craigslist.org/00O0O_noMhLcQ9aB_0lM0t2_50x50c.jpg",
          "https://images.craigslist.org/01313_iBbM0SsWlqV_0lM0t2_50x50c.jpg",
          "https://images.craigslist.org/00f0f_dUmRDwth6yM_0lM0t2_50x50c.jpg",
          "https://images.craigslist.org/01616_jDHACAUaric_0lM0t2_50x50c.jpg",
          "https://images.craigslist.org/00e0e_bQ3tSKys5us_0lM0t2_50x50c.jpg"
        ],
        "confidence": 96,
        "verified_at": "2026-09-20T08:49:46-05:00",
        "street_view_url": "https://www.google.com/maps/@?api=1&map_action=pano&viewpoint=29.504388,-98.673011",
        "google_maps_url": "https://www.google.com/maps/search/?api=1&query=29.504388,-98.673011",
        "status": "verified",
        "geocode_method": "source",
        "notes": "",
        "community_source": "",
        "community_link_or_notes": ""
      }
    },
    {
      "type": "Feature",
      "geometry": {
        "type": "Point",
        "coordinates": [
          -98.6094,
          29.556
        ]
      },
      "properties": {
        "sale_id": "2026-09-20_6151-nw-loop-410-san-antonio-tx",
        "title": "Alamo Craft Co. Antiques & More (San Antonio)",
        "sale_type": "garage",
        "date_start": "2026-09-20",
        "date_end": "2026-09-22",
        "start_time": "",
        "end_time": "",
        "address": "6151 NW Loop 410, San Antonio, TX",
        "city": "San Antonio",
        "state": "TX",
        "zip": "",
        "latitude": 29.556,
        "longitude": -98.6094,
        "description": "QR Code Link to This Post OPEN TUES - SAT 10AM-6PM 6151 NW Loop 410, #302 SATX 78238 A hidden gem in San Antonio! Here you'll find unique antiques, vintage items, collectibles, hand-crafted items &amp; so much more. Come by &amp; see all the fun stuff! Ask for your frequent buyer card &amp; get punches with every purchase.",
        "highlights": [],
        "source_urls": [
          "https://www.craigslist.org/view/d/san-antonio-alamo-craft-co-antiques-more/mj6FcRd4ZDr7zwAwc4pwWa"
        ],
        "original_url": "https://www.craigslist.org/view/d/san-antonio-alamo-craft-co-antiques-more/mj6FcRd4ZDr7zwAwc4pwWa",
        "source_names": [
          "Craigslist"
        ],
        "photos": [
          "https://images.craigslist.org/01515_1Xh2ogBe0sZ_0CI0pq_600x450.jpg"
        ],
        "confidence": 96,
        "verified_at": "2026-09-20T08:49:46-05:00",
        "street_view_url": "https://www.google.com/maps/@?api=1&map_action=pano&viewpoint=29.556,-98.6094",
        "google_maps_url": "https://www.google.com/maps/search/?api=1&query=29.556,-98.6094",
        "status": "verified",
        "geocode_method": "source",
        "notes": "",
        "community_source": "",
        "community_link_or_notes": ""
      }
    },
    {
      "type": "Feature",
      "geometry": {
        "type": "Point",
        "coordinates": [
          -98.50624,
          29.320708
        ]
      },
      "properties": {
        "sale_id": "2026-09-20_427-w-chavaneaux-san-antonio-tx",
        "title": "Free Community Yard Sale Today and Sunday at 410 Portable Buildings (San Antonio)",
        "sale_type": "garage",
        "date_start": "2026-09-20",
        "date_end": "2026-09-22",
        "start_time": "",
        "end_time": "",
        "address": "427 w. Chavaneaux, San Antonio, TX",
        "city": "San Antonio",
        "state": "TX",
        "zip": "",
        "latitude": 29.320708,
        "longitude": -98.50624,
        "description": "QR Code Link to This Post 9/19 No Fee for Vendors and Free to the Public ,gate opens at 7am Going on Now, Come and Enjoy the Day, Today we have Sausage wraps and Sunday the Best BBQ Brisket in town. Tools tires and wheels clothing , auto parts Amd much more .Text show contact info to reserve your Free spot. 427 w. Chavaneaux. On the westbound access road of 410 and Moursund",
        "highlights": [],
        "source_urls": [
          "https://www.craigslist.org/view/d/san-antonio-free-community-yard-sale/cGkkwhGwJw6LK232r6S3FK"
        ],
        "original_url": "https://www.craigslist.org/view/d/san-antonio-free-community-yard-sale/cGkkwhGwJw6LK232r6S3FK",
        "source_names": [
          "Craigslist"
        ],
        "photos": [
          "https://images.craigslist.org/00101_7xAxUuCS9eD_0CI0t2_600x450.jpg",
          "https://images.craigslist.org/00101_7xAxUuCS9eD_0CI0t2_50x50c.jpg",
          "https://images.craigslist.org/00T0T_hGc0VIO32br_0CI0t2_50x50c.jpg",
          "https://images.craigslist.org/00Z0Z_3fVCh4pNc9X_0CI0t2_50x50c.jpg",
          "https://images.craigslist.org/00z0z_dop1pusOpqQ_0CI0t2_50x50c.jpg"
        ],
        "confidence": 96,
        "verified_at": "2026-09-20T08:49:46-05:00",
        "street_view_url": "https://www.google.com/maps/@?api=1&map_action=pano&viewpoint=29.320708,-98.50624",
        "google_maps_url": "https://www.google.com/maps/search/?api=1&query=29.320708,-98.50624",
        "status": "verified",
        "geocode_method": "source",
        "notes": "",
        "community_source": "",
        "community_link_or_notes": ""
      }
    },
    {
      "type": "Feature",
      "geometry": {
        "type": "Point",
        "coordinates": [
          -98.4071,
          29.5855
        ]
      },
      "properties": {
        "sale_id": "2026-09-20_3527-green-spring-san-antonio-tx",
        "title": "Furniture for Sale ( please read post, ty) (Green Spring Valley)",
        "sale_type": "garage",
        "date_start": "2026-09-20",
        "date_end": "2026-09-22",
        "start_time": "",
        "end_time": "",
        "address": "3527 Green Spring, San Antonio, TX",
        "city": "San Antonio",
        "state": "TX",
        "zip": "",
        "latitude": 29.5855,
        "longitude": -98.4071,
        "description": "QR Code Link to This Post Dresser ($60)Rugs ($60) three chairs ($70 a piece) a set of side tables set ( $60) coffee table mirror ($75) ( one marble $200) , two vintage lamps pre WW2 ( set $70) and a Flat screen RCA TV with mount controls and manual ( $160) and queen bed ($225 - very clean, pretty iron and so comfy). You will have to send a message just with your name for me to let you in on 25th of September between 12-4. All furniture will need to picked up during these hours as well. I only ta",
        "highlights": [],
        "source_urls": [
          "https://www.craigslist.org/view/d/san-antonio-furniture-for-sale-please/84LPLEmaFGUzdHuyK6dFdb"
        ],
        "original_url": "https://www.craigslist.org/view/d/san-antonio-furniture-for-sale-please/84LPLEmaFGUzdHuyK6dFdb",
        "source_names": [
          "Craigslist"
        ],
        "photos": [
          "https://images.craigslist.org/00Q0Q_hYc7ZomrAJa_0t20CI_600x450.jpg",
          "https://images.craigslist.org/00Q0Q_hYc7ZomrAJa_0t20CI_50x50c.jpg",
          "https://images.craigslist.org/00I0I_afhxbL7aFiz_0t20CI_50x50c.jpg",
          "https://images.craigslist.org/00i0i_9bVQyKNjNZD_0CI0t2_50x50c.jpg",
          "https://images.craigslist.org/00U0U_aG1hrrUytuz_0t20CI_50x50c.jpg",
          "https://images.craigslist.org/00404_jGLAxJTb1o_0t20CI_50x50c.jpg"
        ],
        "confidence": 96,
        "verified_at": "2026-09-20T08:49:46-05:00",
        "street_view_url": "https://www.google.com/maps/@?api=1&map_action=pano&viewpoint=29.5855,-98.4071",
        "google_maps_url": "https://www.google.com/maps/search/?api=1&query=29.5855,-98.4071",
        "status": "verified",
        "geocode_method": "source",
        "notes": "",
        "community_source": "",
        "community_link_or_notes": ""
      }
    },
    {
      "type": "Feature",
      "geometry": {
        "type": "Point",
        "coordinates": [
          -98.387724,
          29.312206
        ]
      },
      "properties": {
        "sale_id": "2026-09-20_10623-green-arbor-st-san-antonio-tx",
        "title": "Garage Sale (Greenway)",
        "sale_type": "garage",
        "date_start": "2026-09-20",
        "date_end": "2026-09-22",
        "start_time": "",
        "end_time": "",
        "address": "10623 Green Arbor St, San Antonio, TX",
        "city": "San Antonio",
        "state": "TX",
        "zip": "",
        "latitude": 29.312206,
        "longitude": -98.387724,
        "description": "QR Code Link to This Post 🚨🛍️ GARAGE SALE THIS WEEKEND! 🛍️🚨 📍 10623 Green Arbor St, San Antonio, TX 78223 👚 Clothes | 🍷 Glassware | 🎨 Arts & Crafts 📚 Kids’ Books | 🧸 Kids’ Items | 🏠 Household Stuff ✨ AND SO MUCH MORE! 📅 FRIDAY 9/18 — ALL DAY 📅 SATURDAY 9/19 — ALL DAY 📅 SUNDAY 9/20 — STARTING AT 1 PM ⏰ 💰 GREAT DEALS! 💰 🔥 Come early, shop around & find some treasures! 🔥 👀 YOU NEVER KNOW WHAT YOU’LL FIND! 😍 📣 Bring your friends & family! 🛒❤️",
        "highlights": [],
        "source_urls": [
          "https://www.craigslist.org/view/d/san-antonio-garage-sale/eJKA2QqsKtq9TTUFWipQ7s"
        ],
        "original_url": "https://www.craigslist.org/view/d/san-antonio-garage-sale/eJKA2QqsKtq9TTUFWipQ7s",
        "source_names": [
          "Craigslist"
        ],
        "photos": [
          "https://images.craigslist.org/00w0w_kZyG16kea2n_0gw0oM_600x450.jpg"
        ],
        "confidence": 96,
        "verified_at": "2026-09-20T08:49:46-05:00",
        "street_view_url": "https://www.google.com/maps/@?api=1&map_action=pano&viewpoint=29.312206,-98.387724",
        "google_maps_url": "https://www.google.com/maps/search/?api=1&query=29.312206,-98.387724",
        "status": "verified",
        "geocode_method": "source",
        "notes": "",
        "community_source": "",
        "community_link_or_notes": ""
      }
    },
    {
      "type": "Feature",
      "geometry": {
        "type": "Point",
        "coordinates": [
          -98.503,
          29.5183
        ]
      },
      "properties": {
        "sale_id": "2026-09-20_nw-loop-410-near-blanco-rd-san-antonio-tx",
        "title": "NOW OPEN! The Collective Boutiques (San Antonio)",
        "sale_type": "garage",
        "date_start": "2026-09-20",
        "date_end": "2026-09-22",
        "start_time": "",
        "end_time": "",
        "address": "NW Loop 410 near Blanco Rd., San Antonio, TX",
        "city": "San Antonio",
        "state": "TX",
        "zip": "",
        "latitude": 29.5183,
        "longitude": -98.503,
        "description": "QR Code Link to This Post Open Everyday. Mon- Sun 10am-8pm 522 NW Loop 410, SATX 78216 Newly opened indoor vendor market in San Antonio featuring unique apparel, home goods, gifts, vintage items, antiques &amp; so much more! Deli &amp; tea room located inside. Clean restrooms. Come stop by &amp; look &amp; shop!",
        "highlights": [],
        "source_urls": [
          "https://www.craigslist.org/view/d/san-antonio-now-open-the-collective/a9UPVs8b9XgmEsUh6iVZ1m"
        ],
        "original_url": "https://www.craigslist.org/view/d/san-antonio-now-open-the-collective/a9UPVs8b9XgmEsUh6iVZ1m",
        "source_names": [
          "Craigslist"
        ],
        "photos": [
          "https://images.craigslist.org/00303_fJujeiiUakX_0CI0eX_600x450.jpg"
        ],
        "confidence": 96,
        "verified_at": "2026-09-20T08:49:46-05:00",
        "street_view_url": "https://www.google.com/maps/@?api=1&map_action=pano&viewpoint=29.5183,-98.503",
        "google_maps_url": "https://www.google.com/maps/search/?api=1&query=29.5183,-98.503",
        "status": "verified",
        "geocode_method": "source",
        "notes": "",
        "community_source": "",
        "community_link_or_notes": ""
      }
    },
    {
      "type": "Feature",
      "geometry": {
        "type": "Point",
        "coordinates": [
          -98.6646,
          29.7327
        ]
      },
      "properties": {
        "sale_id": "2026-09-20_8880-rolling-acres-trail-near-silver-spur-san-an",
        "title": "Yard Sale-1-5pm on Sunday, September 20.",
        "sale_type": "garage",
        "date_start": "2026-09-20",
        "date_end": "2026-09-20",
        "start_time": "",
        "end_time": "",
        "address": "8880 rolling acres trail near Silver spur, San Antonio, TX",
        "city": "San Antonio",
        "state": "TX",
        "zip": "",
        "latitude": 29.7327,
        "longitude": -98.6646,
        "description": "QR Code Link to This Post Making room and getting rid of a few things we do not need. 3 adult women’s bikes ( Trek and Schwann) Dishwasher LG. (Works) Wheels and rims for a Mercedes and BMW. Old golf cart Stove ( 20 year old cafe series..3 burners) Glasses for drinking Bicycle rack for most cars. Bike rack with a hitch connection Dive fins and swim fins. Two weight train belts Fitness Linebacker Squat Landmine Attachment. Assorted stuff",
        "highlights": [],
        "source_urls": [
          "https://www.craigslist.org/view/d/boerne-yard-sale-5pm-on-sunday/jWU3sSYKKkQ5HCr3BrnZ5P"
        ],
        "original_url": "https://www.craigslist.org/view/d/boerne-yard-sale-5pm-on-sunday/jWU3sSYKKkQ5HCr3BrnZ5P",
        "source_names": [
          "Craigslist"
        ],
        "photos": [
          "https://images.craigslist.org/00e0e_82h9N813PdN_0t20CI_600x450.jpg",
          "https://images.craigslist.org/00e0e_82h9N813PdN_0t20CI_50x50c.jpg",
          "https://images.craigslist.org/00G0G_bHPIWEqCWkU_0oQ0t2_50x50c.jpg",
          "https://images.craigslist.org/01212_U30lvrvFkg_0g20t2_50x50c.jpg",
          "https://images.craigslist.org/00M0M_4UE1ncodf5b_0t20CI_50x50c.jpg",
          "https://images.craigslist.org/00O0O_kNlwRMaVYPt_0t20CI_50x50c.jpg"
        ],
        "confidence": 96,
        "verified_at": "2026-09-20T08:49:46-05:00",
        "street_view_url": "https://www.google.com/maps/@?api=1&map_action=pano&viewpoint=29.7327,-98.6646",
        "google_maps_url": "https://www.google.com/maps/search/?api=1&query=29.7327,-98.6646",
        "status": "verified",
        "geocode_method": "source",
        "notes": "",
        "community_source": "",
        "community_link_or_notes": ""
      }
    }
  ]
}