{
  "type": "FeatureCollection",
  "properties": {
    "target_date": "2026-09-08",
    "generated_at": "2026-09-08T09:00:30-05:00",
    "count": 8,
    "project": "Chicas-Map"
  },
  "features": [
    {
      "type": "Feature",
      "geometry": {
        "type": "Point",
        "coordinates": [
          -98.6423846,
          29.7310499
        ]
      },
      "properties": {
        "sale_id": "2026-08-28_boerne-tx-78015",
        "title": "Fairway Finds & Home Treasures in Fair Oaks Ranch, TX. Bidding Ends 9/9.",
        "sale_type": "estate",
        "date_start": "2026-08-28",
        "date_end": "2026-09-09",
        "start_time": "",
        "end_time": "",
        "address": "Boerne, TX 78015",
        "city": "San Antonio",
        "state": "TX",
        "zip": "",
        "latitude": 29.7310499,
        "longitude": -98.6423846,
        "description": "Caring Transitions of Boerne, Fredericksburg, and Kerrville. Welcome Home to CTBids! We put together an excellent selection of items for you! Start exploring and discover the deals for yourself! Bidding on ALL items starts at $1! Set along a beautiful golf course, this welcoming estate sale offers the qua...",
        "highlights": [],
        "source_urls": [
          "https://estatesales.org/estate-sales/tx/boerne/78015/fairway-finds-home-treasures-in-2460195"
        ],
        "original_url": "https://estatesales.org/estate-sales/tx/boerne/78015/fairway-finds-home-treasures-in-2460195",
        "source_names": [
          "EstateSales.org"
        ],
        "photos": [
          "https://estatesales.org/uploads/2024/02/04/m/7/5/2392475/4PGu6-1.jpeg",
          "https://estatesales.org/2036244653/css/images/social/facebook.png",
          "https://eso-cdn.tlcdn.workers.dev/s-2460195-od17xp9nuj0xs7m4-t.webp",
          "https://eso-cdn.tlcdn.workers.dev/s-2460195-pybki626fowiwm7b-t.webp",
          "https://eso-cdn.tlcdn.workers.dev/s-2460195-wrxc3e285jj2f8x5-t.webp",
          "https://eso-cdn.tlcdn.workers.dev/s-2460195-zzh77be7x62fjv9r-t.webp"
        ],
        "confidence": 96,
        "verified_at": "2026-09-08T09:00:17-05:00",
        "street_view_url": "https://www.google.com/maps/@?api=1&map_action=pano&viewpoint=29.7310499,-98.6423846",
        "google_maps_url": "https://www.google.com/maps/search/?api=1&query=29.7310499,-98.6423846",
        "status": "verified",
        "geocode_method": "source",
        "notes": "",
        "community_source": "",
        "community_link_or_notes": ""
      }
    },
    {
      "type": "Feature",
      "geometry": {
        "type": "Point",
        "coordinates": [
          -98.7319703,
          29.7946641
        ]
      },
      "properties": {
        "sale_id": "2026-09-05_boerne-tx-78006",
        "title": "Wanderlust & Exceptional Quality in Boerne, TX. Bidding Ends 9/14.",
        "sale_type": "estate",
        "date_start": "2026-09-05",
        "date_end": "2026-09-14",
        "start_time": "",
        "end_time": "",
        "address": "Boerne, TX 78006",
        "city": "San Antonio",
        "state": "TX",
        "zip": "",
        "latitude": 29.7946641,
        "longitude": -98.7319703,
        "description": "Caring Transitions of Boerne, Fredericksburg, and Kerrville. Welcome Home to CTBids! We put together an excellent selection of items for you! Start exploring and discover the deals for yourself! Bidding on ALL items starts at $1! Explore a truly distinctive estate sale filled with quality, craftsmanship, ...",
        "highlights": [],
        "source_urls": [
          "https://estatesales.org/estate-sales/tx/boerne/78006/wanderlust-exceptional-quality-in-boerne-2461245"
        ],
        "original_url": "https://estatesales.org/estate-sales/tx/boerne/78006/wanderlust-exceptional-quality-in-boerne-2461245",
        "source_names": [
          "EstateSales.org"
        ],
        "photos": [
          "https://estatesales.org/uploads/2024/02/04/m/7/5/2392475/4PGu6-1.jpeg",
          "https://estatesales.org/2036244653/css/images/social/facebook.png",
          "https://eso-cdn.tlcdn.workers.dev/s-2461245-lg5or3nkgnaluv3j-t.webp",
          "https://eso-cdn.tlcdn.workers.dev/s-2461245-9laz0qe0fs9vs43h-t.webp",
          "https://eso-cdn.tlcdn.workers.dev/s-2461245-el55eiagsfz64fzr-t.webp",
          "https://eso-cdn.tlcdn.workers.dev/s-2461245-oqodrzhl5dwaryy1-t.webp"
        ],
        "confidence": 96,
        "verified_at": "2026-09-08T09:00:17-05:00",
        "street_view_url": "https://www.google.com/maps/@?api=1&map_action=pano&viewpoint=29.7946641,-98.7319703",
        "google_maps_url": "https://www.google.com/maps/search/?api=1&query=29.7946641,-98.7319703",
        "status": "verified",
        "geocode_method": "source",
        "notes": "",
        "community_source": "",
        "community_link_or_notes": ""
      }
    },
    {
      "type": "Feature",
      "geometry": {
        "type": "Point",
        "coordinates": [
          -98.4936,
          29.4241
        ]
      },
      "properties": {
        "sale_id": "2026-09-04_san-marcos-tx-78666",
        "title": "Funky Finds - Bidding ends 9/13",
        "sale_type": "estate",
        "date_start": "2026-09-04",
        "date_end": "2026-09-13",
        "start_time": "8:00 am - 11:59 pm",
        "end_time": "",
        "address": "San Marcos, TX 78666",
        "city": "San Antonio",
        "state": "TX",
        "zip": "",
        "latitude": 29.4241,
        "longitude": -98.4936,
        "description": "Dates and Times: Friday, September 4, 2026 8:00 am - 11:59 pm",
        "highlights": [],
        "source_urls": [
          "https://garagesalefinder.com/s/N9t6a/san-marcos-tx-78666"
        ],
        "original_url": "https://garagesalefinder.com/s/N9t6a/san-marcos-tx-78666",
        "source_names": [
          "GarageSaleFinder"
        ],
        "photos": [
          "https://eso-cdn.tlcdn.workers.dev/s-2461105-bav9mp0z37cxh7s7-t.webp",
          "https://eso-cdn.tlcdn.workers.dev/s-2461105-wgiw6eyty4n1euwd-t.webp",
          "https://eso-cdn.tlcdn.workers.dev/s-2461105-2fk2qc32zhr8zhfq-t.webp",
          "https://eso-cdn.tlcdn.workers.dev/s-2461105-7tnswcqvkdn6gn44-t.webp",
          "https://eso-cdn.tlcdn.workers.dev/s-2461105-76z9eqsev6uu1oj1-t.webp",
          "https://eso-cdn.tlcdn.workers.dev/s-2461105-4l8aick5aef68ebz-t.webp"
        ],
        "confidence": 100,
        "verified_at": "2026-09-08T09:00:17-05:00",
        "street_view_url": "https://www.google.com/maps/@?api=1&map_action=pano&viewpoint=29.4241,-98.4936",
        "google_maps_url": "https://www.google.com/maps/search/?api=1&query=29.4241,-98.4936",
        "status": "verified",
        "geocode_method": "city-center",
        "notes": "",
        "community_source": "",
        "community_link_or_notes": ""
      }
    },
    {
      "type": "Feature",
      "geometry": {
        "type": "Point",
        "coordinates": [
          -98.9484,
          29.6796
        ]
      },
      "properties": {
        "sale_id": "2026-09-08_472-mustang-crossing-san-antonio-tx",
        "title": "Planes, Trains, Automobiles and More Estate Sale (Pipe Creek)",
        "sale_type": "estate",
        "date_start": "2026-09-08",
        "date_end": "2026-09-10",
        "start_time": "",
        "end_time": "",
        "address": "472 Mustang Crossing, San Antonio, TX",
        "city": "San Antonio",
        "state": "TX",
        "zip": "",
        "latitude": 29.6796,
        "longitude": -98.9484,
        "description": "QR Code Link to This Post Cash and all charge cards Bring your own muscle to load furniture Not responsible for accidents No Pre Pricing and No Pre Sale No sign up sheets/Just show up and shop If you don't live in this area pack some drinks and a lunch and come on out. We have a 1956 Pontiac for sale 7,500.00 obo Hugh hot wheels collection Indians and Army toys Model Planes Lots of Tools Metal Gas Cans TV and Sound Bar Lamps Bell collection Small Tables/Night Stands Mid Century Basset Dresser wi",
        "highlights": [],
        "source_urls": [
          "https://www.craigslist.org/view/d/pipe-creek-planes-trains-automobiles/ametBcqRLXDtuVdZvDj5dN"
        ],
        "original_url": "https://www.craigslist.org/view/d/pipe-creek-planes-trains-automobiles/ametBcqRLXDtuVdZvDj5dN",
        "source_names": [
          "Craigslist"
        ],
        "photos": [
          "https://images.craigslist.org/00C0C_dZEiIuaVsOQ_0cT09F_600x450.jpg",
          "https://images.craigslist.org/00C0C_dZEiIuaVsOQ_0cT09F_50x50c.jpg",
          "https://images.craigslist.org/01212_dFB1byDsycp_09F0cT_50x50c.jpg",
          "https://images.craigslist.org/00505_hgI409Tfj5L_0cT09F_50x50c.jpg",
          "https://images.craigslist.org/01010_ag2k6Cx2bfo_09F0cT_50x50c.jpg",
          "https://images.craigslist.org/00K0K_fXaUEOGyzgt_09F0cT_50x50c.jpg"
        ],
        "confidence": 96,
        "verified_at": "2026-09-08T09:00:17-05:00",
        "street_view_url": "https://www.google.com/maps/@?api=1&map_action=pano&viewpoint=29.6796,-98.9484",
        "google_maps_url": "https://www.google.com/maps/search/?api=1&query=29.6796,-98.9484",
        "status": "verified",
        "geocode_method": "source",
        "notes": "",
        "community_source": "",
        "community_link_or_notes": ""
      }
    },
    {
      "type": "Feature",
      "geometry": {
        "type": "Point",
        "coordinates": [
          -98.1672,
          29.6636
        ]
      },
      "properties": {
        "sale_id": "2026-09-08_us-35n-near-cibilo-valley-exit-san-antonio-tx",
        "title": "Unbelievable collection liquidation (Schertz)",
        "sale_type": "estate",
        "date_start": "2026-09-08",
        "date_end": "2026-09-10",
        "start_time": "",
        "end_time": "",
        "address": "US 35n near Cibilo Valley exit, San Antonio, TX",
        "city": "San Antonio",
        "state": "TX",
        "zip": "",
        "latitude": 29.6636,
        "longitude": -98.1672,
        "description": "QR Code Link to This Post Attention Resellers!!! Huge sell off liquidation of decades of collecting!!! Starting Saturday-Sunday sept 12th and 13th Booths 383 and 306 at Busseys flea market Front aisle right of the parking lot. See pics. More and more new inventory every weekend until December.",
        "highlights": [],
        "source_urls": [
          "https://www.craigslist.org/view/d/new-braunfels-unbelievable-collection/6mxMeJuTorrrK9csPPdpLv"
        ],
        "original_url": "https://www.craigslist.org/view/d/new-braunfels-unbelievable-collection/6mxMeJuTorrrK9csPPdpLv",
        "source_names": [
          "Craigslist"
        ],
        "photos": [
          "https://images.craigslist.org/00d0d_aB3U1uqnde5_0t20CI_600x450.jpg",
          "https://images.craigslist.org/00d0d_aB3U1uqnde5_0t20CI_50x50c.jpg",
          "https://images.craigslist.org/00J0J_ifHhBWwTJbp_0t20CI_50x50c.jpg",
          "https://images.craigslist.org/00c0c_3xG8m02OOSm_0t20CI_50x50c.jpg",
          "https://images.craigslist.org/00j0j_6Ih1vy3d1X_0t20CI_50x50c.jpg",
          "https://images.craigslist.org/00q0q_4rTQI2Bx814_0t20CI_50x50c.jpg"
        ],
        "confidence": 96,
        "verified_at": "2026-09-08T09:00:17-05:00",
        "street_view_url": "https://www.google.com/maps/@?api=1&map_action=pano&viewpoint=29.6636,-98.1672",
        "google_maps_url": "https://www.google.com/maps/search/?api=1&query=29.6636,-98.1672",
        "status": "verified",
        "geocode_method": "source",
        "notes": "",
        "community_source": "",
        "community_link_or_notes": ""
      }
    },
    {
      "type": "Feature",
      "geometry": {
        "type": "Point",
        "coordinates": [
          -98.6094,
          29.556
        ]
      },
      "properties": {
        "sale_id": "2026-09-08_6151-nw-loop-410-san-antonio-tx",
        "title": "Alamo Craft Co. Antiques & More (San Antonio)",
        "sale_type": "garage",
        "date_start": "2026-09-08",
        "date_end": "2026-09-10",
        "start_time": "",
        "end_time": "",
        "address": "6151 NW Loop 410, San Antonio, TX",
        "city": "San Antonio",
        "state": "TX",
        "zip": "",
        "latitude": 29.556,
        "longitude": -98.6094,
        "description": "QR Code Link to This Post OPEN TUES - SAT 10AM-6PM 6151 NW Loop 410, #302 SATX 78238 A hidden gem in San Antonio! Here you'll find unique antiques, vintage items, collectibles, hand-crafted items &amp; so much more. Come by &amp; see all the fun stuff! Ask for your frequent buyer card &amp; get punches with every purchase.",
        "highlights": [],
        "source_urls": [
          "https://www.craigslist.org/view/d/san-antonio-alamo-craft-co-antiques-more/mj6FcRd4ZDr7zwAwc4pwWa"
        ],
        "original_url": "https://www.craigslist.org/view/d/san-antonio-alamo-craft-co-antiques-more/mj6FcRd4ZDr7zwAwc4pwWa",
        "source_names": [
          "Craigslist"
        ],
        "photos": [
          "https://images.craigslist.org/01515_1Xh2ogBe0sZ_0CI0pq_600x450.jpg"
        ],
        "confidence": 96,
        "verified_at": "2026-09-08T09:00:17-05:00",
        "street_view_url": "https://www.google.com/maps/@?api=1&map_action=pano&viewpoint=29.556,-98.6094",
        "google_maps_url": "https://www.google.com/maps/search/?api=1&query=29.556,-98.6094",
        "status": "verified",
        "geocode_method": "source",
        "notes": "",
        "community_source": "",
        "community_link_or_notes": ""
      }
    },
    {
      "type": "Feature",
      "geometry": {
        "type": "Point",
        "coordinates": [
          -98.374447,
          29.532047
        ]
      },
      "properties": {
        "sale_id": "2026-09-08_5802-grandwood-drive-near-weidner-rd-san-antonio",
        "title": "Multi-Family Garage Sale (Royal Ridge)",
        "sale_type": "garage",
        "date_start": "2026-09-08",
        "date_end": "2026-09-10",
        "start_time": "9:00 AM – 5:00 PM",
        "end_time": "",
        "address": "5802 Grandwood Drive near Weidner Rd, San Antonio, TX",
        "city": "San Antonio",
        "state": "TX",
        "zip": "",
        "latitude": 29.532047,
        "longitude": -98.374447,
        "description": "QR Code Link to This Post 🏡✨ MULTI-FAMILY GARAGE SALE — TWO BIG DAYS! ✨🏡 📅 Friday, September 11th & Saturday, September 12th ⏰ 9:00 AM – 5:00 PM 📍 5802 Grandwood Dr. ➡️ Garage faces Weidner Rd. 🎉 We’ve been cleaning, organizing, and gathering LOTS of great stuff — and there’s something for just about everyone! Come browse, hunt for treasures, and grab some great deals! 🍂🎃🎄 SEASONAL & HOLIDAY DECOR Fall & Thanksgiving décor Halloween decorations & costumes Christmas décor Décor for other holidays",
        "highlights": [],
        "source_urls": [
          "https://www.craigslist.org/view/d/san-antonio-multi-family-garage-sale/g1qREGFgEjpJkKnPFEdcUh"
        ],
        "original_url": "https://www.craigslist.org/view/d/san-antonio-multi-family-garage-sale/g1qREGFgEjpJkKnPFEdcUh",
        "source_names": [
          "Craigslist"
        ],
        "photos": [
          "https://images.craigslist.org/00b0b_cYh7EVBKHPK_0CI0t2_600x450.jpg",
          "https://images.craigslist.org/00b0b_cYh7EVBKHPK_0CI0t2_50x50c.jpg",
          "https://images.craigslist.org/00n0n_kdaB1F2sQQ0_0CI0t2_50x50c.jpg",
          "https://images.craigslist.org/01616_DUprf4XeLx_0CI0t2_50x50c.jpg",
          "https://images.craigslist.org/00i0i_feUmFln9Le7_0t20CI_50x50c.jpg",
          "https://images.craigslist.org/00L0L_aaKySOrXL5s_0CI0t2_50x50c.jpg"
        ],
        "confidence": 100,
        "verified_at": "2026-09-08T09:00:17-05:00",
        "street_view_url": "https://www.google.com/maps/@?api=1&map_action=pano&viewpoint=29.532047,-98.374447",
        "google_maps_url": "https://www.google.com/maps/search/?api=1&query=29.532047,-98.374447",
        "status": "verified",
        "geocode_method": "source",
        "notes": "",
        "community_source": "",
        "community_link_or_notes": ""
      }
    },
    {
      "type": "Feature",
      "geometry": {
        "type": "Point",
        "coordinates": [
          -98.648461,
          29.528639
        ]
      },
      "properties": {
        "sale_id": "2026-09-08_9330-bianca-st-near-bandera-braun-san-antonio-tx",
        "title": "garage sale. Great Prices (San Antonio)",
        "sale_type": "garage",
        "date_start": "2026-09-08",
        "date_end": "2026-09-10",
        "start_time": "",
        "end_time": "",
        "address": "9330 Bianca ST near Bandera & Braun, San Antonio, TX",
        "city": "San Antonio",
        "state": "TX",
        "zip": "",
        "latitude": 29.528639,
        "longitude": -98.648461,
        "description": "QR Code Link to This Post Huge Garage Sale!! Great Prices. Washer /Dryer Kenmore H3, Insigna TV 4K HD firestick, Lg. Outdoor Umbrella, Jewelry, Cabinets, craft items, gift items, blinds, King comforter, Glass sets, Vera Bag, Clothes- Mens 4X, shoes. Womens Plus size 3x-4x. AND MUCH MORE !!!! Most Clothes $1-$10. Hope to see you :)",
        "highlights": [],
        "source_urls": [
          "https://www.craigslist.org/view/d/san-antonio-garage-sale-great-prices/fx8E3DM2M5G9RFCjuXRsfY"
        ],
        "original_url": "https://www.craigslist.org/view/d/san-antonio-garage-sale-great-prices/fx8E3DM2M5G9RFCjuXRsfY",
        "source_names": [
          "Craigslist"
        ],
        "photos": [],
        "confidence": 96,
        "verified_at": "2026-09-08T09:00:17-05:00",
        "street_view_url": "https://www.google.com/maps/@?api=1&map_action=pano&viewpoint=29.528639,-98.648461",
        "google_maps_url": "https://www.google.com/maps/search/?api=1&query=29.528639,-98.648461",
        "status": "verified",
        "geocode_method": "source",
        "notes": "",
        "community_source": "",
        "community_link_or_notes": ""
      }
    }
  ]
}