{
  "type": "FeatureCollection",
  "properties": {
    "target_date": "2026-09-11",
    "generated_at": "2026-09-11T09:54:54-05:00",
    "count": 28,
    "project": "Chicas-Map"
  },
  "features": [
    {
      "type": "Feature",
      "geometry": {
        "type": "Point",
        "coordinates": [
          -98.391042,
          29.3141035
        ]
      },
      "properties": {
        "sale_id": "2026-09-11_10427-green-candle-san-antonio-tx-78223",
        "title": "Contractor’S Tool-Packed Estate Sale — Furniture, Electronics, Ford F-150, Fishing Boat & More!",
        "sale_type": "estate",
        "date_start": "2026-09-11",
        "date_end": "2026-09-13",
        "start_time": "9:00 AM - 3:00 PM",
        "end_time": "",
        "address": "10427 Green Candle, San Antonio, TX 78223",
        "city": "San Antonio",
        "state": "TX",
        "zip": "",
        "latitude": 29.3141035,
        "longitude": -98.391042,
        "description": "Find all the garage sales, yard sales, and estate sales on a map! Or place a free ad for your upcoming sale on yardsalesearch.com",
        "highlights": [],
        "source_urls": [
          "https://www.yardsalesearch.com/yss-garage-sale.jsp?id=196376095"
        ],
        "original_url": "https://www.yardsalesearch.com/yss-garage-sale.jsp?id=196376095",
        "source_names": [
          "YardSaleSearch"
        ],
        "photos": [
          "https://d82cz7nyq77ak.cloudfront.net/images/social/Facebook.png",
          "https://d82cz7nyq77ak.cloudfront.net/images/social/Pinterest.png",
          "https://d82cz7nyq77ak.cloudfront.net/images/social/Reddit.png",
          "https://d82cz7nyq77ak.cloudfront.net/images/social/Twitter.png",
          "https://d82cz7nyq77ak.cloudfront.net/images/social/Email.png",
          "https://eso-cdn.tlcdn.workers.dev/s-2461398-c62y117ebg91670x-t.webp"
        ],
        "confidence": 100,
        "verified_at": "2026-09-11T09:54:01-05:00",
        "street_view_url": "https://www.google.com/maps/@?api=1&map_action=pano&viewpoint=29.3141035,-98.391042",
        "google_maps_url": "https://www.google.com/maps/search/?api=1&query=29.3141035,-98.391042",
        "status": "verified",
        "geocode_method": "source",
        "notes": "",
        "community_source": "",
        "community_link_or_notes": ""
      }
    },
    {
      "type": "Feature",
      "geometry": {
        "type": "Point",
        "coordinates": [
          -98.285762,
          29.550299
        ]
      },
      "properties": {
        "sale_id": "2026-09-11_409-e-langley-blvd-universal-city-tx-78148",
        "title": "Sooo Much! Vintage Collectibles, And Antiques And More",
        "sale_type": "garage",
        "date_start": "2026-09-11",
        "date_end": "2026-09-12",
        "start_time": "8:00 AM - 3:00 PM",
        "end_time": "",
        "address": "409 E Langley Blvd, Universal City, TX 78148",
        "city": "San Antonio",
        "state": "TX",
        "zip": "",
        "latitude": 29.550299,
        "longitude": -98.285762,
        "description": "Find all the garage sales, yard sales, and estate sales on a map! Or place a free ad for your upcoming sale on yardsalesearch.com",
        "highlights": [],
        "source_urls": [
          "https://www.yardsalesearch.com/yss-garage-sale.jsp?id=196359177"
        ],
        "original_url": "https://www.yardsalesearch.com/yss-garage-sale.jsp?id=196359177",
        "source_names": [
          "YardSaleSearch"
        ],
        "photos": [
          "https://d82cz7nyq77ak.cloudfront.net/images/social/Facebook.png",
          "https://d82cz7nyq77ak.cloudfront.net/images/social/Pinterest.png",
          "https://d82cz7nyq77ak.cloudfront.net/images/social/Reddit.png",
          "https://d82cz7nyq77ak.cloudfront.net/images/social/Twitter.png",
          "https://d82cz7nyq77ak.cloudfront.net/images/social/Email.png",
          "https://d3sp8ubbhnru9d.cloudfront.net/image/w300-c300:250/2026/08/22/s/9/7/38894797/7k7GT-0.jpeg"
        ],
        "confidence": 100,
        "verified_at": "2026-09-11T09:54:01-05:00",
        "street_view_url": "https://www.google.com/maps/@?api=1&map_action=pano&viewpoint=29.550299,-98.285762",
        "google_maps_url": "https://www.google.com/maps/search/?api=1&query=29.550299,-98.285762",
        "status": "verified",
        "geocode_method": "source",
        "notes": "",
        "community_source": "",
        "community_link_or_notes": ""
      }
    },
    {
      "type": "Feature",
      "geometry": {
        "type": "Point",
        "coordinates": [
          -98.7319703,
          29.7946641
        ]
      },
      "properties": {
        "sale_id": "2026-09-05_boerne-tx-78006",
        "title": "Wanderlust & Exceptional Quality in Boerne, TX. Bidding Ends 9/14.",
        "sale_type": "estate",
        "date_start": "2026-09-05",
        "date_end": "2026-09-14",
        "start_time": "",
        "end_time": "",
        "address": "Boerne, TX 78006",
        "city": "San Antonio",
        "state": "TX",
        "zip": "",
        "latitude": 29.7946641,
        "longitude": -98.7319703,
        "description": "Caring Transitions of Boerne, Fredericksburg, and Kerrville. Welcome Home to CTBids! We put together an excellent selection of items for you! Start exploring and discover the deals for yourself! Bidding on ALL items starts at $1! Explore a truly distinctive estate sale filled with quality, craftsmanship, ...",
        "highlights": [],
        "source_urls": [
          "https://estatesales.org/estate-sales/tx/boerne/78006/wanderlust-exceptional-quality-in-boerne-2461245"
        ],
        "original_url": "https://estatesales.org/estate-sales/tx/boerne/78006/wanderlust-exceptional-quality-in-boerne-2461245",
        "source_names": [
          "EstateSales.org"
        ],
        "photos": [
          "https://estatesales.org/uploads/2024/02/04/m/7/5/2392475/4PGu6-1.jpeg",
          "https://estatesales.org/2036244653/css/images/social/facebook.png",
          "https://eso-cdn.tlcdn.workers.dev/s-2461245-lg5or3nkgnaluv3j-t.webp",
          "https://eso-cdn.tlcdn.workers.dev/s-2461245-9laz0qe0fs9vs43h-t.webp",
          "https://eso-cdn.tlcdn.workers.dev/s-2461245-el55eiagsfz64fzr-t.webp",
          "https://eso-cdn.tlcdn.workers.dev/s-2461245-oqodrzhl5dwaryy1-t.webp"
        ],
        "confidence": 96,
        "verified_at": "2026-09-11T09:54:01-05:00",
        "street_view_url": "https://www.google.com/maps/@?api=1&map_action=pano&viewpoint=29.7946641,-98.7319703",
        "google_maps_url": "https://www.google.com/maps/search/?api=1&query=29.7946641,-98.7319703",
        "status": "verified",
        "geocode_method": "source",
        "notes": "",
        "community_source": "",
        "community_link_or_notes": ""
      }
    },
    {
      "type": "Feature",
      "geometry": {
        "type": "Point",
        "coordinates": [
          -98.4936,
          29.4241
        ]
      },
      "properties": {
        "sale_id": "2026-09-10_seguin-tx-78155",
        "title": "Furniture & Fabulous Finds Online Auction - Ends 9/17! (Pick-up: Sat, 9/19 in TX, 78155)",
        "sale_type": "estate",
        "date_start": "2026-09-10",
        "date_end": "2026-09-17",
        "start_time": "1:34 pm - 11:59 pm",
        "end_time": "",
        "address": "Seguin, TX 78155",
        "city": "San Antonio",
        "state": "TX",
        "zip": "",
        "latitude": 29.4241,
        "longitude": -98.4936,
        "description": "Dates and Times: Thursday, September 10, 2026 1:34 pm - 11:59 pm",
        "highlights": [],
        "source_urls": [
          "https://garagesalefinder.com/s/N9JJr/seguin-tx-78155"
        ],
        "original_url": "https://garagesalefinder.com/s/N9JJr/seguin-tx-78155",
        "source_names": [
          "GarageSaleFinder"
        ],
        "photos": [
          "https://eso-cdn.tlcdn.workers.dev/s-2462197-3ro9f86tydmza4mk-t.webp",
          "https://eso-cdn.tlcdn.workers.dev/s-2462197-1zei1yi80hxyiyds-t.webp",
          "https://eso-cdn.tlcdn.workers.dev/s-2462197-1fk24c8wxmrquilb-t.webp",
          "https://eso-cdn.tlcdn.workers.dev/s-2462197-kph92mw1wn3zcjmr-t.webp",
          "https://eso-cdn.tlcdn.workers.dev/s-2462197-1hox2m1nqrc5dpr9-t.webp",
          "https://eso-cdn.tlcdn.workers.dev/s-2462197-iuavngvjvfy74mig-t.webp"
        ],
        "confidence": 100,
        "verified_at": "2026-09-11T09:54:01-05:00",
        "street_view_url": "https://www.google.com/maps/@?api=1&map_action=pano&viewpoint=29.4241,-98.4936",
        "google_maps_url": "https://www.google.com/maps/search/?api=1&query=29.4241,-98.4936",
        "status": "verified",
        "geocode_method": "city-center",
        "notes": "",
        "community_source": "",
        "community_link_or_notes": ""
      }
    },
    {
      "type": "Feature",
      "geometry": {
        "type": "Point",
        "coordinates": [
          -98.4936,
          29.4241
        ]
      },
      "properties": {
        "sale_id": "2026-09-04_san-marcos-tx-78666",
        "title": "Funky Finds - Bidding ends 9/13",
        "sale_type": "estate",
        "date_start": "2026-09-04",
        "date_end": "2026-09-13",
        "start_time": "8:00 am - 11:59 pm",
        "end_time": "",
        "address": "San Marcos, TX 78666",
        "city": "San Antonio",
        "state": "TX",
        "zip": "",
        "latitude": 29.4241,
        "longitude": -98.4936,
        "description": "Dates and Times: Friday, September 4, 2026 8:00 am - 11:59 pm",
        "highlights": [],
        "source_urls": [
          "https://garagesalefinder.com/s/N9t6a/san-marcos-tx-78666"
        ],
        "original_url": "https://garagesalefinder.com/s/N9t6a/san-marcos-tx-78666",
        "source_names": [
          "GarageSaleFinder"
        ],
        "photos": [
          "https://eso-cdn.tlcdn.workers.dev/s-2461105-bav9mp0z37cxh7s7-t.webp",
          "https://eso-cdn.tlcdn.workers.dev/s-2461105-wgiw6eyty4n1euwd-t.webp",
          "https://eso-cdn.tlcdn.workers.dev/s-2461105-2fk2qc32zhr8zhfq-t.webp",
          "https://eso-cdn.tlcdn.workers.dev/s-2461105-7tnswcqvkdn6gn44-t.webp",
          "https://eso-cdn.tlcdn.workers.dev/s-2461105-76z9eqsev6uu1oj1-t.webp",
          "https://eso-cdn.tlcdn.workers.dev/s-2461105-4l8aick5aef68ebz-t.webp"
        ],
        "confidence": 100,
        "verified_at": "2026-09-11T09:54:01-05:00",
        "street_view_url": "https://www.google.com/maps/@?api=1&map_action=pano&viewpoint=29.4241,-98.4936",
        "google_maps_url": "https://www.google.com/maps/search/?api=1&query=29.4241,-98.4936",
        "status": "verified",
        "geocode_method": "city-center",
        "notes": "",
        "community_source": "",
        "community_link_or_notes": ""
      }
    },
    {
      "type": "Feature",
      "geometry": {
        "type": "Point",
        "coordinates": [
          -98.4936,
          29.4241
        ]
      },
      "properties": {
        "sale_id": "2026-09-09_wimberley-tx-78676",
        "title": "Curios & Coins Online Auction by Caring Transitions - Ends 9/17!",
        "sale_type": "estate",
        "date_start": "2026-09-09",
        "date_end": "2026-09-17",
        "start_time": "1:43 pm - 11:59 pm",
        "end_time": "",
        "address": "Wimberley, TX 78676",
        "city": "San Antonio",
        "state": "TX",
        "zip": "",
        "latitude": 29.4241,
        "longitude": -98.4936,
        "description": "Dates and Times: Wednesday, September 9, 2026 1:43 pm - 11:59 pm",
        "highlights": [],
        "source_urls": [
          "https://garagesalefinder.com/s/N9lAZ/wimberley-tx-78676"
        ],
        "original_url": "https://garagesalefinder.com/s/N9lAZ/wimberley-tx-78676",
        "source_names": [
          "GarageSaleFinder"
        ],
        "photos": [
          "https://eso-cdn.tlcdn.workers.dev/s-2461966-5zuem4k787ggrls9-t.jpg",
          "https://eso-cdn.tlcdn.workers.dev/s-2461966-lmdst20pzwtrycee-t.jpg",
          "https://eso-cdn.tlcdn.workers.dev/s-2461966-jvtz2p1k0aj53yue-t.jpg",
          "https://eso-cdn.tlcdn.workers.dev/s-2461966-y6ojskphe75ketdx-t.jpg",
          "https://eso-cdn.tlcdn.workers.dev/s-2461966-ko2gt7e77tym90a2-t.jpg",
          "https://eso-cdn.tlcdn.workers.dev/s-2461966-cmids7itulnnsno1-t.jpg"
        ],
        "confidence": 100,
        "verified_at": "2026-09-11T09:54:01-05:00",
        "street_view_url": "https://www.google.com/maps/@?api=1&map_action=pano&viewpoint=29.4241,-98.4936",
        "google_maps_url": "https://www.google.com/maps/search/?api=1&query=29.4241,-98.4936",
        "status": "verified",
        "geocode_method": "city-center",
        "notes": "",
        "community_source": "",
        "community_link_or_notes": ""
      }
    },
    {
      "type": "Feature",
      "geometry": {
        "type": "Point",
        "coordinates": [
          -98.370411,
          29.516988
        ]
      },
      "properties": {
        "sale_id": "2026-09-10_6017-bayou-bnd-windcrest-tx-78239",
        "title": "Citywide Garage Sale",
        "sale_type": "garage",
        "date_start": "2026-09-10",
        "date_end": "2026-09-13",
        "start_time": "9:00 AM - 4:00 PM",
        "end_time": "",
        "address": "6017 Bayou Bnd, Windcrest, TX 78239",
        "city": "San Antonio",
        "state": "TX",
        "zip": "",
        "latitude": 29.516988,
        "longitude": -98.370411,
        "description": "Find all the garage sales, yard sales, and estate sales on a map! Or place a free ad for your upcoming sale on yardsalesearch.com",
        "highlights": [],
        "source_urls": [
          "https://www.yardsalesearch.com/yss-garage-sale.jsp?id=196379329"
        ],
        "original_url": "https://www.yardsalesearch.com/yss-garage-sale.jsp?id=196379329",
        "source_names": [
          "YardSaleSearch"
        ],
        "photos": [
          "https://d82cz7nyq77ak.cloudfront.net/images/social/Facebook.png",
          "https://d82cz7nyq77ak.cloudfront.net/images/social/Pinterest.png",
          "https://d82cz7nyq77ak.cloudfront.net/images/social/Reddit.png",
          "https://d82cz7nyq77ak.cloudfront.net/images/social/Twitter.png",
          "https://d82cz7nyq77ak.cloudfront.net/images/social/Email.png",
          "https://d3sp8ubbhnru9d.cloudfront.net/image/w300-c300:250/2026/09/09/s/2/9/38915029/3DR1-0.jpeg"
        ],
        "confidence": 100,
        "verified_at": "2026-09-11T09:54:01-05:00",
        "street_view_url": "https://www.google.com/maps/@?api=1&map_action=pano&viewpoint=29.516988,-98.370411",
        "google_maps_url": "https://www.google.com/maps/search/?api=1&query=29.516988,-98.370411",
        "status": "verified",
        "geocode_method": "source",
        "notes": "",
        "community_source": "",
        "community_link_or_notes": ""
      }
    },
    {
      "type": "Feature",
      "geometry": {
        "type": "Point",
        "coordinates": [
          -98.374209,
          29.531836
        ]
      },
      "properties": {
        "sale_id": "2026-09-11_5802-grandwood-dr-san-antonio-tx-78239",
        "title": "Multi-Family Garage Sale",
        "sale_type": "garage",
        "date_start": "2026-09-11",
        "date_end": "2026-09-12",
        "start_time": "9:00 AM - 5:00 PM",
        "end_time": "",
        "address": "5802 Grandwood Dr, San Antonio, TX 78239",
        "city": "San Antonio",
        "state": "TX",
        "zip": "",
        "latitude": 29.531836,
        "longitude": -98.374209,
        "description": "Find all the garage sales, yard sales, and estate sales on a map! Or place a free ad for your upcoming sale on yardsalesearch.com",
        "highlights": [],
        "source_urls": [
          "https://www.yardsalesearch.com/yss-garage-sale.jsp?id=196377087"
        ],
        "original_url": "https://www.yardsalesearch.com/yss-garage-sale.jsp?id=196377087",
        "source_names": [
          "YardSaleSearch"
        ],
        "photos": [
          "https://d82cz7nyq77ak.cloudfront.net/images/social/Facebook.png",
          "https://d82cz7nyq77ak.cloudfront.net/images/social/Pinterest.png",
          "https://d82cz7nyq77ak.cloudfront.net/images/social/Reddit.png",
          "https://d82cz7nyq77ak.cloudfront.net/images/social/Twitter.png",
          "https://d82cz7nyq77ak.cloudfront.net/images/social/Email.png",
          "https://d3sp8ubbhnru9d.cloudfront.net/image/w300-c300:250/2026/09/08/s/7/1/38912771/0v0v-0.jpeg"
        ],
        "confidence": 100,
        "verified_at": "2026-09-11T09:54:01-05:00",
        "street_view_url": "https://www.google.com/maps/@?api=1&map_action=pano&viewpoint=29.531836,-98.374209",
        "google_maps_url": "https://www.google.com/maps/search/?api=1&query=29.531836,-98.374209",
        "status": "verified",
        "geocode_method": "source",
        "notes": "",
        "community_source": "",
        "community_link_or_notes": ""
      }
    },
    {
      "type": "Feature",
      "geometry": {
        "type": "Point",
        "coordinates": [
          -98.548658,
          29.569662
        ]
      },
      "properties": {
        "sale_id": "2026-09-11_13286-hunters-lark-st-san-antonio-tx-78230",
        "title": "Multiple Family Yard Sale",
        "sale_type": "garage",
        "date_start": "2026-09-11",
        "date_end": "2026-09-12",
        "start_time": "8:00 AM - 3:00 PM",
        "end_time": "",
        "address": "13286 Hunters Lark St, San Antonio, TX 78230",
        "city": "San Antonio",
        "state": "TX",
        "zip": "",
        "latitude": 29.569662,
        "longitude": -98.548658,
        "description": "Find all the garage sales, yard sales, and estate sales on a map! Or place a free ad for your upcoming sale on yardsalesearch.com",
        "highlights": [],
        "source_urls": [
          "https://www.yardsalesearch.com/yss-garage-sale.jsp?id=196380177"
        ],
        "original_url": "https://www.yardsalesearch.com/yss-garage-sale.jsp?id=196380177",
        "source_names": [
          "YardSaleSearch"
        ],
        "photos": [
          "https://d82cz7nyq77ak.cloudfront.net/images/social/Facebook.png",
          "https://d82cz7nyq77ak.cloudfront.net/images/social/Pinterest.png",
          "https://d82cz7nyq77ak.cloudfront.net/images/social/Reddit.png",
          "https://d82cz7nyq77ak.cloudfront.net/images/social/Twitter.png",
          "https://d82cz7nyq77ak.cloudfront.net/images/social/Email.png",
          "https://d3sp8ubbhnru9d.cloudfront.net/image/w300-c300:250/2026/09/10/s/8/1/38915881/7AYJX-0.jpeg"
        ],
        "confidence": 100,
        "verified_at": "2026-09-11T09:54:01-05:00",
        "street_view_url": "https://www.google.com/maps/@?api=1&map_action=pano&viewpoint=29.569662,-98.548658",
        "google_maps_url": "https://www.google.com/maps/search/?api=1&query=29.569662,-98.548658",
        "status": "verified",
        "geocode_method": "source",
        "notes": "",
        "community_source": "",
        "community_link_or_notes": ""
      }
    },
    {
      "type": "Feature",
      "geometry": {
        "type": "Point",
        "coordinates": [
          -98.372062,
          29.533425
        ]
      },
      "properties": {
        "sale_id": "2026-09-11_5843-archwood-san-antonio-tx-78239",
        "title": "Windcrest Community Garage Sale!!",
        "sale_type": "garage",
        "date_start": "2026-09-11",
        "date_end": "2026-09-13",
        "start_time": "8:00 AM - 5:00 PM",
        "end_time": "",
        "address": "5843 Archwood, San Antonio, TX 78239",
        "city": "San Antonio",
        "state": "TX",
        "zip": "",
        "latitude": 29.533425,
        "longitude": -98.372062,
        "description": "Find all the garage sales, yard sales, and estate sales on a map! Or place a free ad for your upcoming sale on yardsalesearch.com",
        "highlights": [],
        "source_urls": [
          "https://www.yardsalesearch.com/yss-garage-sale.jsp?id=196381419"
        ],
        "original_url": "https://www.yardsalesearch.com/yss-garage-sale.jsp?id=196381419",
        "source_names": [
          "YardSaleSearch"
        ],
        "photos": [
          "https://d82cz7nyq77ak.cloudfront.net/images/social/Facebook.png",
          "https://d82cz7nyq77ak.cloudfront.net/images/social/Pinterest.png",
          "https://d82cz7nyq77ak.cloudfront.net/images/social/Reddit.png",
          "https://d82cz7nyq77ak.cloudfront.net/images/social/Twitter.png",
          "https://d82cz7nyq77ak.cloudfront.net/images/social/Email.png",
          "https://d82cz7nyq77ak.cloudfront.net/image/w300-c300:250/2026/09/10/s/1/9/196381419/XhFa2-0.jpeg"
        ],
        "confidence": 100,
        "verified_at": "2026-09-11T09:54:01-05:00",
        "street_view_url": "https://www.google.com/maps/@?api=1&map_action=pano&viewpoint=29.533425,-98.372062",
        "google_maps_url": "https://www.google.com/maps/search/?api=1&query=29.533425,-98.372062",
        "status": "verified",
        "geocode_method": "source",
        "notes": "",
        "community_source": "",
        "community_link_or_notes": ""
      }
    },
    {
      "type": "Feature",
      "geometry": {
        "type": "Point",
        "coordinates": [
          -98.60812517,
          29.55452233
        ]
      },
      "properties": {
        "sale_id": "2026-09-11_6202-spring-time-st-san-antonio-tx-78249",
        "title": "Multi Household Yard Sale - Women’S, Maternity , Baby, Kids Items",
        "sale_type": "garage",
        "date_start": "2026-09-11",
        "date_end": "2026-09-13",
        "start_time": "8:30 AM - 1:30 PM",
        "end_time": "",
        "address": "6202 Spring Time St, San Antonio, TX 78249",
        "city": "San Antonio",
        "state": "TX",
        "zip": "",
        "latitude": 29.55452233,
        "longitude": -98.60812517,
        "description": "Find all the garage sales, yard sales, and estate sales on a map! Or place a free ad for your upcoming sale on yardsalesearch.com",
        "highlights": [],
        "source_urls": [
          "https://www.yardsalesearch.com/yss-garage-sale.jsp?id=196353487"
        ],
        "original_url": "https://www.yardsalesearch.com/yss-garage-sale.jsp?id=196353487",
        "source_names": [
          "YardSaleSearch"
        ],
        "photos": [
          "https://d82cz7nyq77ak.cloudfront.net/images/social/Facebook.png",
          "https://d82cz7nyq77ak.cloudfront.net/images/social/Pinterest.png",
          "https://d82cz7nyq77ak.cloudfront.net/images/social/Reddit.png",
          "https://d82cz7nyq77ak.cloudfront.net/images/social/Twitter.png",
          "https://d82cz7nyq77ak.cloudfront.net/images/social/Email.png"
        ],
        "confidence": 100,
        "verified_at": "2026-09-11T09:54:01-05:00",
        "street_view_url": "https://www.google.com/maps/@?api=1&map_action=pano&viewpoint=29.55452233,-98.60812517",
        "google_maps_url": "https://www.google.com/maps/search/?api=1&query=29.55452233,-98.60812517",
        "status": "verified",
        "geocode_method": "source",
        "notes": "",
        "community_source": "",
        "community_link_or_notes": ""
      }
    },
    {
      "type": "Feature",
      "geometry": {
        "type": "Point",
        "coordinates": [
          -98.459425,
          29.600552
        ]
      },
      "properties": {
        "sale_id": "2026-09-11_17615-diamond-canyon-dr-san-antonio-tx-78232",
        "title": "Big Garage Sale This Weekend!",
        "sale_type": "garage",
        "date_start": "2026-09-11",
        "date_end": "2026-09-12",
        "start_time": "9:00 AM - 3:00 PM",
        "end_time": "",
        "address": "17615 Diamond Canyon Dr, San Antonio, TX 78232",
        "city": "San Antonio",
        "state": "TX",
        "zip": "",
        "latitude": 29.600552,
        "longitude": -98.459425,
        "description": "Find all the garage sales, yard sales, and estate sales on a map! Or place a free ad for your upcoming sale on yardsalesearch.com",
        "highlights": [],
        "source_urls": [
          "https://www.yardsalesearch.com/yss-garage-sale.jsp?id=196379939"
        ],
        "original_url": "https://www.yardsalesearch.com/yss-garage-sale.jsp?id=196379939",
        "source_names": [
          "YardSaleSearch"
        ],
        "photos": [
          "https://d82cz7nyq77ak.cloudfront.net/images/social/Facebook.png",
          "https://d82cz7nyq77ak.cloudfront.net/images/social/Pinterest.png",
          "https://d82cz7nyq77ak.cloudfront.net/images/social/Reddit.png",
          "https://d82cz7nyq77ak.cloudfront.net/images/social/Twitter.png",
          "https://d82cz7nyq77ak.cloudfront.net/images/social/Email.png"
        ],
        "confidence": 100,
        "verified_at": "2026-09-11T09:54:01-05:00",
        "street_view_url": "https://www.google.com/maps/@?api=1&map_action=pano&viewpoint=29.600552,-98.459425",
        "google_maps_url": "https://www.google.com/maps/search/?api=1&query=29.600552,-98.459425",
        "status": "verified",
        "geocode_method": "source",
        "notes": "",
        "community_source": "",
        "community_link_or_notes": ""
      }
    },
    {
      "type": "Feature",
      "geometry": {
        "type": "Point",
        "coordinates": [
          -98.321692,
          29.581345
        ]
      },
      "properties": {
        "sale_id": "2026-09-11_8528-woodcliff-blvd-selma-tx-78154",
        "title": "8528 Woodcliff Blvd, Selma, TX 78154",
        "sale_type": "garage",
        "date_start": "2026-09-11",
        "date_end": "2026-09-13",
        "start_time": "7:30 am - 3:00 pm",
        "end_time": "",
        "address": "8528 Woodcliff Blvd, Selma, TX 78154",
        "city": "San Antonio",
        "state": "TX",
        "zip": "",
        "latitude": 29.581345,
        "longitude": -98.321692,
        "description": "Dates and Times: Friday, September 11, 2026 7:30 am - 3:00 pm",
        "highlights": [],
        "source_urls": [
          "https://garagesalefinder.com/s/N9Jke/8528-woodcliff-blvd-selma-tx-78154"
        ],
        "original_url": "https://garagesalefinder.com/s/N9Jke/8528-woodcliff-blvd-selma-tx-78154",
        "source_names": [
          "GarageSaleFinder"
        ],
        "photos": [
          "https://gsf.tlstatic.com/images/social/Facebook.png",
          "https://gsf.tlstatic.com/images/social/Reddit.png",
          "https://gsf.tlstatic.com/images/social/Twitter.png",
          "https://gsf.tlstatic.com/images/social/Email.png"
        ],
        "confidence": 100,
        "verified_at": "2026-09-11T09:54:01-05:00",
        "street_view_url": "https://www.google.com/maps/@?api=1&map_action=pano&viewpoint=29.581345,-98.321692",
        "google_maps_url": "https://www.google.com/maps/search/?api=1&query=29.581345,-98.321692",
        "status": "verified",
        "geocode_method": "source",
        "notes": "",
        "community_source": "",
        "community_link_or_notes": ""
      }
    },
    {
      "type": "Feature",
      "geometry": {
        "type": "Point",
        "coordinates": [
          -98.286809,
          29.549775
        ]
      },
      "properties": {
        "sale_id": "2026-09-11_317-e-langley-blvd-universal-city-tx-78148",
        "title": "Awesome Garage Sale",
        "sale_type": "garage",
        "date_start": "2026-09-11",
        "date_end": "2026-09-12",
        "start_time": "8:00 AM - 3:00 PM",
        "end_time": "",
        "address": "317 E Langley Blvd, Universal City, TX 78148",
        "city": "San Antonio",
        "state": "TX",
        "zip": "",
        "latitude": 29.549775,
        "longitude": -98.286809,
        "description": "Find all the garage sales, yard sales, and estate sales on a map! Or place a free ad for your upcoming sale on yardsalesearch.com",
        "highlights": [],
        "source_urls": [
          "https://www.yardsalesearch.com/yss-garage-sale.jsp?id=196381887"
        ],
        "original_url": "https://www.yardsalesearch.com/yss-garage-sale.jsp?id=196381887",
        "source_names": [
          "YardSaleSearch"
        ],
        "photos": [
          "https://d82cz7nyq77ak.cloudfront.net/images/social/Facebook.png",
          "https://d82cz7nyq77ak.cloudfront.net/images/social/Pinterest.png",
          "https://d82cz7nyq77ak.cloudfront.net/images/social/Reddit.png",
          "https://d82cz7nyq77ak.cloudfront.net/images/social/Twitter.png",
          "https://d82cz7nyq77ak.cloudfront.net/images/social/Email.png",
          "https://gsf.tlstatic.com/image/w300-c300:250/2026/09/10/s/8/7/21747387/XHzca-0.jpeg"
        ],
        "confidence": 100,
        "verified_at": "2026-09-11T09:54:01-05:00",
        "street_view_url": "https://www.google.com/maps/@?api=1&map_action=pano&viewpoint=29.549775,-98.286809",
        "google_maps_url": "https://www.google.com/maps/search/?api=1&query=29.549775,-98.286809",
        "status": "verified",
        "geocode_method": "source",
        "notes": "",
        "community_source": "",
        "community_link_or_notes": ""
      }
    },
    {
      "type": "Feature",
      "geometry": {
        "type": "Point",
        "coordinates": [
          -98.4,
          29.68
        ]
      },
      "properties": {
        "sale_id": "2026-09-11_22341-angostura-blvd-san-antonio-tx-78261",
        "title": "22341 Angostura Blvd, San Antonio, TX 78261",
        "sale_type": "garage",
        "date_start": "2026-09-11",
        "date_end": "2026-09-12",
        "start_time": "8:00 am - 5:00 pm",
        "end_time": "",
        "address": "22341 Angostura Blvd, San Antonio, TX 78261",
        "city": "San Antonio",
        "state": "TX",
        "zip": "",
        "latitude": 29.68,
        "longitude": -98.4,
        "description": "Dates and Times: Friday, September 11, 2026 8:00 am - 5:00 pm",
        "highlights": [],
        "source_urls": [
          "https://garagesalefinder.com/s/N9Jm2/22341-angostura-blvd-san-antonio-tx-78261"
        ],
        "original_url": "https://garagesalefinder.com/s/N9Jm2/22341-angostura-blvd-san-antonio-tx-78261",
        "source_names": [
          "GarageSaleFinder"
        ],
        "photos": [
          "https://gsf.tlstatic.com/images/social/Facebook.png",
          "https://gsf.tlstatic.com/images/social/Reddit.png",
          "https://gsf.tlstatic.com/images/social/Twitter.png",
          "https://gsf.tlstatic.com/images/social/Email.png"
        ],
        "confidence": 100,
        "verified_at": "2026-09-11T09:54:01-05:00",
        "street_view_url": "https://www.google.com/maps/@?api=1&map_action=pano&viewpoint=29.68,-98.4",
        "google_maps_url": "https://www.google.com/maps/search/?api=1&query=29.68,-98.4",
        "status": "verified",
        "geocode_method": "zip-centroid",
        "notes": "",
        "community_source": "",
        "community_link_or_notes": ""
      }
    },
    {
      "type": "Feature",
      "geometry": {
        "type": "Point",
        "coordinates": [
          -98.3109107,
          29.6344609
        ]
      },
      "properties": {
        "sale_id": "2026-09-10_20806-glen-cove-san-antonio-tx-78266",
        "title": "Forest Waters Mcm Estate Sale",
        "sale_type": "estate",
        "date_start": "2026-09-10",
        "date_end": "2026-09-13",
        "start_time": "10:00 AM - 5:00 PM",
        "end_time": "",
        "address": "20806 Glen Cove, San Antonio, TX 78266",
        "city": "San Antonio",
        "state": "TX",
        "zip": "",
        "latitude": 29.6344609,
        "longitude": -98.3109107,
        "description": "Find all the garage sales, yard sales, and estate sales on a map! Or place a free ad for your upcoming sale on yardsalesearch.com",
        "highlights": [],
        "source_urls": [
          "https://www.yardsalesearch.com/yss-garage-sale.jsp?id=196359545"
        ],
        "original_url": "https://www.yardsalesearch.com/yss-garage-sale.jsp?id=196359545",
        "source_names": [
          "YardSaleSearch"
        ],
        "photos": [
          "https://d82cz7nyq77ak.cloudfront.net/images/social/Facebook.png",
          "https://d82cz7nyq77ak.cloudfront.net/images/social/Pinterest.png",
          "https://d82cz7nyq77ak.cloudfront.net/images/social/Reddit.png",
          "https://d82cz7nyq77ak.cloudfront.net/images/social/Twitter.png",
          "https://d82cz7nyq77ak.cloudfront.net/images/social/Email.png",
          "https://eso-cdn.tlcdn.workers.dev/s-2459003-gl66gcr9pn406frl-t.webp"
        ],
        "confidence": 100,
        "verified_at": "2026-09-11T09:54:01-05:00",
        "street_view_url": "https://www.google.com/maps/@?api=1&map_action=pano&viewpoint=29.6344609,-98.3109107",
        "google_maps_url": "https://www.google.com/maps/search/?api=1&query=29.6344609,-98.3109107",
        "status": "verified",
        "geocode_method": "source",
        "notes": "",
        "community_source": "",
        "community_link_or_notes": ""
      }
    },
    {
      "type": "Feature",
      "geometry": {
        "type": "Point",
        "coordinates": [
          -98.9484,
          29.6796
        ]
      },
      "properties": {
        "sale_id": "2026-09-11_472-mustang-crossing-san-antonio-tx",
        "title": "Planes, Trains, Automobiles and More Estate Sale (Pipe Creek)",
        "sale_type": "estate",
        "date_start": "2026-09-11",
        "date_end": "2026-09-13",
        "start_time": "",
        "end_time": "",
        "address": "472 Mustang Crossing, San Antonio, TX",
        "city": "San Antonio",
        "state": "TX",
        "zip": "",
        "latitude": 29.6796,
        "longitude": -98.9484,
        "description": "QR Code Link to This Post Cash and all charge cards Bring your own muscle to load furniture Not responsible for accidents No Pre Pricing and No Pre Sale No sign up sheets/Just show up and shop If you don't live in this area pack some drinks and a lunch and come on out. We have a 1956 Pontiac for sale 7,500.00 obo Hugh hot wheels collection Indians and Army toys Model Planes Lots of Tools Metal Gas Cans TV and Sound Bar Lamps Bell collection Small Tables/Night Stands Mid Century Basset Dresser wi",
        "highlights": [],
        "source_urls": [
          "https://www.craigslist.org/view/d/pipe-creek-planes-trains-automobiles/ametBcqRLXDtuVdZvDj5dN"
        ],
        "original_url": "https://www.craigslist.org/view/d/pipe-creek-planes-trains-automobiles/ametBcqRLXDtuVdZvDj5dN",
        "source_names": [
          "Craigslist"
        ],
        "photos": [
          "https://images.craigslist.org/00C0C_dZEiIuaVsOQ_0cT09F_600x450.jpg",
          "https://images.craigslist.org/00C0C_dZEiIuaVsOQ_0cT09F_50x50c.jpg",
          "https://images.craigslist.org/01212_dFB1byDsycp_09F0cT_50x50c.jpg",
          "https://images.craigslist.org/00505_hgI409Tfj5L_0cT09F_50x50c.jpg",
          "https://images.craigslist.org/01010_ag2k6Cx2bfo_09F0cT_50x50c.jpg",
          "https://images.craigslist.org/00K0K_fXaUEOGyzgt_09F0cT_50x50c.jpg"
        ],
        "confidence": 96,
        "verified_at": "2026-09-11T09:54:01-05:00",
        "street_view_url": "https://www.google.com/maps/@?api=1&map_action=pano&viewpoint=29.6796,-98.9484",
        "google_maps_url": "https://www.google.com/maps/search/?api=1&query=29.6796,-98.9484",
        "status": "verified",
        "geocode_method": "source",
        "notes": "",
        "community_source": "",
        "community_link_or_notes": ""
      }
    },
    {
      "type": "Feature",
      "geometry": {
        "type": "Point",
        "coordinates": [
          -98.1672,
          29.6636
        ]
      },
      "properties": {
        "sale_id": "2026-09-11_us-35n-near-cibilo-valley-exit-san-antonio-tx",
        "title": "Unbelievable collection liquidation (Schertz)",
        "sale_type": "estate",
        "date_start": "2026-09-11",
        "date_end": "2026-09-13",
        "start_time": "",
        "end_time": "",
        "address": "US 35n near Cibilo Valley exit, San Antonio, TX",
        "city": "San Antonio",
        "state": "TX",
        "zip": "",
        "latitude": 29.6636,
        "longitude": -98.1672,
        "description": "QR Code Link to This Post Attention Resellers!!! Huge sell off liquidation of decades of collecting!!! Starting Saturday-Sunday sept 12th and 13th Booths 383 and 306 at Busseys flea market Front aisle right of the parking lot. See pics. More and more new inventory every weekend until December.",
        "highlights": [],
        "source_urls": [
          "https://www.craigslist.org/view/d/new-braunfels-unbelievable-collection/6mxMeJuTorrrK9csPPdpLv"
        ],
        "original_url": "https://www.craigslist.org/view/d/new-braunfels-unbelievable-collection/6mxMeJuTorrrK9csPPdpLv",
        "source_names": [
          "Craigslist"
        ],
        "photos": [
          "https://images.craigslist.org/00d0d_aB3U1uqnde5_0t20CI_600x450.jpg",
          "https://images.craigslist.org/00d0d_aB3U1uqnde5_0t20CI_50x50c.jpg",
          "https://images.craigslist.org/00J0J_ifHhBWwTJbp_0t20CI_50x50c.jpg",
          "https://images.craigslist.org/00c0c_3xG8m02OOSm_0t20CI_50x50c.jpg",
          "https://images.craigslist.org/00j0j_6Ih1vy3d1X_0t20CI_50x50c.jpg",
          "https://images.craigslist.org/00q0q_4rTQI2Bx814_0t20CI_50x50c.jpg"
        ],
        "confidence": 96,
        "verified_at": "2026-09-11T09:54:01-05:00",
        "street_view_url": "https://www.google.com/maps/@?api=1&map_action=pano&viewpoint=29.6636,-98.1672",
        "google_maps_url": "https://www.google.com/maps/search/?api=1&query=29.6636,-98.1672",
        "status": "verified",
        "geocode_method": "source",
        "notes": "",
        "community_source": "",
        "community_link_or_notes": ""
      }
    },
    {
      "type": "Feature",
      "geometry": {
        "type": "Point",
        "coordinates": [
          -98.6094,
          29.556
        ]
      },
      "properties": {
        "sale_id": "2026-09-11_6151-nw-loop-410-san-antonio-tx",
        "title": "Alamo Craft Co. Antiques & More (San Antonio)",
        "sale_type": "garage",
        "date_start": "2026-09-11",
        "date_end": "2026-09-13",
        "start_time": "",
        "end_time": "",
        "address": "6151 NW Loop 410, San Antonio, TX",
        "city": "San Antonio",
        "state": "TX",
        "zip": "",
        "latitude": 29.556,
        "longitude": -98.6094,
        "description": "QR Code Link to This Post OPEN TUES - SAT 10AM-6PM 6151 NW Loop 410, #302 SATX 78238 A hidden gem in San Antonio! Here you'll find unique antiques, vintage items, collectibles, hand-crafted items &amp; so much more. Come by &amp; see all the fun stuff! Ask for your frequent buyer card &amp; get punches with every purchase.",
        "highlights": [],
        "source_urls": [
          "https://www.craigslist.org/view/d/san-antonio-alamo-craft-co-antiques-more/mj6FcRd4ZDr7zwAwc4pwWa"
        ],
        "original_url": "https://www.craigslist.org/view/d/san-antonio-alamo-craft-co-antiques-more/mj6FcRd4ZDr7zwAwc4pwWa",
        "source_names": [
          "Craigslist"
        ],
        "photos": [
          "https://images.craigslist.org/01515_1Xh2ogBe0sZ_0CI0pq_600x450.jpg"
        ],
        "confidence": 96,
        "verified_at": "2026-09-11T09:54:01-05:00",
        "street_view_url": "https://www.google.com/maps/@?api=1&map_action=pano&viewpoint=29.556,-98.6094",
        "google_maps_url": "https://www.google.com/maps/search/?api=1&query=29.556,-98.6094",
        "status": "verified",
        "geocode_method": "source",
        "notes": "",
        "community_source": "",
        "community_link_or_notes": ""
      }
    },
    {
      "type": "Feature",
      "geometry": {
        "type": "Point",
        "coordinates": [
          -98.533807,
          29.538519
        ]
      },
      "properties": {
        "sale_id": "2026-09-11_10811-auldine-dr-san-antonio-tx",
        "title": "Central San Antonio Garage Sale (Dream Land Oaks)",
        "sale_type": "garage",
        "date_start": "2026-09-11",
        "date_end": "2026-09-13",
        "start_time": "",
        "end_time": "",
        "address": "10811 Auldine Dr, San Antonio, TX",
        "city": "San Antonio",
        "state": "TX",
        "zip": "",
        "latitude": 29.538519,
        "longitude": -98.533807,
        "description": "QR Code Link to This Post Adult, teen &amp; children's clothing, furniture, kitchen appliances. Everything must go.",
        "highlights": [],
        "source_urls": [
          "https://www.craigslist.org/view/d/san-antonio-central-san-antonio-garage/keeqQpqGHh6gWoSVFndQkb"
        ],
        "original_url": "https://www.craigslist.org/view/d/san-antonio-central-san-antonio-garage/keeqQpqGHh6gWoSVFndQkb",
        "source_names": [
          "Craigslist"
        ],
        "photos": [
          "https://images.craigslist.org/00606_jYXYlszJaaR_0uY0ne_600x450.jpg",
          "https://images.craigslist.org/00606_jYXYlszJaaR_0uY0ne_50x50c.jpg",
          "https://images.craigslist.org/00101_iiozX84aE3F_0uY0ne_50x50c.jpg",
          "https://images.craigslist.org/00Q0Q_72Orslj4vOY_0uY0ne_50x50c.jpg"
        ],
        "confidence": 96,
        "verified_at": "2026-09-11T09:54:01-05:00",
        "street_view_url": "https://www.google.com/maps/@?api=1&map_action=pano&viewpoint=29.538519,-98.533807",
        "google_maps_url": "https://www.google.com/maps/search/?api=1&query=29.538519,-98.533807",
        "status": "verified",
        "geocode_method": "source",
        "notes": "",
        "community_source": "",
        "community_link_or_notes": ""
      }
    },
    {
      "type": "Feature",
      "geometry": {
        "type": "Point",
        "coordinates": [
          -98.390459,
          29.514998
        ]
      },
      "properties": {
        "sale_id": "2026-09-11_306-cloudmont-near-crestwind-dr-san-antonio-tx",
        "title": "Community Wide Sale!!! (Windcrest)",
        "sale_type": "garage",
        "date_start": "2026-09-11",
        "date_end": "2026-09-13",
        "start_time": "",
        "end_time": "",
        "address": "306 cloudmont near Crestwind Dr., San Antonio, TX",
        "city": "San Antonio",
        "state": "TX",
        "zip": "",
        "latitude": 29.514998,
        "longitude": -98.390459,
        "description": "QR Code Link to This Post Many families participating!!! Windcrest Neighborhood sale!!! Lots of GREAT items!! Furniture, vintage, household items, clothing, misc. etc! 306 Cloudmont Friday- 9/11 and Saturday- 9/12!!! Map available at City Hall!!",
        "highlights": [],
        "source_urls": [
          "https://www.craigslist.org/view/d/san-antonio-community-wide-sale/vbsifmGoE61ZBmDLdahEGV"
        ],
        "original_url": "https://www.craigslist.org/view/d/san-antonio-community-wide-sale/vbsifmGoE61ZBmDLdahEGV",
        "source_names": [
          "Craigslist"
        ],
        "photos": [
          "https://images.craigslist.org/00D0D_bX9oaprdFaS_0CI0rc_600x450.jpg"
        ],
        "confidence": 96,
        "verified_at": "2026-09-11T09:54:01-05:00",
        "street_view_url": "https://www.google.com/maps/@?api=1&map_action=pano&viewpoint=29.514998,-98.390459",
        "google_maps_url": "https://www.google.com/maps/search/?api=1&query=29.514998,-98.390459",
        "status": "verified",
        "geocode_method": "source",
        "notes": "",
        "community_source": "",
        "community_link_or_notes": ""
      }
    },
    {
      "type": "Feature",
      "geometry": {
        "type": "Point",
        "coordinates": [
          -98.549688,
          29.463757
        ]
      },
      "properties": {
        "sale_id": "2026-09-11_214-windsor-dr-san-antonio-tx",
        "title": "End of the year garage sale Video games, Collectibles Etc",
        "sale_type": "garage",
        "date_start": "2026-09-11",
        "date_end": "2026-09-13",
        "start_time": "",
        "end_time": "",
        "address": "214 Windsor Dr, San Antonio, TX",
        "city": "San Antonio",
        "state": "TX",
        "zip": "",
        "latitude": 29.463757,
        "longitude": -98.549688,
        "description": "QR Code Link to This Post End of the year garage sale time to sell off all my excess stuff I bought to resell. Tomorrow Friday Sept 11th 2026 and Saturday September 12th 2026 7:30 to 2pm. 214 Windsor Dr San Antonio Texas 78228. Always deals to be had bring a tote what doesn't sell will just be donated at the end. Not garage sale 50 cent prices but solid prices and with bundling you can get some great stuff. Collectibles,Movies,Video Games, Toys,Clothes,Shoes lots and lots needing new homes.",
        "highlights": [],
        "source_urls": [
          "https://www.craigslist.org/view/d/san-antonio-end-of-the-year-garage-sale/5JNTBQ8QFDgWyYNDGdymLc"
        ],
        "original_url": "https://www.craigslist.org/view/d/san-antonio-end-of-the-year-garage-sale/5JNTBQ8QFDgWyYNDGdymLc",
        "source_names": [
          "Craigslist"
        ],
        "photos": [
          "https://images.craigslist.org/00j0j_5zKB1jetPbq_0lM0t2_600x450.jpg",
          "https://images.craigslist.org/00j0j_5zKB1jetPbq_0lM0t2_50x50c.jpg",
          "https://images.craigslist.org/00r0r_gmDUgN2RMO6_0lM0t2_50x50c.jpg",
          "https://images.craigslist.org/00A0A_15Ne2yAxWft_0lM0t2_50x50c.jpg",
          "https://images.craigslist.org/01515_jNcSRjHEDbX_0lM0t2_50x50c.jpg",
          "https://images.craigslist.org/01212_8t8Fm2zkjGb_0CI0t2_50x50c.jpg"
        ],
        "confidence": 96,
        "verified_at": "2026-09-11T09:54:01-05:00",
        "street_view_url": "https://www.google.com/maps/@?api=1&map_action=pano&viewpoint=29.463757,-98.549688",
        "google_maps_url": "https://www.google.com/maps/search/?api=1&query=29.463757,-98.549688",
        "status": "verified",
        "geocode_method": "source",
        "notes": "",
        "community_source": "",
        "community_link_or_notes": ""
      }
    },
    {
      "type": "Feature",
      "geometry": {
        "type": "Point",
        "coordinates": [
          -98.6006,
          29.5189
        ]
      },
      "properties": {
        "sale_id": "2026-09-11_10318-country-horn-san-antonio-tx",
        "title": "Everything must Go",
        "sale_type": "garage",
        "date_start": "2026-09-11",
        "date_end": "2026-09-13",
        "start_time": "",
        "end_time": "",
        "address": "10318 country horn, San Antonio, TX",
        "city": "San Antonio",
        "state": "TX",
        "zip": "",
        "latitude": 29.5189,
        "longitude": -98.6006,
        "description": "QR Code Link to This Post All inside and out in the backyard everything must Go entire house full Friday and Saturday 9:00 to 4:00 didn't find it yet",
        "highlights": [],
        "source_urls": [
          "https://www.craigslist.org/view/d/san-antonio-everything-must-go/f4NZm84aU6aehmizmcopxi"
        ],
        "original_url": "https://www.craigslist.org/view/d/san-antonio-everything-must-go/f4NZm84aU6aehmizmcopxi",
        "source_names": [
          "Craigslist"
        ],
        "photos": [
          "https://images.craigslist.org/00v0v_8AfuETTDwja_0t20CI_600x450.jpg",
          "https://images.craigslist.org/00v0v_8AfuETTDwja_0t20CI_50x50c.jpg",
          "https://images.craigslist.org/00707_3a2zZNPEk4B_0t20CI_50x50c.jpg",
          "https://images.craigslist.org/00S0S_gy0OPW4vLjk_0t20CI_50x50c.jpg",
          "https://images.craigslist.org/00c0c_bHUhfMKNyFc_0t20CI_50x50c.jpg",
          "https://images.craigslist.org/00c0c_hy3v4DkaCLz_0t20CI_50x50c.jpg"
        ],
        "confidence": 96,
        "verified_at": "2026-09-11T09:54:01-05:00",
        "street_view_url": "https://www.google.com/maps/@?api=1&map_action=pano&viewpoint=29.5189,-98.6006",
        "google_maps_url": "https://www.google.com/maps/search/?api=1&query=29.5189,-98.6006",
        "status": "verified",
        "geocode_method": "source",
        "notes": "",
        "community_source": "",
        "community_link_or_notes": ""
      }
    },
    {
      "type": "Feature",
      "geometry": {
        "type": "Point",
        "coordinates": [
          -98.403254,
          29.614661
        ]
      },
      "properties": {
        "sale_id": "2026-09-11_3527-green-spring-san-antonio-tx",
        "title": "Furniture for Sale ( please read post!!) (Green Spring Valley)",
        "sale_type": "garage",
        "date_start": "2026-09-11",
        "date_end": "2026-09-13",
        "start_time": "",
        "end_time": "",
        "address": "3527 Green Spring, San Antonio, TX",
        "city": "San Antonio",
        "state": "TX",
        "zip": "",
        "latitude": 29.614661,
        "longitude": -98.403254,
        "description": "QR Code Link to This Post Dresser, Vanity, Rug, three chairs, a set of side tables, coffee tabls ( one marble) a vintage couch , two vintage lamps pre WW2, and a Flat screen RCA TV and queen bed- all for sale. You will have to send a message just with your name for me to let you in on the 12th of September from 12-4. All furniture will need to picked up during these hours as well. I only take cash. Nothing is more than 200 dollars, nothing is lower than 25 dollars.I will not have time to message",
        "highlights": [],
        "source_urls": [
          "https://www.craigslist.org/view/d/san-antonio-furniture-for-sale-please/84LPLEmaFGUzdHuyK6dFdb"
        ],
        "original_url": "https://www.craigslist.org/view/d/san-antonio-furniture-for-sale-please/84LPLEmaFGUzdHuyK6dFdb",
        "source_names": [
          "Craigslist"
        ],
        "photos": [
          "https://images.craigslist.org/00Q0Q_hYc7ZomrAJa_0t20CI_600x450.jpg",
          "https://images.craigslist.org/00Q0Q_hYc7ZomrAJa_0t20CI_50x50c.jpg",
          "https://images.craigslist.org/00I0I_afhxbL7aFiz_0t20CI_50x50c.jpg",
          "https://images.craigslist.org/00i0i_9bVQyKNjNZD_0CI0t2_50x50c.jpg",
          "https://images.craigslist.org/00U0U_aG1hrrUytuz_0t20CI_50x50c.jpg",
          "https://images.craigslist.org/00404_jGLAxJTb1o_0t20CI_50x50c.jpg"
        ],
        "confidence": 96,
        "verified_at": "2026-09-11T09:54:01-05:00",
        "street_view_url": "https://www.google.com/maps/@?api=1&map_action=pano&viewpoint=29.614661,-98.403254",
        "google_maps_url": "https://www.google.com/maps/search/?api=1&query=29.614661,-98.403254",
        "status": "verified",
        "geocode_method": "source",
        "notes": "",
        "community_source": "",
        "community_link_or_notes": ""
      }
    },
    {
      "type": "Feature",
      "geometry": {
        "type": "Point",
        "coordinates": [
          -98.619547,
          29.510505
        ]
      },
      "properties": {
        "sale_id": "2026-09-11_6626-thunderbird-dr-san-antonio-tx",
        "title": "GARAGE SALE! (Leon Valley)",
        "sale_type": "garage",
        "date_start": "2026-09-11",
        "date_end": "2026-09-13",
        "start_time": "",
        "end_time": "",
        "address": "6626 Thunderbird Dr, San Antonio, TX",
        "city": "San Antonio",
        "state": "TX",
        "zip": "",
        "latitude": 29.510505,
        "longitude": -98.619547,
        "description": "QR Code Link to This Post GARAGE SALE! 6626 Thunderbird Dr. 78240 Lots of items for sale including: Furniture! Costumes! Clothes! Stuffed animals! Trinkets and Tools. Pillows, Blankets, Bedding. Picture Frames. Lamps. (Prices on photos are not accurate) Starts Sept 10th- 12th 9 am - 5 Pm Thurs/Friday 9 am - 2 Pm Saturday Hope to see you there!",
        "highlights": [],
        "source_urls": [
          "https://www.craigslist.org/view/d/san-antonio-garage-sale/deqPRxt7zSZHaQU93i1j5A"
        ],
        "original_url": "https://www.craigslist.org/view/d/san-antonio-garage-sale/deqPRxt7zSZHaQU93i1j5A",
        "source_names": [
          "Craigslist"
        ],
        "photos": [
          "https://images.craigslist.org/00H0H_fV4Po9IpxBS_0AA132_600x450.jpg",
          "https://images.craigslist.org/00H0H_fV4Po9IpxBS_0AA132_50x50c.jpg",
          "https://images.craigslist.org/00r0r_SL2FmHPRMI_0AA132_50x50c.jpg",
          "https://images.craigslist.org/00l0l_iM91aVsdAVM_0AA132_50x50c.jpg",
          "https://images.craigslist.org/00l0l_dWo1l8CHjQV_1320AA_50x50c.jpg",
          "https://images.craigslist.org/01111_gInTMERZR0R_0cy09p_50x50c.jpg"
        ],
        "confidence": 96,
        "verified_at": "2026-09-11T09:54:01-05:00",
        "street_view_url": "https://www.google.com/maps/@?api=1&map_action=pano&viewpoint=29.510505,-98.619547",
        "google_maps_url": "https://www.google.com/maps/search/?api=1&query=29.510505,-98.619547",
        "status": "verified",
        "geocode_method": "source",
        "notes": "",
        "community_source": "",
        "community_link_or_notes": ""
      }
    },
    {
      "type": "Feature",
      "geometry": {
        "type": "Point",
        "coordinates": [
          -98.4769,
          29.5863
        ]
      },
      "properties": {
        "sale_id": "2026-09-11_17615-diamond-canyon-san-antonio-tx",
        "title": "Garage Sale this weekend 09/11 - 09/12 (Gold Canyon)",
        "sale_type": "garage",
        "date_start": "2026-09-11",
        "date_end": "2026-09-13",
        "start_time": "",
        "end_time": "",
        "address": "17615 Diamond Canyon, San Antonio, TX",
        "city": "San Antonio",
        "state": "TX",
        "zip": "",
        "latitude": 29.5863,
        "longitude": -98.4769,
        "description": "QR Code Link to This Post Garage sale this weekend. Many items available: washer , dryer. Housewares, women’s, men’s, kids clothes and shoes, Hutch, Bernhardt chair, chandeliers , and much more.",
        "highlights": [],
        "source_urls": [
          "https://www.craigslist.org/view/d/san-antonio-garage-sale-this-weekend/2c7NDqsVrRpfzyBcddW4U6"
        ],
        "original_url": "https://www.craigslist.org/view/d/san-antonio-garage-sale-this-weekend/2c7NDqsVrRpfzyBcddW4U6",
        "source_names": [
          "Craigslist"
        ],
        "photos": [],
        "confidence": 96,
        "verified_at": "2026-09-11T09:54:01-05:00",
        "street_view_url": "https://www.google.com/maps/@?api=1&map_action=pano&viewpoint=29.5863,-98.4769",
        "google_maps_url": "https://www.google.com/maps/search/?api=1&query=29.5863,-98.4769",
        "status": "verified",
        "geocode_method": "source",
        "notes": "",
        "community_source": "",
        "community_link_or_notes": ""
      }
    },
    {
      "type": "Feature",
      "geometry": {
        "type": "Point",
        "coordinates": [
          -98.7945,
          29.2366
        ]
      },
      "properties": {
        "sale_id": "2026-09-11_5717-fm-3175-san-antonio-tx",
        "title": "HUGE SALE (Lytle Tx)",
        "sale_type": "garage",
        "date_start": "2026-09-11",
        "date_end": "2026-09-13",
        "start_time": "",
        "end_time": "",
        "address": "5717 FM 3175, San Antonio, TX",
        "city": "San Antonio",
        "state": "TX",
        "zip": "",
        "latitude": 29.2366,
        "longitude": -98.7945,
        "description": "QR Code Link to This Post Many things to see! Come one Come all Friday... Saturday... Sunday... Cash &amp; Credit accepted Kitchen Items Metal Art Patio furniture Toys Clothes Model A parts Bikes Tires",
        "highlights": [],
        "source_urls": [
          "https://www.craigslist.org/view/d/lytle-huge-sale/fZTWSaZSQ72eK45TkHH4z1"
        ],
        "original_url": "https://www.craigslist.org/view/d/lytle-huge-sale/fZTWSaZSQ72eK45TkHH4z1",
        "source_names": [
          "Craigslist"
        ],
        "photos": [],
        "confidence": 96,
        "verified_at": "2026-09-11T09:54:01-05:00",
        "street_view_url": "https://www.google.com/maps/@?api=1&map_action=pano&viewpoint=29.2366,-98.7945",
        "google_maps_url": "https://www.google.com/maps/search/?api=1&query=29.2366,-98.7945",
        "status": "verified",
        "geocode_method": "source",
        "notes": "",
        "community_source": "",
        "community_link_or_notes": ""
      }
    },
    {
      "type": "Feature",
      "geometry": {
        "type": "Point",
        "coordinates": [
          -98.6688,
          29.5054
        ]
      },
      "properties": {
        "sale_id": "2026-09-11_6722-shadow-run-near-misty-brook-san-antonio-tx",
        "title": "Huge Garage Sale (NW Crossing - 6722 Shadow Run)",
        "sale_type": "garage",
        "date_start": "2026-09-11",
        "date_end": "2026-09-12",
        "start_time": "9:00 AM – 1:00 PM",
        "end_time": "",
        "address": "6722 Shadow Run near Misty Brook, San Antonio, TX",
        "city": "San Antonio",
        "state": "TX",
        "zip": "",
        "latitude": 29.5054,
        "longitude": -98.6688,
        "description": "QR Code Link to This Post Garage Sale !! ​ ​Friday, September 11 &amp; Saturday, September 12 ​9:00 AM – 1:00 PM ​Location: ​6722 Shadow Run, San Antonio, TX 78250 ​Items Available ​Apparel &amp; Footwear: Women's handbags, shoes, and clothing; Men's clothing and shoes ​Home &amp; Garden: Patio table and various household items ​Accessories &amp; Collectibles: Costume jewelry, collectible items, a",
        "highlights": [],
        "source_urls": [
          "https://www.craigslist.org/view/d/san-antonio-huge-garage-sale/nEug91g2BRm1dHmU2T7E5T"
        ],
        "original_url": "https://www.craigslist.org/view/d/san-antonio-huge-garage-sale/nEug91g2BRm1dHmU2T7E5T",
        "source_names": [
          "Craigslist"
        ],
        "photos": [
          "https://images.craigslist.org/00P0P_laLTwJmZLfM_0lM0CI_600x450.jpg",
          "https://images.craigslist.org/00P0P_laLTwJmZLfM_0lM0CI_50x50c.jpg",
          "https://images.craigslist.org/00o0o_8ibdylntDkC_0lM0CI_50x50c.jpg",
          "https://images.craigslist.org/00T0T_1WzrmjHAY9v_0lM0CI_50x50c.jpg",
          "https://images.craigslist.org/00808_iVTT0lfojag_0lM0CI_50x50c.jpg",
          "https://images.craigslist.org/01010_26f2fS6mbl4_0lM0CI_50x50c.jpg"
        ],
        "confidence": 100,
        "verified_at": "2026-09-11T09:54:01-05:00",
        "street_view_url": "https://www.google.com/maps/@?api=1&map_action=pano&viewpoint=29.5054,-98.6688",
        "google_maps_url": "https://www.google.com/maps/search/?api=1&query=29.5054,-98.6688",
        "status": "verified",
        "geocode_method": "source",
        "notes": "",
        "community_source": "",
        "community_link_or_notes": ""
      }
    }
  ]
}