{
  "type": "FeatureCollection",
  "properties": {
    "target_date": "2026-08-14",
    "generated_at": "2026-08-14T03:18:03-05:00",
    "count": 20,
    "project": "Chicas-Map"
  },
  "features": [
    {
      "type": "Feature",
      "geometry": {
        "type": "Point",
        "coordinates": [
          -98.575072,
          29.522833
        ]
      },
      "properties": {
        "sale_id": "2026-08-02_8645-fredericksburg-rd-san-antonio-tx-78240",
        "title": "Art Work Framed And Matted Multiple Sizes And Shapes And Some Wall Hanging S",
        "sale_type": "garage",
        "date_start": "2026-08-02",
        "date_end": "2026-08-16",
        "start_time": "",
        "end_time": "",
        "address": "8645 Fredericksburg Rd, San Antonio, TX 78240",
        "city": "San Antonio",
        "state": "TX",
        "zip": "",
        "latitude": 29.522833,
        "longitude": -98.575072,
        "description": "Find all the garage sales, yard sales, and estate sales on a map! Or place a free ad for your upcoming sale on yardsalesearch.com",
        "highlights": [],
        "source_urls": [
          "https://www.yardsalesearch.com/yss-garage-sale.jsp?id=196334551"
        ],
        "original_url": "https://www.yardsalesearch.com/yss-garage-sale.jsp?id=196334551",
        "source_names": [
          "YardSaleSearch"
        ],
        "photos": [
          "https://d82cz7nyq77ak.cloudfront.net/images/social/Facebook.png",
          "https://d82cz7nyq77ak.cloudfront.net/images/social/Pinterest.png",
          "https://d82cz7nyq77ak.cloudfront.net/images/social/Reddit.png",
          "https://d82cz7nyq77ak.cloudfront.net/images/social/Twitter.png",
          "https://d82cz7nyq77ak.cloudfront.net/images/social/Email.png"
        ],
        "confidence": 96,
        "verified_at": "2026-08-14T03:17:29-05:00",
        "street_view_url": "https://www.google.com/maps/@?api=1&map_action=pano&viewpoint=29.522833,-98.575072",
        "google_maps_url": "https://www.google.com/maps/search/?api=1&query=29.522833,-98.575072",
        "status": "verified",
        "geocode_method": "source",
        "notes": "",
        "community_source": "",
        "community_link_or_notes": ""
      }
    },
    {
      "type": "Feature",
      "geometry": {
        "type": "Point",
        "coordinates": [
          -98.7319703,
          29.7946641
        ]
      },
      "properties": {
        "sale_id": "2026-08-08_boerne-tx-78006",
        "title": "Estate of Discoveries in Boerne, TX Bidding Ends 8/17",
        "sale_type": "estate",
        "date_start": "2026-08-08",
        "date_end": "2026-08-17",
        "start_time": "",
        "end_time": "",
        "address": "Boerne, TX 78006",
        "city": "San Antonio",
        "state": "TX",
        "zip": "",
        "latitude": 29.7946641,
        "longitude": -98.7319703,
        "description": "Caring Transitions of Boerne, Fredericksburg, and Kerrville. Welcome Home to CTBids! We put together an excellent selection of items for you! Start exploring and discover the deals for yourself! Bidding on ALL items starts at $1! Tucked away in the Texas Hill Country in Tapatio Springs, this estate offers...",
        "highlights": [],
        "source_urls": [
          "https://estatesales.org/estate-sales/tx/boerne/78006/estate-of-discoveries-in-boerne-2456237"
        ],
        "original_url": "https://estatesales.org/estate-sales/tx/boerne/78006/estate-of-discoveries-in-boerne-2456237",
        "source_names": [
          "EstateSales.org"
        ],
        "photos": [
          "https://estatesales.org/uploads/2024/02/04/m/7/5/2392475/4PGu6-1.jpeg",
          "https://estatesales.org/2036244653/css/images/social/facebook.png",
          "https://eso-cdn.tlcdn.workers.dev/s-2456237-ns02aund2swdsxv2-t.webp",
          "https://eso-cdn.tlcdn.workers.dev/s-2456237-nm4mo19i6lxpuxgy-t.webp",
          "https://eso-cdn.tlcdn.workers.dev/s-2456237-3ak6ql22ty0frqsz-t.webp",
          "https://eso-cdn.tlcdn.workers.dev/s-2456237-d9kfka4mwnu5niwc-t.webp"
        ],
        "confidence": 96,
        "verified_at": "2026-08-14T03:17:29-05:00",
        "street_view_url": "https://www.google.com/maps/@?api=1&map_action=pano&viewpoint=29.7946641,-98.7319703",
        "google_maps_url": "https://www.google.com/maps/search/?api=1&query=29.7946641,-98.7319703",
        "status": "verified",
        "geocode_method": "source",
        "notes": "",
        "community_source": "",
        "community_link_or_notes": ""
      }
    },
    {
      "type": "Feature",
      "geometry": {
        "type": "Point",
        "coordinates": [
          -98.2978951,
          29.587207
        ]
      },
      "properties": {
        "sale_id": "2026-08-11_schertz-tx-78154",
        "title": "Vintage Charm: One-of-a-Kind Online Auction by Caring Transitions - Ends 8/18!",
        "sale_type": "estate",
        "date_start": "2026-08-11",
        "date_end": "2026-08-18",
        "start_time": "",
        "end_time": "",
        "address": "Schertz, TX 78154",
        "city": "San Antonio",
        "state": "TX",
        "zip": "",
        "latitude": 29.587207,
        "longitude": -98.2978951,
        "description": "Caring Transitions of New Braunfels, TX. Caring Transitions of New Braunfels & Seguin, TX warmly welcomes you to our Vintage Charm: One-of-a-Kind Online Auction on CTBids! This distinctive auction brings together elegant vintage furniture, fine tableware, sterling silver, decorative art, a...",
        "highlights": [],
        "source_urls": [
          "https://estatesales.org/estate-sales/tx/schertz/78154/vintage-charm-oneofakind-online-auction-2456673"
        ],
        "original_url": "https://estatesales.org/estate-sales/tx/schertz/78154/vintage-charm-oneofakind-online-auction-2456673",
        "source_names": [
          "EstateSales.org"
        ],
        "photos": [
          "https://estatesales.org/uploads/2025/11/15/m/8/8/2701588/Xs2u-1.jpeg",
          "https://estatesales.org/2036244653/css/images/social/facebook.png",
          "https://eso-cdn.tlcdn.workers.dev/s-2456673-3vim0mjqekx466ys-t.webp",
          "https://eso-cdn.tlcdn.workers.dev/s-2456673-5wmcvt6csyg8vmt0-t.webp",
          "https://eso-cdn.tlcdn.workers.dev/s-2456673-ysbez2ck3qyocyqr-t.webp",
          "https://eso-cdn.tlcdn.workers.dev/s-2456673-rawvudfeczsp8car-t.webp"
        ],
        "confidence": 96,
        "verified_at": "2026-08-14T03:17:29-05:00",
        "street_view_url": "https://www.google.com/maps/@?api=1&map_action=pano&viewpoint=29.587207,-98.2978951",
        "google_maps_url": "https://www.google.com/maps/search/?api=1&query=29.587207,-98.2978951",
        "status": "verified",
        "geocode_method": "source",
        "notes": "",
        "community_source": "",
        "community_link_or_notes": ""
      }
    },
    {
      "type": "Feature",
      "geometry": {
        "type": "Point",
        "coordinates": [
          -98.274201,
          29.590393
        ]
      },
      "properties": {
        "sale_id": "2026-08-14_1104-fawn-dr-san-antonio-tx",
        "title": "ANTIQUE & VINTAGE ESTATE SALE",
        "sale_type": "estate",
        "date_start": "2026-08-14",
        "date_end": "2026-08-16",
        "start_time": "",
        "end_time": "",
        "address": "1104 Fawn Dr, San Antonio, TX",
        "city": "San Antonio",
        "state": "TX",
        "zip": "",
        "latitude": 29.590393,
        "longitude": -98.274201,
        "description": "QR Code Link to This Post EVERYTHING AND MORE FOR SALE WITH LOW PRICES!",
        "highlights": [],
        "source_urls": [
          "https://www.craigslist.org/view/d/schertz-antique-vintage-estate-sale/dSBXpvkpkKBz16ohT23mSp"
        ],
        "original_url": "https://www.craigslist.org/view/d/schertz-antique-vintage-estate-sale/dSBXpvkpkKBz16ohT23mSp",
        "source_names": [
          "Craigslist"
        ],
        "photos": [
          "https://images.craigslist.org/00k0k_2wDtfIUxqbQ_0co0gw_600x450.jpg",
          "https://images.craigslist.org/00k0k_2wDtfIUxqbQ_0co0gw_50x50c.jpg",
          "https://images.craigslist.org/00N0N_8gvhLVvAkyV_0co0gw_50x50c.jpg",
          "https://images.craigslist.org/01111_hchQQV47tRi_0co0gw_50x50c.jpg",
          "https://images.craigslist.org/00N0N_jb2ENjEY56Y_0co0gw_50x50c.jpg",
          "https://images.craigslist.org/00J0J_gD69LzH0Nb4_0co0gw_50x50c.jpg"
        ],
        "confidence": 96,
        "verified_at": "2026-08-14T03:17:29-05:00",
        "street_view_url": "https://www.google.com/maps/@?api=1&map_action=pano&viewpoint=29.590393,-98.274201",
        "google_maps_url": "https://www.google.com/maps/search/?api=1&query=29.590393,-98.274201",
        "status": "verified",
        "geocode_method": "source",
        "notes": "",
        "community_source": "",
        "community_link_or_notes": ""
      }
    },
    {
      "type": "Feature",
      "geometry": {
        "type": "Point",
        "coordinates": [
          -98.6117,
          29.5612
        ]
      },
      "properties": {
        "sale_id": "2026-08-14_11218-quail-pass-san-antonio-tx",
        "title": "Estate Sale - Furniture (Northwest San Antonio – 78249)",
        "sale_type": "estate",
        "date_start": "2026-08-14",
        "date_end": "2026-08-16",
        "start_time": "",
        "end_time": "",
        "address": "11218 Quail Pass, San Antonio, TX",
        "city": "San Antonio",
        "state": "TX",
        "zip": "",
        "latitude": 29.5612,
        "longitude": -98.6117,
        "description": "QR Code Link to This Post Beautiful Estate Sale Furniture – Quality Pieces at a Fraction of the Original Cost Please come on Friday between 3:00 and 6:00 PM to view and purchase these beautiful furniture pieces: * Cherry-finish bookcase * Elegant armoire * Bombay-style accent stand * Beautiful sleeper sofa * Two sets of solid oak chairs: one set of 4 and one set of 7 * Wooden desk * Dining and accent tables * Additional household furniture and décor Several pieces originally cost approximately $",
        "highlights": [],
        "source_urls": [
          "https://www.craigslist.org/view/d/san-antonio-estate-sale-furniture/nUuAQfPR8MnhGWyQXgZ3Wp"
        ],
        "original_url": "https://www.craigslist.org/view/d/san-antonio-estate-sale-furniture/nUuAQfPR8MnhGWyQXgZ3Wp",
        "source_names": [
          "Craigslist"
        ],
        "photos": [
          "https://images.craigslist.org/00909_knmSA3PIuMw_0ey0pO_600x450.jpg",
          "https://images.craigslist.org/00909_knmSA3PIuMw_0ey0pO_50x50c.jpg",
          "https://images.craigslist.org/00B0B_htf53TXowsM_0pO0ew_50x50c.jpg",
          "https://images.craigslist.org/00w0w_9WMFrXoK9BI_0gl0t2_50x50c.jpg",
          "https://images.craigslist.org/00g0g_ejuRUlgklgp_0ew0pO_50x50c.jpg",
          "https://images.craigslist.org/00Y0Y_dOXZTJ0efAG_0pO0ew_50x50c.jpg"
        ],
        "confidence": 96,
        "verified_at": "2026-08-14T03:17:29-05:00",
        "street_view_url": "https://www.google.com/maps/@?api=1&map_action=pano&viewpoint=29.5612,-98.6117",
        "google_maps_url": "https://www.google.com/maps/search/?api=1&query=29.5612,-98.6117",
        "status": "verified",
        "geocode_method": "source",
        "notes": "",
        "community_source": "",
        "community_link_or_notes": ""
      }
    },
    {
      "type": "Feature",
      "geometry": {
        "type": "Point",
        "coordinates": [
          -98.1672,
          29.6636
        ]
      },
      "properties": {
        "sale_id": "2026-08-14_us-35n-near-cibilo-valley-exit-san-antonio-tx",
        "title": "Unbelievable collection liquidation (Schertz)",
        "sale_type": "estate",
        "date_start": "2026-08-14",
        "date_end": "2026-08-16",
        "start_time": "",
        "end_time": "",
        "address": "US 35n near Cibilo Valley exit, San Antonio, TX",
        "city": "San Antonio",
        "state": "TX",
        "zip": "",
        "latitude": 29.6636,
        "longitude": -98.1672,
        "description": "QR Code Link to This Post Attention Resellers!!! Huge sell off liquidation of decades of collecting!!! Starting Saturday-Sunday 22nd and 23rd Booths 383 and 306 at Busseys flea market Front aisle right of the parking lot. See pics. More and more new inventory every weekend until December.",
        "highlights": [],
        "source_urls": [
          "https://www.craigslist.org/view/d/new-braunfels-unbelievable-collection/6mxMeJuTorrrK9csPPdpLv"
        ],
        "original_url": "https://www.craigslist.org/view/d/new-braunfels-unbelievable-collection/6mxMeJuTorrrK9csPPdpLv",
        "source_names": [
          "Craigslist"
        ],
        "photos": [
          "https://images.craigslist.org/00d0d_aB3U1uqnde5_0t20CI_600x450.jpg",
          "https://images.craigslist.org/00d0d_aB3U1uqnde5_0t20CI_50x50c.jpg",
          "https://images.craigslist.org/00J0J_ifHhBWwTJbp_0t20CI_50x50c.jpg",
          "https://images.craigslist.org/00c0c_3xG8m02OOSm_0t20CI_50x50c.jpg",
          "https://images.craigslist.org/00j0j_6Ih1vy3d1X_0t20CI_50x50c.jpg",
          "https://images.craigslist.org/00q0q_4rTQI2Bx814_0t20CI_50x50c.jpg"
        ],
        "confidence": 96,
        "verified_at": "2026-08-14T03:17:29-05:00",
        "street_view_url": "https://www.google.com/maps/@?api=1&map_action=pano&viewpoint=29.6636,-98.1672",
        "google_maps_url": "https://www.google.com/maps/search/?api=1&query=29.6636,-98.1672",
        "status": "verified",
        "geocode_method": "source",
        "notes": "",
        "community_source": "",
        "community_link_or_notes": ""
      }
    },
    {
      "type": "Feature",
      "geometry": {
        "type": "Point",
        "coordinates": [
          -98.6094,
          29.556
        ]
      },
      "properties": {
        "sale_id": "2026-08-14_6151-nw-loop-410-san-antonio-tx",
        "title": "Alamo Craft Co. Antiques & More (San Antonio)",
        "sale_type": "garage",
        "date_start": "2026-08-14",
        "date_end": "2026-08-16",
        "start_time": "",
        "end_time": "",
        "address": "6151 NW Loop 410, San Antonio, TX",
        "city": "San Antonio",
        "state": "TX",
        "zip": "",
        "latitude": 29.556,
        "longitude": -98.6094,
        "description": "QR Code Link to This Post OPEN TUES - SAT 10AM-6PM 6151 NW Loop 410, #302 SATX 78238 A hidden gem in San Antonio! Here you'll find unique antiques, vintage items, collectibles, hand-crafted items &amp; so much more. Come by &amp; see all the fun stuff! Ask for your frequent buyer card &amp; get punches with every purchase.",
        "highlights": [],
        "source_urls": [
          "https://www.craigslist.org/view/d/san-antonio-alamo-craft-co-antiques-more/mj6FcRd4ZDr7zwAwc4pwWa"
        ],
        "original_url": "https://www.craigslist.org/view/d/san-antonio-alamo-craft-co-antiques-more/mj6FcRd4ZDr7zwAwc4pwWa",
        "source_names": [
          "Craigslist"
        ],
        "photos": [
          "https://images.craigslist.org/01515_1Xh2ogBe0sZ_0CI0pq_600x450.jpg"
        ],
        "confidence": 96,
        "verified_at": "2026-08-14T03:17:29-05:00",
        "street_view_url": "https://www.google.com/maps/@?api=1&map_action=pano&viewpoint=29.556,-98.6094",
        "google_maps_url": "https://www.google.com/maps/search/?api=1&query=29.556,-98.6094",
        "status": "verified",
        "geocode_method": "source",
        "notes": "",
        "community_source": "",
        "community_link_or_notes": ""
      }
    },
    {
      "type": "Feature",
      "geometry": {
        "type": "Point",
        "coordinates": [
          -98.6555,
          29.4597
        ]
      },
      "properties": {
        "sale_id": "2026-08-14_9215-osage-valley-san-antonio-tx",
        "title": "Community Yard Sale, 08/15/26, Saturday (9215 Osage Valley)",
        "sale_type": "garage",
        "date_start": "2026-08-14",
        "date_end": "2026-08-16",
        "start_time": "",
        "end_time": "",
        "address": "9215 Osage Valley, San Antonio, TX",
        "city": "San Antonio",
        "state": "TX",
        "zip": "",
        "latitude": 29.4597,
        "longitude": -98.6555,
        "description": "QR Code Link to This Post Community yard sale. 9215 Osage Valley, San Antonio TX Saturday, 08/15/26 9am Toys Furniture Clothes Household items Shoes Lots more",
        "highlights": [],
        "source_urls": [
          "https://www.craigslist.org/view/d/san-antonio-community-yard-sale-saturday/jD2D4oFHN3qKLAh6JvHPNq"
        ],
        "original_url": "https://www.craigslist.org/view/d/san-antonio-community-yard-sale-saturday/jD2D4oFHN3qKLAh6JvHPNq",
        "source_names": [
          "Craigslist"
        ],
        "photos": [
          "https://images.craigslist.org/00V0V_fypP65JR3jE_0dJ09v_600x450.jpg",
          "https://images.craigslist.org/00V0V_fypP65JR3jE_0dJ09v_50x50c.jpg",
          "https://images.craigslist.org/00x0x_fByNnB4dink_0CI0t2_50x50c.jpg",
          "https://images.craigslist.org/00e0e_hcnr2steFwS_0t20CI_50x50c.jpg",
          "https://images.craigslist.org/00I0I_cvuVGQ6PSPS_0CI0t2_50x50c.jpg",
          "https://images.craigslist.org/00k0k_3RhcKzK54M8_0CI0t2_50x50c.jpg"
        ],
        "confidence": 96,
        "verified_at": "2026-08-14T03:17:29-05:00",
        "street_view_url": "https://www.google.com/maps/@?api=1&map_action=pano&viewpoint=29.4597,-98.6555",
        "google_maps_url": "https://www.google.com/maps/search/?api=1&query=29.4597,-98.6555",
        "status": "verified",
        "geocode_method": "source",
        "notes": "",
        "community_source": "",
        "community_link_or_notes": ""
      }
    },
    {
      "type": "Feature",
      "geometry": {
        "type": "Point",
        "coordinates": [
          -98.4715,
          29.4285
        ]
      },
      "properties": {
        "sale_id": "2026-08-14_710-n-olive-near-nolan-san-antonio-tx",
        "title": "Garage Sale (San Antonio)",
        "sale_type": "garage",
        "date_start": "2026-08-14",
        "date_end": "2026-08-16",
        "start_time": "",
        "end_time": "",
        "address": "710 N Olive near Nolan, San Antonio, TX",
        "city": "San Antonio",
        "state": "TX",
        "zip": "",
        "latitude": 29.4285,
        "longitude": -98.4715,
        "description": "QR Code Link to This Post Toys, clothes, tools, furniture",
        "highlights": [],
        "source_urls": [
          "https://www.craigslist.org/view/d/san-antonio-garage-sale/gCEkcYDwfc8uPP5fqNQwkZ"
        ],
        "original_url": "https://www.craigslist.org/view/d/san-antonio-garage-sale/gCEkcYDwfc8uPP5fqNQwkZ",
        "source_names": [
          "Craigslist"
        ],
        "photos": [
          "https://images.craigslist.org/00Y0Y_c0LdgYRJMB2_0sQ0CI_600x450.jpg"
        ],
        "confidence": 96,
        "verified_at": "2026-08-14T03:17:29-05:00",
        "street_view_url": "https://www.google.com/maps/@?api=1&map_action=pano&viewpoint=29.4285,-98.4715",
        "google_maps_url": "https://www.google.com/maps/search/?api=1&query=29.4285,-98.4715",
        "status": "verified",
        "geocode_method": "source",
        "notes": "",
        "community_source": "",
        "community_link_or_notes": ""
      }
    },
    {
      "type": "Feature",
      "geometry": {
        "type": "Point",
        "coordinates": [
          -98.45,
          29.55
        ]
      },
      "properties": {
        "sale_id": "2026-08-12_3211-morning-creek-near-thousand-oaks-jo-san-ant",
        "title": "Garage & Moving Sales in San Antonio",
        "sale_type": "garage",
        "date_start": "2026-08-12",
        "date_end": "2026-08-14",
        "start_time": "",
        "end_time": "",
        "address": "3211 Morning Creek near Thousand Oaks/Jo, San Antonio, TX",
        "city": "San Antonio",
        "state": "TX",
        "zip": "",
        "latitude": 29.55,
        "longitude": -98.45,
        "description": "san antonio garage & moving sales - craigslist",
        "highlights": [],
        "source_urls": [
          "https://sanantonio.craigslist.org/search/gms"
        ],
        "original_url": "https://sanantonio.craigslist.org/search/gms",
        "source_names": [
          "Craigslist"
        ],
        "photos": [],
        "confidence": 92,
        "verified_at": "2026-08-14T03:17:29-05:00",
        "street_view_url": "https://www.google.com/maps/@?api=1&map_action=pano&viewpoint=29.55,-98.45",
        "google_maps_url": "https://www.google.com/maps/search/?api=1&query=29.55,-98.45",
        "status": "verified",
        "geocode_method": "approx",
        "notes": "",
        "community_source": "",
        "community_link_or_notes": ""
      }
    },
    {
      "type": "Feature",
      "geometry": {
        "type": "Point",
        "coordinates": [
          -98.43519,
          29.575751
        ]
      },
      "properties": {
        "sale_id": "2026-08-14_3211-morning-crk-san-antonio-tx-78247",
        "title": "Multi Family Garage Sale",
        "sale_type": "garage",
        "date_start": "2026-08-14",
        "date_end": "2026-08-15",
        "start_time": "9:00 AM - 3:00 PM",
        "end_time": "",
        "address": "3211 Morning Crk, San Antonio, TX 78247",
        "city": "San Antonio",
        "state": "TX",
        "zip": "",
        "latitude": 29.575751,
        "longitude": -98.43519,
        "description": "Find all the garage sales, yard sales, and estate sales on a map! Or place a free ad for your upcoming sale on yardsalesearch.com",
        "highlights": [],
        "source_urls": [
          "https://www.yardsalesearch.com/yss-garage-sale.jsp?id=196345095"
        ],
        "original_url": "https://www.yardsalesearch.com/yss-garage-sale.jsp?id=196345095",
        "source_names": [
          "YardSaleSearch"
        ],
        "photos": [
          "https://d82cz7nyq77ak.cloudfront.net/images/social/Facebook.png",
          "https://d82cz7nyq77ak.cloudfront.net/images/social/Pinterest.png",
          "https://d82cz7nyq77ak.cloudfront.net/images/social/Reddit.png",
          "https://d82cz7nyq77ak.cloudfront.net/images/social/Twitter.png",
          "https://d82cz7nyq77ak.cloudfront.net/images/social/Email.png",
          "https://gsf.tlstatic.com/image/w300-c300:250/2026/08/12/s/7/3/21710673/XwwEP-0.jpeg"
        ],
        "confidence": 100,
        "verified_at": "2026-08-14T03:17:29-05:00",
        "street_view_url": "https://www.google.com/maps/@?api=1&map_action=pano&viewpoint=29.575751,-98.43519",
        "google_maps_url": "https://www.google.com/maps/search/?api=1&query=29.575751,-98.43519",
        "status": "verified",
        "geocode_method": "source",
        "notes": "",
        "community_source": "",
        "community_link_or_notes": ""
      }
    },
    {
      "type": "Feature",
      "geometry": {
        "type": "Point",
        "coordinates": [
          -98.52612,
          29.591323
        ]
      },
      "properties": {
        "sale_id": "2026-08-14_2122-fallow-run-san-antonio-tx-78248",
        "title": "Huge Garage Sale",
        "sale_type": "garage",
        "date_start": "2026-08-14",
        "date_end": "2026-08-15",
        "start_time": "8:00 AM - 3:00 PM",
        "end_time": "",
        "address": "2122 Fallow Run, San Antonio, TX 78248",
        "city": "San Antonio",
        "state": "TX",
        "zip": "",
        "latitude": 29.591323,
        "longitude": -98.52612,
        "description": "Find all the garage sales, yard sales, and estate sales on a map! Or place a free ad for your upcoming sale on yardsalesearch.com",
        "highlights": [],
        "source_urls": [
          "https://www.yardsalesearch.com/yss-garage-sale.jsp?id=196344219"
        ],
        "original_url": "https://www.yardsalesearch.com/yss-garage-sale.jsp?id=196344219",
        "source_names": [
          "YardSaleSearch"
        ],
        "photos": [
          "https://d82cz7nyq77ak.cloudfront.net/images/social/Facebook.png",
          "https://d82cz7nyq77ak.cloudfront.net/images/social/Pinterest.png",
          "https://d82cz7nyq77ak.cloudfront.net/images/social/Reddit.png",
          "https://d82cz7nyq77ak.cloudfront.net/images/social/Twitter.png",
          "https://d82cz7nyq77ak.cloudfront.net/images/social/Email.png",
          "https://gsf.tlstatic.com/image/w300-c300:250/2026/08/11/s/9/5/21709795/5EDw-0.jpeg"
        ],
        "confidence": 100,
        "verified_at": "2026-08-14T03:17:29-05:00",
        "street_view_url": "https://www.google.com/maps/@?api=1&map_action=pano&viewpoint=29.591323,-98.52612",
        "google_maps_url": "https://www.google.com/maps/search/?api=1&query=29.591323,-98.52612",
        "status": "verified",
        "geocode_method": "source",
        "notes": "",
        "community_source": "",
        "community_link_or_notes": ""
      }
    },
    {
      "type": "Feature",
      "geometry": {
        "type": "Point",
        "coordinates": [
          -98.1903,
          29.523325
        ]
      },
      "properties": {
        "sale_id": "2026-08-14_123-northview-cir-cibolo-tx-78108",
        "title": "Multifamily Yard Sale-Everything Must Go!!",
        "sale_type": "garage",
        "date_start": "2026-08-14",
        "date_end": "2026-08-15",
        "start_time": "9:00 AM - 3:00 PM",
        "end_time": "",
        "address": "123 Northview Cir, Cibolo, TX 78108",
        "city": "San Antonio",
        "state": "TX",
        "zip": "",
        "latitude": 29.523325,
        "longitude": -98.1903,
        "description": "Find all the garage sales, yard sales, and estate sales on a map! Or place a free ad for your upcoming sale on yardsalesearch.com",
        "highlights": [],
        "source_urls": [
          "https://www.yardsalesearch.com/yss-garage-sale.jsp?id=196342241"
        ],
        "original_url": "https://www.yardsalesearch.com/yss-garage-sale.jsp?id=196342241",
        "source_names": [
          "YardSaleSearch"
        ],
        "photos": [
          "https://d82cz7nyq77ak.cloudfront.net/images/social/Facebook.png",
          "https://d82cz7nyq77ak.cloudfront.net/images/social/Pinterest.png",
          "https://d82cz7nyq77ak.cloudfront.net/images/social/Reddit.png",
          "https://d82cz7nyq77ak.cloudfront.net/images/social/Twitter.png",
          "https://d82cz7nyq77ak.cloudfront.net/images/social/Email.png",
          "https://ps.tlstatic.com/image/w300-c300:250/2026/08/08/s/5/1/402251/6IaDs-0.jpeg"
        ],
        "confidence": 100,
        "verified_at": "2026-08-14T03:17:29-05:00",
        "street_view_url": "https://www.google.com/maps/@?api=1&map_action=pano&viewpoint=29.523325,-98.1903",
        "google_maps_url": "https://www.google.com/maps/search/?api=1&query=29.523325,-98.1903",
        "status": "verified",
        "geocode_method": "source",
        "notes": "",
        "community_source": "",
        "community_link_or_notes": ""
      }
    },
    {
      "type": "Feature",
      "geometry": {
        "type": "Point",
        "coordinates": [
          -98.43648,
          29.575668
        ]
      },
      "properties": {
        "sale_id": "2026-08-14_3211-morning-creek-near-thousand-oaks-jones-malt",
        "title": "Multi Family Garage Sale (San Antonio)",
        "sale_type": "garage",
        "date_start": "2026-08-14",
        "date_end": "2026-08-16",
        "start_time": "",
        "end_time": "",
        "address": "3211 Morning Creek near Thousand Oaks/Jones Maltsberger, San Antonio, TX",
        "city": "San Antonio",
        "state": "TX",
        "zip": "",
        "latitude": 29.575668,
        "longitude": -98.43648,
        "description": "QR Code Link to This Post OH MY - the other folks just brought 4 truckloads of items to sell - LOTS of lamps, wall hangings, music, art, outdoor items WOW! Wii Fit, PPS4, Furntirue, CDs and DVDs, Christmas decorations, vintage tupperware, yard and fence art, household items, and much, much more",
        "highlights": [],
        "source_urls": [
          "https://www.craigslist.org/view/d/san-antonio-multi-family-garage-sale/xxGfKyvupqRLz9oBk3KYh4"
        ],
        "original_url": "https://www.craigslist.org/view/d/san-antonio-multi-family-garage-sale/xxGfKyvupqRLz9oBk3KYh4",
        "source_names": [
          "Craigslist"
        ],
        "photos": [
          "https://images.craigslist.org/00303_6sA0R6mWbmB_0ak05B_600x450.jpg",
          "https://images.craigslist.org/00303_6sA0R6mWbmB_0ak05B_50x50c.jpg",
          "https://images.craigslist.org/00d0d_eFDxHAGAllu_0ak07K_50x50c.jpg",
          "https://images.craigslist.org/00g0g_6sAtBirdkLX_07K0ak_50x50c.jpg",
          "https://images.craigslist.org/00505_25l7q0UtRl4_0ak07K_50x50c.jpg",
          "https://images.craigslist.org/00m0m_3BKC92ABhl2_0ak07K_50x50c.jpg"
        ],
        "confidence": 96,
        "verified_at": "2026-08-14T03:17:29-05:00",
        "street_view_url": "https://www.google.com/maps/@?api=1&map_action=pano&viewpoint=29.575668,-98.43648",
        "google_maps_url": "https://www.google.com/maps/search/?api=1&query=29.575668,-98.43648",
        "status": "verified",
        "geocode_method": "source",
        "notes": "",
        "community_source": "",
        "community_link_or_notes": ""
      }
    },
    {
      "type": "Feature",
      "geometry": {
        "type": "Point",
        "coordinates": [
          -98.6464,
          29.346
        ]
      },
      "properties": {
        "sale_id": "2026-08-14_7003-tides-trail-san-antonio-tx",
        "title": "Family yard sale by Traders Village",
        "sale_type": "garage",
        "date_start": "2026-08-14",
        "date_end": "2026-08-16",
        "start_time": "",
        "end_time": "",
        "address": "7003 Tides Trail, San Antonio, TX",
        "city": "San Antonio",
        "state": "TX",
        "zip": "",
        "latitude": 29.346,
        "longitude": -98.6464,
        "description": "QR Code Link to This Post Family yard sale Many Items -Girls, Baby Boy, Mens and Womens Clothes and Shoes -Dryer -Ice Chest -Squishies Dumplings Household Items and much more",
        "highlights": [],
        "source_urls": [
          "https://www.craigslist.org/view/d/jbsa-lackland-family-yard-sale-by/prvnqJUJD8kgauFtfTzYnt"
        ],
        "original_url": "https://www.craigslist.org/view/d/jbsa-lackland-family-yard-sale-by/prvnqJUJD8kgauFtfTzYnt",
        "source_names": [
          "Craigslist"
        ],
        "photos": [
          "https://images.craigslist.org/00K0K_1xEWptxvUVx_0js0fu_600x450.jpg",
          "https://images.craigslist.org/00K0K_1xEWptxvUVx_0js0fu_50x50c.jpg",
          "https://images.craigslist.org/00j0j_lT9tLjAMeQa_0qK0t2_50x50c.jpg",
          "https://images.craigslist.org/00k0k_gnbMQ9xHw72_0t20CI_50x50c.jpg",
          "https://images.craigslist.org/01515_cP5Bb6gN7Nn_0sB0t2_50x50c.jpg",
          "https://images.craigslist.org/00Y0Y_48ERUn9PW0F_0lN0t2_50x50c.jpg"
        ],
        "confidence": 96,
        "verified_at": "2026-08-14T03:17:29-05:00",
        "street_view_url": "https://www.google.com/maps/@?api=1&map_action=pano&viewpoint=29.346,-98.6464",
        "google_maps_url": "https://www.google.com/maps/search/?api=1&query=29.346,-98.6464",
        "status": "verified",
        "geocode_method": "source",
        "notes": "",
        "community_source": "",
        "community_link_or_notes": ""
      }
    },
    {
      "type": "Feature",
      "geometry": {
        "type": "Point",
        "coordinates": [
          -98.396,
          29.3831
        ]
      },
      "properties": {
        "sale_id": "2026-08-14_5946-cinnabar-corner-san-antonio-tx",
        "title": "Garage Sale (Blue ridge ranch)",
        "sale_type": "garage",
        "date_start": "2026-08-14",
        "date_end": "2026-08-16",
        "start_time": "",
        "end_time": "",
        "address": "5946 Cinnabar Corner, San Antonio, TX",
        "city": "San Antonio",
        "state": "TX",
        "zip": "",
        "latitude": 29.3831,
        "longitude": -98.396,
        "description": "QR Code Link to This Post Home decor, gently used shoes, men's/women's/ kids clothes comic books, and more",
        "highlights": [],
        "source_urls": [
          "https://www.craigslist.org/view/d/san-antonio-garage-sale/mT6eSNGRoMFrrZNABKYbLs"
        ],
        "original_url": "https://www.craigslist.org/view/d/san-antonio-garage-sale/mT6eSNGRoMFrrZNABKYbLs",
        "source_names": [
          "Craigslist"
        ],
        "photos": [],
        "confidence": 96,
        "verified_at": "2026-08-14T03:17:29-05:00",
        "street_view_url": "https://www.google.com/maps/@?api=1&map_action=pano&viewpoint=29.3831,-98.396",
        "google_maps_url": "https://www.google.com/maps/search/?api=1&query=29.3831,-98.396",
        "status": "verified",
        "geocode_method": "source",
        "notes": "",
        "community_source": "",
        "community_link_or_notes": ""
      }
    },
    {
      "type": "Feature",
      "geometry": {
        "type": "Point",
        "coordinates": [
          -98.555163,
          29.564265
        ]
      },
      "properties": {
        "sale_id": "2026-08-14_13144-queens-forest-near-lockhill-selma-huebner-",
        "title": "Garage Sale Hunters Creek North (Lockhill Selma & Huebner)",
        "sale_type": "garage",
        "date_start": "2026-08-14",
        "date_end": "2026-08-16",
        "start_time": "",
        "end_time": "",
        "address": "13144 Queens Forest near Lockhill Selma / Huebner, San Antonio, TX",
        "city": "San Antonio",
        "state": "TX",
        "zip": "",
        "latitude": 29.564265,
        "longitude": -98.555163,
        "description": "QR Code Link to This Post Polk bass speaker , bluetooth portable speakers, clothing, household items, electronic equipment, kitchen utensils, chef cook books, water bottles, power tools, (pitch, sand, approach )golf clubs, golf balls, 100's cd's, Brothers Color printer, deer mounts, ( white tail, Axis, Sika ) plants, pitchers / prints, etc",
        "highlights": [],
        "source_urls": [
          "https://www.craigslist.org/view/d/san-antonio-garage-sale-hunters-creek/5bPQD623tziLUkTAskZiKJ"
        ],
        "original_url": "https://www.craigslist.org/view/d/san-antonio-garage-sale-hunters-creek/5bPQD623tziLUkTAskZiKJ",
        "source_names": [
          "Craigslist"
        ],
        "photos": [
          "https://images.craigslist.org/00W0W_iURSbmCgCnz_0hq0ne_600x450.jpg",
          "https://images.craigslist.org/00W0W_iURSbmCgCnz_0hq0ne_50x50c.jpg",
          "https://images.craigslist.org/00h0h_bDKRBR1kNKE_0hq0ne_50x50c.jpg",
          "https://images.craigslist.org/00g0g_iz9pdGtxGuv_0CI0t2_50x50c.jpg",
          "https://images.craigslist.org/00U0U_hs5tlx5sp2S_0t20CI_50x50c.jpg",
          "https://images.craigslist.org/00l0l_7ncTqLtWvBS_0t20CI_50x50c.jpg"
        ],
        "confidence": 96,
        "verified_at": "2026-08-14T03:17:29-05:00",
        "street_view_url": "https://www.google.com/maps/@?api=1&map_action=pano&viewpoint=29.564265,-98.555163",
        "google_maps_url": "https://www.google.com/maps/search/?api=1&query=29.564265,-98.555163",
        "status": "verified",
        "geocode_method": "source",
        "notes": "",
        "community_source": "",
        "community_link_or_notes": ""
      }
    },
    {
      "type": "Feature",
      "geometry": {
        "type": "Point",
        "coordinates": [
          -98.4071,
          29.5855
        ]
      },
      "properties": {
        "sale_id": "2026-08-14_3231-leblanc-near-rowe-san-antonio-tx",
        "title": "Garage Sale-3 families with great items, furniture, clothes & more",
        "sale_type": "garage",
        "date_start": "2026-08-14",
        "date_end": "2026-08-16",
        "start_time": "",
        "end_time": "",
        "address": "3231 LeBlanc near Rowe, San Antonio, TX",
        "city": "San Antonio",
        "state": "TX",
        "zip": "",
        "latitude": 29.5855,
        "longitude": -98.4071,
        "description": "QR Code Link to This Post Come by and see what we have for sale. Entertainment Center. Dinette set, Halloween items, arts &amp; crafts, music CD’s, clothing and much more.",
        "highlights": [],
        "source_urls": [
          "https://www.craigslist.org/view/d/san-antonio-garage-sale-families-with/ukhs8v1hwFRfwGVgsJK9zP"
        ],
        "original_url": "https://www.craigslist.org/view/d/san-antonio-garage-sale-families-with/ukhs8v1hwFRfwGVgsJK9zP",
        "source_names": [
          "Craigslist"
        ],
        "photos": [
          "https://images.craigslist.org/00505_j9JVhQjSOjg_0xw0t2_600x450.jpg",
          "https://images.craigslist.org/00505_j9JVhQjSOjg_0xw0t2_50x50c.jpg",
          "https://images.craigslist.org/00r0r_c8f8pRmwBXb_0t20CI_50x50c.jpg",
          "https://images.craigslist.org/01313_3PjExgrEBsQ_0t20CI_50x50c.jpg",
          "https://images.craigslist.org/00404_4KfGKdLSBbu_0t20CI_50x50c.jpg",
          "https://images.craigslist.org/00J0J_7zblaPcusv5_0t20CI_50x50c.jpg"
        ],
        "confidence": 96,
        "verified_at": "2026-08-14T03:17:29-05:00",
        "street_view_url": "https://www.google.com/maps/@?api=1&map_action=pano&viewpoint=29.5855,-98.4071",
        "google_maps_url": "https://www.google.com/maps/search/?api=1&query=29.5855,-98.4071",
        "status": "verified",
        "geocode_method": "source",
        "notes": "",
        "community_source": "",
        "community_link_or_notes": ""
      }
    },
    {
      "type": "Feature",
      "geometry": {
        "type": "Point",
        "coordinates": [
          -98.6563,
          29.4304
        ]
      },
      "properties": {
        "sale_id": "2026-08-14_518-scarlet-ibis-near-adhinger-san-antonio-tx",
        "title": "Garage sale friday the 14 and Saturday the 15 (San Antonio)",
        "sale_type": "garage",
        "date_start": "2026-08-14",
        "date_end": "2026-08-16",
        "start_time": "",
        "end_time": "",
        "address": "518 scarlet ibis near Adhinger, San Antonio, TX",
        "city": "San Antonio",
        "state": "TX",
        "zip": "",
        "latitude": 29.4304,
        "longitude": -98.6563,
        "description": "QR Code Link to This Post Will have ammo for a 30.06 rife, 20 Ga ammo and .45 long colt ammo. A propane grill, gas power washer both work. Lots of other stuff for sale including art work.",
        "highlights": [],
        "source_urls": [
          "https://www.craigslist.org/view/d/san-antonio-garage-sale-friday-the-14/jvY7MNto5s9LMc5zPzVXhS"
        ],
        "original_url": "https://www.craigslist.org/view/d/san-antonio-garage-sale-friday-the-14/jvY7MNto5s9LMc5zPzVXhS",
        "source_names": [
          "Craigslist"
        ],
        "photos": [
          "https://images.craigslist.org/00Z0Z_7IvyxboSUVy_0t20CI_600x450.jpg",
          "https://images.craigslist.org/00Z0Z_7IvyxboSUVy_0t20CI_50x50c.jpg",
          "https://images.craigslist.org/01717_ipVRMflF2LT_0t20CI_50x50c.jpg",
          "https://images.craigslist.org/00y0y_eMELsZHxjv8_0t20CI_50x50c.jpg",
          "https://images.craigslist.org/00T0T_alcMZ9fPx8t_0t20CI_50x50c.jpg",
          "https://images.craigslist.org/01616_cyreshuvkQx_0t20CI_50x50c.jpg"
        ],
        "confidence": 96,
        "verified_at": "2026-08-14T03:17:29-05:00",
        "street_view_url": "https://www.google.com/maps/@?api=1&map_action=pano&viewpoint=29.4304,-98.6563",
        "google_maps_url": "https://www.google.com/maps/search/?api=1&query=29.4304,-98.6563",
        "status": "verified",
        "geocode_method": "source",
        "notes": "",
        "community_source": "",
        "community_link_or_notes": ""
      }
    },
    {
      "type": "Feature",
      "geometry": {
        "type": "Point",
        "coordinates": [
          -98.395857,
          29.554172
        ]
      },
      "properties": {
        "sale_id": "2026-08-14_12602-el-palacio-st-san-antonio-tx",
        "title": "Yard sale $1 clothing sale",
        "sale_type": "garage",
        "date_start": "2026-08-14",
        "date_end": "2026-08-16",
        "start_time": "",
        "end_time": "",
        "address": "12602 El Palacio St, San Antonio, TX",
        "city": "San Antonio",
        "state": "TX",
        "zip": "",
        "latitude": 29.554172,
        "longitude": -98.395857,
        "description": "QR Code Link to This Post All clothes and shoes $1 Mostly women's XS to 3XL Shoes 7 to 10 New mens XL jacket Dresses, pants, jeans, skirts, shorts, tops, sweaters, jackets, sandals, boots, sneakers, heels. Women's bike Barbies and some accessories Soldiers, books Saturday 8-15-2026 9am till 2pm",
        "highlights": [],
        "source_urls": [
          "https://www.craigslist.org/view/d/san-antonio-yard-sale-clothing-sale/ok6s8i97185TyCw3seNDUy"
        ],
        "original_url": "https://www.craigslist.org/view/d/san-antonio-yard-sale-clothing-sale/ok6s8i97185TyCw3seNDUy",
        "source_names": [
          "Craigslist"
        ],
        "photos": [
          "https://images.craigslist.org/00F0F_2DSrr0ktuxI_0zk0t2_600x450.jpg",
          "https://images.craigslist.org/00F0F_2DSrr0ktuxI_0zk0t2_50x50c.jpg",
          "https://images.craigslist.org/00E0E_fePLDSVeAv4_0cd0t2_50x50c.jpg",
          "https://images.craigslist.org/00g0g_bVRgDPZxSny_0fO0m8_50x50c.jpg",
          "https://images.craigslist.org/00T0T_6JDOrjuAFpx_0gx0de_50x50c.jpg",
          "https://images.craigslist.org/00000_hBSL5iBkp59_0hq0fo_50x50c.jpg"
        ],
        "confidence": 96,
        "verified_at": "2026-08-14T03:17:29-05:00",
        "street_view_url": "https://www.google.com/maps/@?api=1&map_action=pano&viewpoint=29.554172,-98.395857",
        "google_maps_url": "https://www.google.com/maps/search/?api=1&query=29.554172,-98.395857",
        "status": "verified",
        "geocode_method": "source",
        "notes": "",
        "community_source": "",
        "community_link_or_notes": ""
      }
    }
  ]
}